name,mac address,encryption,lat,lon
headstart,00:02:6F:DC:03:E6,WPA+AES-CCM WPA+PSK,32.492699,-92.123914
VIVINT_ODC_(58:73:18),00:02:D1:58:73:18,None,32.492546,-92.167597
VIVINT_ODC_(58:A0:E9),00:02:D1:58:A0:E9,None,32.492867,-92.167292
ALARM (6F:CA:2A),00:02:D1:6F:CA:2A,None,,
Delta Packaging,00:0C:42:FD:22:1B,WPA+AES-CCM WPA+PSK,32.489472,-92.136303
GPI_NET,00:0D:8D:F0:0B:81,WEP,32.489271,-92.138800
GPI_NET,00:0D:8D:F0:0D:32,WEP,32.486987,-92.147406
GPI_NET,00:0D:8D:F0:19:38,WEP,32.487004,-92.149192
GPI_NET,00:0D:8D:F0:1C:4D,WEP,32.486757,-92.150110
GPI_NET,00:0D:8D:F0:1C:4E,WEP,32.486785,-92.147341
GPI_NET,00:0D:8D:F0:5E:ED,WEP,32.486779,-92.147226
GPI_NET,00:0D:8D:F0:69:48,WEP,32.488307,-92.138354
GPI_NET,00:0D:8D:F0:7D:1B,WEP,32.487668,-92.149652
GPI_NET,00:0D:8D:F0:93:C0,WEP,32.488842,-92.136838
7016 6364,00:0F:CC:E0:E3:38,WEP,32.488428,-92.162284
ALLPHASE,00:14:BF:2A:43:2B,WPA+AES-CCM WPA+PSK WPA+TKIP,32.488083,-92.144688
secure,00:16:01:16:68:16,WPA+PSK WPA+TKIP,32.487053,-92.153503
linksys,00:16:B6:35:ED:58,None,32.487900,-92.138763
None,00:18:0A:84:D0:89,WPA+AES-CCM WPA+PSK,32.486589,-92.147877
VIZIOCastDisplay7045,00:19:9D:FF:0E:6E,None,32.487087,-92.153900
VIZIOCastDisplay7769,00:19:9D:FF:98:55,None,32.491924,-92.165802
linksys,00:1C:10:68:E3:6F,None,32.487056,-92.153879
MillPolice,00:1D:7E:D2:CD:37,WPA+PSK WPA+TKIP,32.486984,-92.152657
Twin City 21,00:1D:D0:6B:F1:90,WPA+AES-CCM WPA+PSK WPA+TKIP,32.491904,-92.169005
HONEY BEE,00:22:3F:29:EE:CE,WPA+PSK WPA+TKIP,32.487133,-92.156059
wmpd,00:22:B0:B0:1A:23,WPA+PSK WPA+TKIP,,
INTERMEC,00:22:BD:9A:43:00,WEP,32.486887,-92.147038
INTERMEC,00:22:BD:9A:56:60,WEP,32.486630,-92.147717
INTERMEC,00:22:BD:9A:6A:50,WEP,32.486798,-92.148013
INTERMEC,00:22:BD:9A:7D:50,WEP,32.486893,-92.146835
ledsigns_new,00:23:28:06:3A:68,WPA+PSK WPA+TKIP,32.487015,-92.147501
seiglecommunity,00:24:37:1E:4F:60,WEP,32.491911,-92.170665
mammy,00:24:B2:5D:11:17,WPA+AES-CCM WPA+PSK WPA+TKIP,32.492044,-92.163546
LEO,00:25:9C:38:B3:D0,WPA+AES-CCM WPA+PSK WPA+TKIP,32.492995,-92.123497
tl6bba10,00:25:F0:6B:BA:10,WPA+AES-CCM WPA+PSK,32.493076,-92.129885
tl6c74b4,00:25:F0:6C:74:B4,WPA+AES-CCM WPA+PSK,32.493341,-92.130194
tlbadba,00:25:F0:6D:47:40,WPA+AES-CCM WPA+PSK,32.488445,-92.163401
tla73210,00:25:F0:6D:F7:A6,WPA+AES-CCM WPA+PSK,32.492838,-92.167516
tl6f4f5e,00:25:F0:6F:4F:5E,WPA+AES-CCM WPA+PSK,32.492877,-92.167237
tl7063c6,00:25:F0:70:63:C6,WPA+AES-CCM WPA+PSK,32.490658,-92.167938
tl74920c,00:25:F0:74:92:0C,WPA+AES-CCM WPA+PSK,32.488488,-92.166944
tl74bd36,00:25:F0:74:BD:36,WPA+AES-CCM WPA+PSK,32.485317,-92.161453
tla73210,00:25:F0:75:06:60,WPA+AES-CCM WPA+PSK,32.488510,-92.167953
tl765e86,00:25:F0:76:5E:86,WPA+AES-CCM WPA+PSK,,
tladdf5a,00:25:F0:AD:DF:5A,WPA+AES-CCM WPA+PSK,32.491474,-92.125816
donnie,00:26:F2:A0:2D:F1,WPA+AES-CCM WPA+PSK WPA+TKIP,32.487320,-92.160866
GPI,00:27:E3:8D:AB:60,WPA+AES-CCM WPA+PSK,32.486596,-92.147841
GPI_Guest,00:27:E3:8D:AB:61,WPA+AES-CCM WPA+PSK,32.486611,-92.148180
GPI-Secure,00:27:E3:8D:AB:62,WPA+AES-CCM,32.486593,-92.147843
GPI-Equipment,00:27:E3:8D:AB:63,WPA+AES-CCM WPA+PSK,32.486590,-92.147974
None,00:30:44:1B:25:AE,WPA+AES-CCM WPA+PSK,32.492841,-92.164643
OPFD-T3-2g,00:30:44:1B:28:3F,WPA+AES-CCM WPA+PSK,32.494680,-92.178393
OPFD-212-2g,00:30:44:1C:CE:F1,WPA+AES-CCM WPA+PSK,32.493670,-92.177031
OPFDES1,00:30:44:1C:CE:F7,WPA+AES-CCM WPA+PSK,32.494637,-92.178554
E601,00:30:44:1E:95:6D,WPA+AES-CCM WPA+PSK,32.499339,-92.129702
E803,00:30:44:1E:95:76,WPA+AES-CCM WPA+PSK,32.499424,-92.129560
AER1600-79b,00:30:44:2E:F7:9C,WPA+AES-CCM WPA+PSK,32.498951,-92.128738
graphpack,00:3A:99:3F:3D:C0,None,32.488415,-92.144325
TrinityBaptist,00:71:C2:50:DB:00,WPA+AES-CCM WPA+PSK WPA+TKIP,32.489511,-92.143356
Fire-2.4,00:71:C2:51:5C:50,WPA+AES-CCM WPA+PSK WPA+TKIP,32.494526,-92.178044
AlbanyJBRd,00:71:C2:6E:30:08,WPA+AES-CCM WPA+PSK WPA+TKIP,32.489340,-92.143320
ArenaBilliards,00:71:C2:7D:AE:B8,WPA+AES-CCM WPA+PSK,32.486985,-92.152668
None,00:71:C2:7E:2D:C8,WPA+AES-CCM WPA+PSK WPA+TKIP,32.486759,-92.149482
BCI2.5,00:71:C2:A5:1C:50,WPA+AES-CCM WPA+PSK WPA+TKIP,32.486665,-92.148881
HotSpotCC,00:71:C2:D0:16:D0,WPA+AES-CCM WPA+PSK WPA+TKIP,,
hug2g525873,00:80:AE:2A:8C:4D,WPA+AES-CCM WPA+PSK,32.489004,-92.143882
hug2g634796,00:80:AE:2A:C3:F8,WPA+AES-CCM WPA+PSK,32.487093,-92.158576
hug2g256623,00:80:AE:3A:E7:B2,WPA+AES-CCM WPA+PSK,32.497250,-92.126594
hug2g839465,00:80:AE:42:83:A7,WPA+AES-CCM WPA+PSK WPA+TKIP,32.485851,-92.161018
hug2g648943,00:80:AE:4A:2B:9D,WPA+AES-CCM WPA+PSK WPA+TKIP,32.492662,-92.123867
hug2g373262,00:80:AE:4E:D2:23,WPA+AES-CCM WPA+PSK WPA+TKIP,32.489593,-92.167370
hug2g899598,00:80:AE:82:A7:0F,WPA+AES-CCM WPA+PSK,32.485103,-92.161102
hug2g296742,00:80:AE:9A:EB:F5,WPA+AES-CCM WPA+PSK,32.492298,-92.167747
hug2g593524,00:80:AE:9A:F1:D7,WPA+AES-CCM WPA+PSK,32.489792,-92.168030
hug2g693855,00:80:AE:BE:F3:6A,WPA+AES-CCM WPA+PSK,32.487081,-92.156195
hug2g236966,00:80:AE:C6:64:96,WPA+AES-CCM WPA+PSK WPA+TKIP,32.487081,-92.154678
TRUELOVE-PC_Network,00:90:A9:06:93:E6,None,32.488180,-92.138309
exede-4501,00:A0:BC:52:03:AD,WPA+AES-CCM WPA+PSK,32.491912,-92.170794
Viasat-7491,00:A0:BC:A8:A1:61,WPA+AES-CCM WPA+PSK,32.495991,-92.125542
WiFi-Repeater,00:E0:20:70:37:45,WPA+AES-CCM WPA+PSK,32.493181,-92.123185
JETSTREAM_3478,00:E0:4C:A4:34:78,WPA+AES-CCM WPA+PSK,32.492449,-92.175495
Delta Guest,02:0C:42:FD:22:1B,WPA+AES-CCM WPA+PSK WPA+TKIP,32.489474,-92.136299
None,02:1D:D0:6B:F1:90,WPA+AES-CCM WPA+PSK,32.491904,-92.168868
HPE710n.B7F40A,02:29:89:4B:42:4A,None,32.486605,-92.147678
HPM1217-9A0EDD,02:29:D9:04:49:04,None,,
OPFD-Guest,02:30:44:1C:CE:F7,WPA+AES-CCM WPA+PSK,32.494454,-92.178021
None,02:71:47:27:51:60,WPA+AES-CCM WPA+PSK,32.498404,-92.127491
DIRECT-KP-BRAVIA,02:71:CC:4C:46:9F,WPA+AES-CCM WPA+PSK,32.491894,-92.164853
acs-llc-g,02:90:7F:BA:A0:19,WPA+AES-CCM WPA+PSK WPA+TKIP,32.486718,-92.147379
Samsung Galaxy_3809,02:9D:6B:22:1F:2C,WPA+AES-CCM WPA+PSK,32.486955,-92.152287
None,02:9F:C2:D7:72:BD,WPA+AES-CCM WPA+PSK,32.485018,-92.159536
None,02:9F:C2:D7:73:C7,WPA+AES-CCM WPA+PSK,32.485551,-92.159005
None,02:A0:0D:12:F8:94,WPA+AES-CCM WPA+TKIP,32.488094,-92.160603
None,02:A0:0D:13:0E:72,WPA+AES-CCM WPA+TKIP,,
None,02:A0:0D:17:8D:DA,WPA+AES-CCM WPA+TKIP,32.493341,-92.123328
None,02:A0:0D:1B:70:69,WPA+AES-CCM WPA+TKIP,32.492647,-92.127887
None,02:A0:0D:B3:9D:EA,WPA+AES-CCM WPA+TKIP,32.488521,-92.168106
None,02:AA:A0:00:0E:A8,WPA+AES-CCM WPA+TKIP,32.491898,-92.164787
None,02:AA:A0:65:ED:08,WPA+AES-CCM WPA+TKIP,32.494134,-92.126300
None,02:AA:A0:7D:5B:B8,WPA+AES-CCM WPA+TKIP,32.498437,-92.127518
None,02:AA:A0:89:8D:28,WPA+AES-CCM WPA+TKIP,32.490158,-92.135231
None,02:AA:A0:8B:AC:48,WPA+AES-CCM WPA+TKIP,32.491913,-92.164226
None,02:AA:A0:97:94:A8,WPA+AES-CCM WPA+TKIP,32.488462,-92.164608
None,02:AA:A0:99:1B:38,WPA+AES-CCM WPA+TKIP,32.487116,-92.155905
None,02:AA:A0:9F:96:28,WPA+AES-CCM WPA+TKIP,32.493221,-92.123274
None,02:AA:A0:CA:FA:80,WPA+AES-CCM WPA+TKIP,32.488415,-92.161671
tl6bba10-EXT,02:BE:F5:00:5A:3E,WPA+AES-CCM WPA+PSK,32.493314,-92.129931
None,02:F8:93:85:1E:D0,WPA+AES-CCM WPA+PSK,32.497593,-92.126846
None,02:F8:93:A7:45:F0,WPA+AES-CCM WPA+PSK,32.498942,-92.128784
None,02:FC:8B:12:88:B7,WPA+AES-CCM WPA+PSK,32.488461,-92.164461
FIRSTWEST,04:18:D6:C5:33:33,None,32.499754,-92.130033
FIRSTWEST,04:18:D6:C5:33:72,None,,
Taylor,04:4E:5A:1C:7A:C6,WPA+AES-CCM WPA+PSK,32.492736,-92.167025
L.manning,04:4E:5A:1E:97:36,WPA+AES-CCM WPA+PSK,32.493376,-92.130079
Kaden,04:4E:5A:94:AF:72,WPA+AES-CCM WPA+PSK,32.488327,-92.160431
HomeEarline,04:4E:5A:96:3D:54,WPA+AES-CCM WPA+PSK,32.488459,-92.164574
Dogs,04:4E:5A:98:89:AB,WPA+AES-CCM WPA+PSK,32.494197,-92.177657
RGM,04:A1:51:88:17:BA,WPA+AES-CCM WPA+PSK,32.494533,-92.125034
Evans_2GEXT,04:A1:51:DD:1F:E9,WPA+AES-CCM WPA+PSK WPA+TKIP,32.494354,-92.177837
2b6464307e61fd2995f800ca135e003d,04:F0:21:14:4F:96,WPA+AES-CCM WPA+PSK,32.493580,-92.123390
xfinitywifi,06:0E:83:D5:26:B0,None,32.499592,-92.129898
xfinitywifi,06:0E:83:F1:DB:29,None,32.488449,-92.163578
xfinitywifi,06:0E:83:F2:77:D3,None,32.488303,-92.160442
FW_MEDIA,06:18:D6:C5:33:26,WPA+AES-CCM WPA+PSK,,
xfinitywifi,06:1D:D0:6B:F1:90,None,32.491904,-92.169386
xfinitywifi,06:3E:0C:9D:EA:30,None,32.490509,-92.134666
None,06:8D:DB:65:7C:96,None,32.498979,-92.128723
xfinitywifi,06:F8:93:5D:F6:40,None,32.488473,-92.166050
xfinitywifi,06:F8:93:A8:CE:C0,None,32.493439,-92.129982
NETGEAR82,08:02:8E:C3:52:83,WPA+AES-CCM WPA+PSK WPA+TKIP,32.499962,-92.130199
None,08:05:81:82:FC:73,WPA+AES-CCM WPA+PSK,,
robert,08:86:3B:31:83:CE,WEP,32.484986,-92.160385
PrinterNetwork,08:86:3B:49:61:50,WPA+AES-CCM WPA+PSK,32.494330,-92.177811
Trenton House,08:BD:43:A8:37:5E,WPA+AES-CCM WPA+PSK,,
None,0A:80:AE:2A:8C:4D,WPA+AES-CCM WPA+PSK,32.489106,-92.143765
None,0A:80:AE:2A:C3:F8,WPA+AES-CCM WPA+PSK,32.487102,-92.158606
None,0A:80:AE:3A:E7:B2,WPA+AES-CCM WPA+PSK,32.497213,-92.126564
None,0A:80:AE:42:83:A7,WPA+AES-CCM WPA+PSK,32.485659,-92.160988
None,0A:80:AE:4E:D2:23,WPA+AES-CCM WPA+PSK,32.489985,-92.167764
None,0A:80:AE:82:A7:0F,WPA+AES-CCM WPA+PSK,32.485090,-92.161019
None,0A:80:AE:9A:EB:F5,WPA+AES-CCM WPA+PSK,32.492298,-92.167747
None,0A:80:AE:9A:F1:D7,WPA+AES-CCM WPA+PSK,32.489410,-92.168068
None,0A:80:AE:BE:F3:6A,WPA+AES-CCM WPA+PSK,32.487073,-92.156041
None,0A:80:AE:C6:64:96,WPA+AES-CCM WPA+PSK,32.487121,-92.155518
xfinitywifi,0A:8B:37:F4:91:B8,None,32.493091,-92.123184
None,0A:8D:DB:65:7C:96,None,32.498983,-92.128702
xfinitywifi,0A:A0:97:3F:9B:38,None,32.485674,-92.159694
xfinitywifi,0A:A0:97:B3:7E:B1,None,32.494591,-92.178116
xfinitywifi,0A:A0:97:E8:F5:BC,None,32.496089,-92.125630
xfinitywifi,0A:F5:32:8C:E7:EE,None,32.491902,-92.168380
xfinitywifi,0A:F5:32:94:0D:73,None,32.487741,-92.141597
xfinitywifi,0A:F5:32:96:54:24,None,32.488318,-92.160695
Stay_Back,0C:54:A5:7B:82:48,WPA+AES-CCM WPA+PSK WPA+TKIP,32.492380,-92.167097
CBCI-36FB-2.4,0C:54:A5:AE:8B:E0,WPA+AES-CCM WPA+PSK WPA+TKIP,32.494764,-92.124444
COOPER-WIFI,0C:54:A5:E8:75:B0,WPA+AES-CCM WPA+PSK WPA+TKIP,32.486384,-92.158148
CBCI-C1F7-2.4,0C:80:63:B3:D8:37,WPA+AES-CCM WPA+PSK WPA+TKIP,32.492770,-92.126476
HP-Print-6c-LaserJet 200,0C:84:DC:52:58:6C,None,32.491993,-92.128929
CP-DESKTOP 7358,0C:84:DC:CC:2F:E0,WPA+AES-CCM WPA+PSK,32.495804,-92.125374
ATTYPWYyDS,0C:EA:C9:68:E1:50,WPA+AES-CCM WPA+PSK,32.492088,-92.124779
HOME-F642,0C:F8:93:5D:F6:40,WPA+AES-CCM WPA+PSK WPA+TKIP,32.488473,-92.166096
HOME-45F2,0C:F8:93:A7:45:F0,WPA+AES-CCM WPA+PSK WPA+TKIP,32.498910,-92.128854
HOME-CEC2,0C:F8:93:A8:CE:C0,WPA+AES-CCM WPA+PSK WPA+TKIP,32.493450,-92.129990
xfinitywifi,0E:51:A4:02:77:35,None,32.491911,-92.170754
xfinitywifi,0E:51:A4:0B:C0:A6,None,32.485606,-92.160940
xfinitywifi,0E:51:A4:18:50:3F,None,32.488492,-92.167004
xfinitywifi,0E:51:A4:1A:E6:F9,None,32.498481,-92.127551
xfinitywifi,0E:51:A4:24:17:AB,None,32.493347,-92.123184
xfinitywifi,0E:51:A4:28:D8:62,None,32.492669,-92.163555
xfinitywifi,0E:51:A4:29:4C:33,None,32.492983,-92.163497
xfinitywifi,0E:51:A4:AE:F6:D0,None,32.490806,-92.167923
xfinitywifi,0E:51:A4:AF:D9:CE,None,32.488610,-92.142461
xfinitywifi,0E:51:A4:AF:DD:34,None,32.493725,-92.177099
xfinitywifi,0E:51:A4:D5:B1:26,None,32.485890,-92.161251
None,0E:62:A6:00:E7:62,WPA+AES-CCM WPA+PSK,32.488429,-92.162460
None,0E:62:A6:41:22:5F,WPA+AES-CCM WPA+PSK,32.493544,-92.123360
None,0E:64:4B:14:C4:49,WPA+AES-CCM WPA+PSK WPA+TKIP,32.488483,-92.166885
FWPRI,0E:EC:DA:F4:22:44,WPA+AES-CCM WPA+PSK,,
HOME-D8A5-2.4,10:05:01:03:6D:08,WPA+AES-CCM WPA+PSK WPA+TKIP,32.493384,-92.176699
Home456,10:05:01:76:CD:18,WPA+AES-CCM WPA+PSK,32.486706,-92.149002
Badgers,10:05:01:7C:F1:D8,WPA+AES-CCM WPA+PSK,32.495106,-92.178795
Charles,10:05:01:83:75:C8,WPA+AES-CCM WPA+PSK,32.500553,-92.130653
Travis,10:05:01:86:C0:F8,WPA+AES-CCM WPA+PSK,,
CBCI-3BFB-2.4,10:05:01:B3:81:B8,WPA+AES-CCM WPA+PSK WPA+TKIP,32.486619,-92.148214
MELLY,10:05:01:BF:93:E8,WPA+AES-CCM WPA+PSK,32.493023,-92.167020
Monique90,10:05:01:D4:23:F8,WPA+AES-CCM WPA+PSK,32.497723,-92.126953
Mlbanks40,10:05:01:D6:8B:58,WPA+AES-CCM WPA+PSK,32.488675,-92.142560
Lady2017,10:05:01:DC:AC:A8,WPA+AES-CCM WPA+PSK,32.492553,-92.167156
corda queen,10:05:01:E7:14:18,WPA+AES-CCM WPA+PSK,32.488447,-92.163410
I see you,10:05:01:EC:47:78,WPA+AES-CCM WPA+PSK WPA+TKIP,32.500477,-92.130608
Worley4-2.4,10:05:01:F7:D5:D8,WPA+AES-CCM WPA+PSK WPA+TKIP,32.488462,-92.164840
Duncan,10:05:01:F9:50:B8,WPA+AES-CCM WPA+PSK,32.493012,-92.164830
ATT4D3A4I3,10:05:B1:08:EB:40,WPA+AES-CCM WPA+PSK,32.489849,-92.135712
ATT2p3i6W2,10:05:B1:0C:41:10,WPA+AES-CCM WPA+PSK,,
NETGEAR89,10:0D:7F:E8:5B:B0,WPA+AES-CCM WPA+PSK,32.493111,-92.165903
FBI-Tracking,10:56:11:0E:E5:6E,WPA+AES-CCM WPA+PSK WPA+TKIP,32.494671,-92.178215
Get Your Own Wifi,10:56:11:0E:F9:69,WPA+AES-CCM WPA+PSK WPA+TKIP,32.489032,-92.167778
Xfin-8527,10:56:11:0F:00:21,WPA+AES-CCM WPA+PSK WPA+TKIP,32.496454,-92.125925
DIRECT-29-HP DeskJet 2600 series,10:62:E5:45:11:2A,WPA+AES-CCM WPA+PSK,32.490136,-92.135261
DIRECT-9B-HP OfficeJet Pro 8720,10:62:E5:C0:0F:9D,WPA+AES-CCM WPA+PSK,32.492678,-92.127785
DIRECT-EC-HP OfficeJet Pro 6960,10:62:E5:D5:51:ED,WPA+AES-CCM WPA+PSK,32.491955,-92.163345
_HeyBrock_,10:86:8C:28:57:46,WPA+AES-CCM WPA+PSK,32.493025,-92.123735
Tamara,10:86:8C:31:59:86,WPA+AES-CCM WPA+PSK WPA+TKIP,,
SAN-LUIS,10:86:8C:34:1A:E0,WPA+AES-CCM WPA+PSK,32.491918,-92.167335
Washwest6,10:86:8C:39:1A:5E,WPA+AES-CCM WPA+PSK,32.491893,-92.164551
Johns2,10:86:8C:4C:D6:D4,WPA+AES-CCM WPA+PSK,32.488417,-92.161665
travis1967,10:86:8C:5E:CD:4E,WPA+AES-CCM WPA+PSK WPA+TKIP,32.488472,-92.166115
Plummer,10:86:8C:75:C9:4A,WPA+AES-CCM WPA+PSK,32.488449,-92.163733
Nunyourbusiness-2.4,10:86:8C:77:48:38,WPA+AES-CCM WPA+PSK,32.500381,-92.130524
FAMILY202,10:86:8C:77:73:12,WPA+AES-CCM WPA+PSK WPA+TKIP,32.491890,-92.163676
Brown,10:86:8C:7D:DB:80,WPA+AES-CCM WPA+PSK WPA+TKIP,32.487125,-92.140946
Moose&Squirrel,10:86:8C:7F:B1:3A,WPA+AES-CCM WPA+PSK,32.489510,-92.143355
williereed13,10:86:8C:90:C9:A2,WPA+AES-CCM WPA+PSK WPA+TKIP,32.492058,-92.132217
ErnestJacobs@comcast.net,10:86:8C:96:3F:2C,WPA+AES-CCM WPA+PSK,32.489058,-92.143050
myles,10:86:8C:D4:3B:2E,WPA+AES-CCM WPA+PSK,32.495392,-92.180412
HOME-E938,10:86:8C:D4:3B:6A,WPA+AES-CCM WPA+PSK WPA+TKIP,32.499737,-92.130019
Taylor residents,10:86:8C:D4:F3:DE,WPA+AES-CCM WPA+PSK,32.491569,-92.125603
AhtAhtYouTriedIt,10:86:8C:E8:58:8E,WPA+AES-CCM WPA+PSK,,
OPSO Surveillance2,10:DA:43:8C:7E:13,WPA+AES-CCM WPA+PSK,32.492912,-92.163239
FBI Surveillance Van,10:DA:43:96:41:65,WPA+AES-CCM WPA+PSK,32.493051,-92.130235
NETGEAR88,10:DA:43:A9:0C:BC,WPA+AES-CCM WPA+PSK,,
NETGEAR21,10:DA:43:B0:30:87,WPA+AES-CCM WPA+PSK,32.488453,-92.164003
NETGEAR94,10:DA:43:B6:D0:47,WPA+AES-CCM WPA+PSK,32.488623,-92.144132
None,12:18:0A:04:33:08,WPA+AES-CCM WPA+TKIP,32.498988,-92.128598
None,12:54:A5:7B:82:48,WPA+AES-CCM WPA+PSK WPA+TKIP,32.492540,-92.166875
None,12:54:A5:E8:75:B0,WPA+AES-CCM WPA+PSK WPA+TKIP,32.486536,-92.158314
None,12:56:11:0E:E5:6E,WPA+AES-CCM WPA+PSK WPA+TKIP,32.494406,-92.177905
None,12:86:8C:28:57:46,WPA+AES-CCM WPA+PSK WPA+TKIP,32.492982,-92.123355
None,12:86:8C:34:1A:E0,WPA+AES-CCM WPA+PSK WPA+TKIP,32.491805,-92.167469
None,12:86:8C:75:C9:4A,WPA+AES-CCM WPA+PSK WPA+TKIP,32.488453,-92.163980
None,12:86:8C:77:48:38,WPA+AES-CCM WPA+PSK WPA+TKIP,32.500509,-92.130621
acs-llc,12:90:7F:BA:A0:19,WPA+AES-CCM WPA+TKIP,32.486730,-92.147333
None,12:AB:F0:17:1A:C0,WPA+AES-CCM WPA+PSK,32.499788,-92.130045
None,12:CF:E2:38:C1:E0,WPA+AES-CCM WPA+PSK,32.494212,-92.123953
DIRECT-E5-HP Officejet 8040,14:58:D0:CE:DF:E6,WPA+AES-CCM WPA+PSK,32.494701,-92.124390
NETGEAR75,14:59:C0:02:CD:8B,WPA+AES-CCM WPA+PSK WPA+TKIP,32.492899,-92.166170
NETGEAR82,14:59:C0:1B:32:5B,WPA+AES-CCM WPA+PSK,32.488439,-92.163049
NTGR_VMB_1546292506,14:59:C0:90:50:6C,WPA+AES-CCM WPA+PSK,32.495247,-92.179484
ATT928,14:5B:D1:D9:75:40,WPA+AES-CCM WPA+PSK WPA+TKIP,32.493331,-92.130018
ATT344,14:5B:D1:E3:BF:B0,WPA+AES-CCM WPA+PSK WPA+TKIP,32.490635,-92.134473
Linksys02240,14:91:82:AA:27:E2,WPA+AES-CCM WPA+PSK,,
2turtles,14:91:82:B7:52:59,WPA+AES-CCM WPA+PSK WPA+TKIP,32.491293,-92.167699
HOME-1AC2,14:AB:F0:17:1A:C0,WPA+AES-CCM WPA+PSK WPA+TKIP,32.499759,-92.130022
HOME-C1E2,14:CF:E2:38:C1:E0,WPA+AES-CCM WPA+PSK WPA+TKIP,32.494222,-92.123997
ATT4Ytg5Es,14:ED:BB:18:6E:59,WPA+AES-CCM WPA+PSK,32.490550,-92.134604
ATT3UN9zPm,14:ED:BB:39:8A:B5,WPA+AES-CCM WPA+PSK,32.487140,-92.139956
Robbie Davis Motorsports,14:ED:BB:78:A3:BD,WPA+AES-CCM WPA+PSK,32.496018,-92.125542
ATT45ELt2d,14:ED:BB:78:C5:35,WPA+AES-CCM WPA+PSK,32.493705,-92.123573
ATT4zTH6u7,14:ED:BB:7C:6A:D1,WPA+AES-CCM WPA+PSK,32.499768,-92.130043
ATT9d39B7z,14:ED:BB:DF:81:D6,WPA+AES-CCM WPA+PSK,32.492225,-92.124813
ATT3ZK5IS2,14:ED:BB:F8:2C:C9,WPA+AES-CCM WPA+PSK,32.497656,-92.126901
None,16:05:01:38:2D:70,WPA+AES-CCM WPA+PSK WPA+TKIP,32.491569,-92.125603
None,16:05:01:86:C0:F8,WPA+AES-CCM WPA+PSK WPA+TKIP,,
None,16:05:01:E7:14:18,WPA+AES-CCM WPA+PSK WPA+TKIP,32.488452,-92.163828
None,16:05:01:F7:D5:D8,WPA+AES-CCM WPA+PSK WPA+TKIP,32.488456,-92.164280
None,16:05:01:F9:50:B8,WPA+AES-CCM WPA+PSK WPA+TKIP,32.492968,-92.165648
None,16:0E:83:D5:26:B0,WPA+AES-CCM WPA+PSK WPA+TKIP,32.499792,-92.130060
None,16:0E:83:F1:C6:6A,WPA+AES-CCM WPA+PSK WPA+TKIP,,
None,16:0E:83:F1:DB:29,WPA+AES-CCM WPA+PSK WPA+TKIP,32.488453,-92.163818
None,16:0E:83:F2:77:D3,WPA+AES-CCM WPA+PSK WPA+TKIP,32.488327,-92.160431
FWPRI,16:18:D6:C5:33:33,WPA+AES-CCM WPA+PSK,32.499737,-92.130020
FWPRI,16:18:D6:C5:33:72,WPA+AES-CCM WPA+PSK,,
xfinitywifi,16:4E:5A:96:3D:54,None,32.488457,-92.164223
xfinitywifi,16:4E:5A:98:89:AB,None,32.493999,-92.177422
xfinitywifi,16:54:A5:7B:82:48,None,32.493026,-92.165412
xfinitywifi,16:54:A5:E8:75:B0,None,32.486639,-92.157857
None,16:AB:82:65:A6:D2,WPA+AES-CCM WPA+TKIP,32.491608,-92.132931
None,16:AB:82:B5:F5:6D,WPA+AES-CCM WPA+TKIP,32.485466,-92.158920
None,16:AB:82:C2:CE:B9,WPA+AES-CCM WPA+TKIP,32.488468,-92.165428
None,16:AB:82:C2:D2:66,WPA+AES-CCM WPA+TKIP,32.487003,-92.152946
xfinitywifi,16:CF:E2:47:15:B0,None,,
xfinitywifi,16:CF:E2:56:06:00,None,32.493107,-92.164795
DIRECT-F2-HP OfficeJet Pro 8720,18:60:24:05:9B:F5,WPA+AES-CCM WPA+PSK,32.486649,-92.148606
DIRECT-E2-HP OfficeJet Pro 8720,18:60:24:08:6F:E4,WPA+AES-CCM WPA+PSK,32.486580,-92.148460
DIRECT-D6-HP DeskJet 2600 series,18:60:24:57:59:D7,WPA+AES-CCM WPA+PSK,32.489948,-92.135559
DIRECT-72-HP ENVY 4510 series,18:60:24:D1:B6:73,WPA+AES-CCM WPA+PSK,32.491908,-92.169929
sharon,18:9C:27:A3:B0:3D,WPA+AES-CCM WPA+PSK,32.488472,-92.165972
FBI Surveillance,18:9C:27:A3:C8:6C,WPA+AES-CCM WPA+PSK,32.498952,-92.128751
Waynenet,18:9C:27:AE:5A:15,WPA+AES-CCM WPA+PSK,,
DEA Surveillance,18:9C:27:B0:1C:06,WPA+AES-CCM WPA+PSK,32.499002,-92.129431
rdme2742,18:9C:27:D1:86:AD,WPA+AES-CCM WPA+PSK,32.491972,-92.165057
LaGirl,18:9C:27:EA:42:73,WPA+AES-CCM WPA+PSK,32.492052,-92.163336
Davis,18:9C:27:EB:6A:F3,WPA+AES-CCM WPA+PSK,32.485686,-92.161290
Duke's Recycling,18:A6:F7:8A:E8:AE,WPA+AES-CCM WPA+PSK,32.493098,-92.176348
Bailey,18:A6:F7:B3:30:31,WPA+AES-CCM WPA+PSK WPA+TKIP,32.488442,-92.163308
Bailey,18:A6:F7:B3:3E:A3,WPA+AES-CCM WPA+PSK WPA+TKIP,32.488445,-92.163404
RUSHFAMILY24,18:B8:1F:3D:19:9E,WPA+AES-CCM WPA+PSK,32.490202,-92.167985
Nana,18:B8:1F:ED:E3:8F,WPA+AES-CCM WPA+PSK,32.495360,-92.179756
Caleb2010,18:B8:1F:ED:E4:3E,WPA+AES-CCM WPA+PSK,32.493083,-92.164124
coronado515,18:B8:1F:F0:FB:EE,WPA+AES-CCM WPA+PSK,32.488443,-92.162987
xfinitywifi,1A:05:01:34:B8:70,None,32.495388,-92.180130
xfinitywifi,1A:05:01:76:CD:18,None,32.486651,-92.148525
xfinitywifi,1A:05:01:7C:F1:D8,None,32.495106,-92.178795
xfinitywifi,1A:05:01:86:C0:F8,None,,
xfinitywifi,1A:05:01:BF:93:E8,None,32.493030,-92.167181
xfinitywifi,1A:05:01:D4:23:F8,None,32.497723,-92.126953
xfinitywifi,1A:05:01:D6:8B:58,None,32.488790,-92.142681
xfinitywifi,1A:05:01:DC:AC:A8,None,32.492901,-92.167231
xfinitywifi,1A:05:01:E7:14:18,None,32.488449,-92.163668
xfinitywifi,1A:05:01:EC:47:78,None,32.500515,-92.130630
xfinitywifi,1A:05:01:F7:D5:D8,None,32.488462,-92.164875
xfinitywifi,1A:05:01:F9:50:B8,None,32.493045,-92.164195
None,1A:2D:C0:1A:D7:24,WPA+AES-CCM WPA+PSK WPA+TKIP,32.489990,-92.168009
None,1A:54:A5:7B:82:48,WPA+AES-CCM WPA+PSK WPA+TKIP,32.492554,-92.166848
None,1A:54:A5:E8:75:B0,WPA+AES-CCM WPA+PSK WPA+TKIP,32.486499,-92.158114
DIRECT-5F-HP OfficeJet Pro 7740,1A:60:24:69:B4:5F,WPA+AES-CCM WPA+PSK,32.493450,-92.129990
DIRECT-OC-FireTV_9960,1A:74:2E:00:D7:10,WPA+AES-CCM WPA+AES-CCM WPA+PSK WPA+PSK,32.492225,-92.167634
None,1A:74:2E:09:EF:60,WPA+AES-CCM WPA+PSK,,
None,1A:74:2E:0E:98:44,WPA+AES-CCM WPA+PSK,32.494663,-92.124359
None,1A:74:2E:EC:D0:A1,WPA+AES-CCM WPA+PSK,32.497126,-92.126495
None,1A:8B:37:F4:91:B8,WPA+AES-CCM WPA+PSK WPA+TKIP,32.493308,-92.123301
None,1A:8B:37:F5:24:68,WPA+AES-CCM WPA+PSK WPA+TKIP,32.491550,-92.125636
None,1A:9C:27:AE:5A:15,WPA+AES-CCM WPA+PSK WPA+TKIP,,
None,1A:A0:97:3F:9B:38,WPA+AES-CCM WPA+PSK WPA+TKIP,32.485482,-92.159481
None,1A:A0:97:B3:7E:B1,WPA+AES-CCM WPA+PSK WPA+TKIP,32.494591,-92.178116
None,1A:A0:97:E8:F5:BC,WPA+AES-CCM WPA+PSK WPA+TKIP,32.496033,-92.125580
None,1A:B8:1F:3D:19:9E,WPA+AES-CCM WPA+PSK WPA+TKIP,32.489975,-92.168009
None,1A:B8:1F:E7:97:3F,WPA+AES-CCM WPA+PSK WPA+TKIP,32.491957,-92.124990
None,1A:B8:1F:ED:E4:3E,WPA+AES-CCM WPA+PSK WPA+TKIP,32.493087,-92.164196
None,1A:F5:32:8C:E7:EE,WPA+AES-CCM WPA+PSK WPA+TKIP,32.491783,-92.168366
None,1A:F5:32:94:0D:73,WPA+AES-CCM WPA+PSK WPA+TKIP,32.487799,-92.141655
None,1A:F5:32:96:54:24,WPA+AES-CCM WPA+PSK WPA+TKIP,32.488408,-92.160962
ATT4E7I8b6,1C:14:48:7B:0C:80,WPA+AES-CCM WPA+PSK,32.498798,-92.128771
ATT136,1C:1B:68:00:F2:00,WPA+AES-CCM WPA+PSK WPA+TKIP,32.496488,-92.125950
ATTn6Ijrqs,1C:1B:68:2F:9E:40,WPA+AES-CCM WPA+PSK,,
FBI Post 6,1C:1B:68:3D:65:80,WPA+AES-CCM WPA+PSK,32.488578,-92.142426
ATT640,1C:1B:68:41:7B:80,WPA+AES-CCM WPA+PSK WPA+TKIP,32.487396,-92.145513
ATT6S22926,1C:1B:68:55:E1:C0,WPA+AES-CCM WPA+PSK,32.499805,-92.130073
ATT416,1C:1B:68:5A:69:70,WPA+AES-CCM WPA+PSK WPA+TKIP,32.489293,-92.143166
Outlaw Ordnance,1C:36:BB:05:2C:96,WPA+AES-CCM WPA+PSK,32.486628,-92.148675
MOTOROLA-3456B,1C:49:7B:39:94:80,WPA+AES-CCM WPA+PSK,32.485084,-92.159506
SBG6700AC-99D86,1C:49:7B:E5:60:08,WPA+AES-CCM WPA+PSK,32.492958,-92.165628
dlink,1C:AF:F7:D8:E5:E9,WPA+AES-CCM WPA+PSK WPA+TKIP,32.493187,-92.129829
JSI-GS,1C:B7:2C:35:3C:A0,WPA+AES-CCM WPA+PSK,32.485058,-92.158989
None,1E:05:01:03:6D:08,WPA+AES-CCM WPA+PSK WPA+TKIP,32.493702,-92.177071
None,1E:05:01:34:B8:70,WPA+AES-CCM WPA+PSK WPA+TKIP,32.495350,-92.179649
None,1E:05:01:38:2D:70,WPA+AES-CCM WPA+PSK WPA+TKIP,32.491569,-92.125603
None,1E:05:01:76:CD:18,WPA+AES-CCM WPA+PSK WPA+TKIP,32.486655,-92.148785
None,1E:05:01:7C:F1:D8,WPA+AES-CCM WPA+PSK WPA+TKIP,32.495106,-92.178795
None,1E:05:01:86:C0:F8,WPA+AES-CCM WPA+PSK WPA+TKIP,,
None,1E:05:01:BF:93:E8,WPA+AES-CCM WPA+PSK WPA+TKIP,32.493055,-92.167169
None,1E:05:01:D6:8B:58,WPA+AES-CCM WPA+PSK WPA+TKIP,32.488584,-92.142601
None,1E:05:01:DC:AC:A8,WPA+AES-CCM WPA+PSK WPA+TKIP,32.492490,-92.167032
None,1E:05:01:E7:14:18,WPA+AES-CCM WPA+PSK WPA+TKIP,32.488461,-92.164650
None,1E:05:01:EC:47:78,WPA+AES-CCM WPA+PSK WPA+TKIP,32.500553,-92.130653
None,1E:05:01:F7:D5:D8,WPA+AES-CCM WPA+PSK WPA+TKIP,32.488458,-92.164445
None,1E:05:01:F9:50:B8,WPA+AES-CCM WPA+PSK WPA+TKIP,32.493049,-92.164985
None,1E:1E:E3:20:83:6E,WPA+AES-CCM WPA+PSK,32.489168,-92.143449
None,1E:1E:E3:65:60:EA,WPA+AES-CCM WPA+PSK,32.490196,-92.167984
None,1E:1E:E3:6F:AD:57,WPA+AES-CCM WPA+PSK,32.485170,-92.161458
None,1E:1E:E3:E8:B9:31,WPA+AES-CCM WPA+PSK,32.499258,-92.129637
None,1E:51:A4:02:77:35,WPA+AES-CCM WPA+PSK WPA+TKIP,32.491905,-92.169704
None,1E:51:A4:0B:C0:A6,WPA+AES-CCM WPA+PSK WPA+TKIP,32.485747,-92.160724
None,1E:51:A4:18:50:3F,WPA+AES-CCM WPA+PSK WPA+TKIP,32.488485,-92.166653
None,1E:51:A4:1A:E6:F9,WPA+AES-CCM WPA+PSK WPA+TKIP,32.498466,-92.127542
None,1E:51:A4:24:17:AB,WPA+AES-CCM WPA+PSK WPA+TKIP,32.493347,-92.123184
None,1E:51:A4:28:D8:62,WPA+AES-CCM WPA+PSK WPA+TKIP,32.492675,-92.163631
None,1E:51:A4:29:4A:76,WPA+AES-CCM WPA+PSK WPA+TKIP,32.486258,-92.158800
None,1E:51:A4:29:4C:33,WPA+AES-CCM WPA+PSK WPA+TKIP,32.493034,-92.163738
None,1E:51:A4:AE:F6:D0,WPA+AES-CCM WPA+PSK WPA+TKIP,32.491234,-92.167869
None,1E:51:A4:AF:D9:CE,WPA+AES-CCM WPA+PSK WPA+TKIP,32.488509,-92.142351
None,1E:51:A4:AF:DD:34,WPA+AES-CCM WPA+PSK WPA+TKIP,32.494195,-92.177655
None,1E:51:A4:D5:B1:26,WPA+AES-CCM WPA+PSK WPA+TKIP,32.485963,-92.161216
NETGEAR40,20:0C:C8:18:A1:22,WPA+AES-CCM WPA+PSK,32.488452,-92.163946
ATT8219,20:0C:C8:CF:29:2B,WPA+AES-CCM WPA+PSK WPA+TKIP,32.493107,-92.164490
CBCI-4BDC-2.4,20:25:64:61:D4:30,WPA+AES-CCM WPA+PSK WPA+TKIP,32.487133,-92.156284
CBCI-52AA-2.4,20:25:64:6B:A0:B0,WPA+AES-CCM WPA+PSK WPA+TKIP,32.487128,-92.155822
HOME-7714-2.4,20:25:64:A5:0B:98,WPA+AES-CCM WPA+PSK,32.491869,-92.132522
SJMBC,20:25:64:A9:97:70,WPA+AES-CCM WPA+PSK WPA+TKIP,32.488419,-92.161796
CBCI-E49D-2.4,20:25:64:AC:A0:88,WPA+AES-CCM WPA+PSK WPA+TKIP,32.487122,-92.155609
Carroll,20:25:64:DE:E8:40,WPA+AES-CCM WPA+PSK,32.488052,-92.161161
preciouspalace,20:25:64:E5:D7:28,WPA+AES-CCM WPA+PSK WPA+TKIP,32.491920,-92.172501
ATT1993,20:4E:7F:67:4C:BA,WPA+AES-CCM WPA+PSK,32.492639,-92.167312
Iam.mjmurray,20:73:55:13:91:20,WPA+AES-CCM WPA+PSK WPA+TKIP,32.488503,-92.167398
HOME-D510-2.4,20:AA:4B:BA:08:92,WPA+AES-CCM WPA+PSK WPA+TKIP,32.492366,-92.131737
virginia1,20:E5:2A:11:23:92,WPA+AES-CCM WPA+PSK,32.488479,-92.166280
ATT6239,20:E5:2A:96:9C:D7,WPA+AES-CCM WPA+PSK,32.489494,-92.143339
Phuong nguyen,20:F1:9E:3F:D0:62,WPA+AES-CCM WPA+PSK,,
Wade,20:F1:9E:68:E2:7A,WPA+AES-CCM WPA+PSK,32.491474,-92.125816
Williams,20:F1:9E:E2:11:2D,WPA+AES-CCM WPA+PSK,32.491917,-92.172168
NETGEAR21_EXT,22:4E:7F:47:99:C9,WPA+AES-CCM WPA+PSK,32.488467,-92.165428
None,22:54:A5:7B:82:48,WPA+AES-CCM WPA+TKIP,32.492480,-92.166750
None,22:54:A5:E8:75:B0,WPA+AES-CCM WPA+TKIP,32.486579,-92.158009
xfinitywifi,22:56:11:0E:F9:69,None,32.489409,-92.167753
xfinitywifi,22:86:8C:28:57:46,None,32.493044,-92.123421
xfinitywifi,22:86:8C:34:1A:E0,None,32.491871,-92.167075
xfinitywifi,22:86:8C:39:1A:5E,None,32.491892,-92.164413
xfinitywifi,22:86:8C:4C:D6:D4,None,32.488407,-92.161329
xfinitywifi,22:86:8C:5E:CD:4E,None,32.488472,-92.166115
xfinitywifi,22:86:8C:75:C9:4A,None,32.488739,-92.163967
xfinitywifi,22:86:8C:77:48:38,None,32.500400,-92.130538
xfinitywifi,22:86:8C:77:73:12,None,32.491891,-92.163851
xfinitywifi,22:86:8C:7D:DB:80,None,32.487238,-92.141084
xfinitywifi,22:86:8C:7F:B1:3A,None,32.489516,-92.143360
xfinitywifi,22:86:8C:90:C9:A2,None,32.492317,-92.131805
xfinitywifi,22:86:8C:96:3F:2C,None,32.489450,-92.143298
xfinitywifi,22:86:8C:D4:2A:4E,None,32.490539,-92.167953
xfinitywifi,22:86:8C:D4:3B:2E,None,32.495388,-92.180241
xfinitywifi,22:86:8C:D4:3B:6A,None,32.499974,-92.130206
xfinitywifi,22:86:8C:D4:F3:DE,None,32.491569,-92.125603
xfinitywifi,22:86:8C:E8:58:8E,None,,
acs-llc-p,22:90:7F:BA:A0:19,WPA+AES-CCM WPA+PSK WPA+TKIP,32.486702,-92.147412
None,22:F1:9E:68:E2:7A,WPA+AES-CCM WPA+PSK WPA+TKIP,32.491505,-92.125702
DIRECT-MHDESKTOP-ONH2373CiDN,24:05:0F:F7:23:35,WPA+AES-CCM WPA+PSK,,
FIRSTWEST,24:A4:3C:27:38:00,None,,
FW_MEDIA,24:A4:3C:27:38:01,WPA+AES-CCM WPA+PSK,,
FWPRI,24:A4:3C:27:38:02,WPA+AES-CCM WPA+PSK,,
FIRSTWEST,24:A4:3C:C4:0A:E0,None,32.500553,-92.130653
FW_MEDIA,24:A4:3C:C4:0A:E1,WPA+AES-CCM WPA+PSK,,
FWPRI,24:A4:3C:C4:0A:E2,WPA+AES-CCM WPA+PSK,,
FWPRI,24:A4:3C:C4:1C:62,WPA+AES-CCM WPA+PSK,32.500549,-92.130653
CK_Guest,24:F2:7F:01:29:60,None,32.486970,-92.152618
CK_Global,24:F2:7F:01:29:61,WPA+AES-CCM WPA+PSK,32.487042,-92.153669
CK_MGR,24:F2:7F:01:29:62,WPA+AES-CCM WPA+PSK,32.487043,-92.153530
WDay,24:F2:7F:01:29:63,WPA+AES-CCM WPA+PSK,32.487000,-92.153104
bannah2019,24:F5:A2:B2:17:13,WPA+AES-CCM WPA+PSK,32.485095,-92.160852
A1Key24,24:F5:A2:ED:B1:95,WPA+AES-CCM WPA+PSK,,
None,26:05:01:03:6D:08,WPA+AES-CCM WPA+TKIP,32.493279,-92.176575
None,26:05:01:34:B8:70,WPA+AES-CCM WPA+TKIP,32.495365,-92.179798
None,26:05:01:76:CD:18,WPA+AES-CCM WPA+TKIP,32.486643,-92.148731
None,26:05:01:7C:F1:D8,WPA+AES-CCM WPA+TKIP,32.495106,-92.178795
None,26:05:01:83:75:C8,WPA+AES-CCM WPA+TKIP,32.500549,-92.130653
None,26:05:01:86:C0:F8,WPA+AES-CCM WPA+TKIP,,
None,26:05:01:BF:93:E8,WPA+AES-CCM WPA+TKIP,32.493118,-92.166898
None,26:05:01:D6:8B:58,WPA+AES-CCM WPA+TKIP,32.488542,-92.142533
None,26:05:01:DC:AC:A8,WPA+AES-CCM WPA+TKIP,32.492439,-92.167148
None,26:05:01:E7:14:18,WPA+AES-CCM WPA+TKIP,32.488443,-92.163130
None,26:05:01:EC:47:78,WPA+AES-CCM WPA+TKIP,32.500538,-92.130648
None,26:05:01:F7:D5:D8,WPA+AES-CCM WPA+TKIP,32.488459,-92.164594
None,26:05:01:F9:50:B8,WPA+AES-CCM WPA+TKIP,32.492944,-92.164756
None,26:25:64:A5:0B:98,WPA+AES-CCM WPA+PSK WPA+TKIP,32.492909,-92.130900
None,26:25:64:DE:E8:40,WPA+AES-CCM WPA+PSK WPA+TKIP,32.487967,-92.161069
None,26:25:64:E5:D7:28,WPA+AES-CCM WPA+PSK WPA+TKIP,32.491914,-92.171300
None,26:4C:E3:FE:C0:3A,WPA+AES-CCM WPA+PSK,32.488641,-92.168036
None,26:4E:5A:1C:7A:C6,WPA+AES-CCM WPA+PSK WPA+TKIP,32.492744,-92.167164
None,26:4E:5A:1E:97:36,WPA+AES-CCM WPA+PSK WPA+TKIP,32.493416,-92.130044
None,26:4E:5A:98:89:AB,WPA+AES-CCM WPA+PSK WPA+TKIP,32.494339,-92.177825
None,26:54:A5:7B:82:48,WPA+AES-CCM WPA+PSK WPA+TKIP,32.492568,-92.167178
None,26:54:A5:E8:75:B0,WPA+AES-CCM WPA+PSK WPA+TKIP,32.486512,-92.158454
xfinitywifi,26:73:55:13:91:20,None,32.488509,-92.167765
xfinitywifi,26:73:55:2D:A8:00,None,32.498070,-92.127220
None,26:F1:9E:E2:11:2D,WPA+AES-CCM WPA+PSK,32.491914,-92.171568
None,2A:05:01:B2:4B:F8,WPA+AES-CCM WPA+PSK WPA+TKIP,32.499043,-92.128548
None,2A:05:01:D4:23:F8,WPA+AES-CCM WPA+PSK WPA+TKIP,32.497723,-92.126953
None,2A:05:01:E7:14:18,WPA+AES-CCM WPA+PSK WPA+TKIP,32.488447,-92.163398
None,2A:05:01:F9:50:B8,WPA+AES-CCM WPA+PSK WPA+TKIP,32.493014,-92.164881
xfinitywifi,2A:25:64:A5:0B:98,None,32.492006,-92.132303
xfinitywifi,2A:25:64:DE:E8:40,None,32.488382,-92.162092
xfinitywifi,2A:25:64:E5:D7:28,None,32.491916,-92.171978
CenturyLink7497,2A:28:5D:26:CA:94,WPA+AES-CCM WPA+PSK WPA+TKIP,32.489245,-92.143392
DIRECT-DEMFC-L2740DW,2A:56:5A:13:14:D0,WPA+AES-CCM WPA+PSK,32.487293,-92.145744
xfinitywifi,2A:9C:27:A3:B0:3D,None,32.488476,-92.166450
xfinitywifi,2A:9C:27:AE:5A:15,None,,
xfinitywifi,2A:9C:27:D1:86:AD,None,32.491886,-92.165446
xfinitywifi,2A:9C:27:EB:6A:F3,None,32.485594,-92.161297
xfinitywifi,2A:B8:1F:3D:19:9E,None,32.489790,-92.168031
xfinitywifi,2A:B8:1F:E7:97:3F,None,32.492039,-92.124854
xfinitywifi,2A:B8:1F:ED:E3:8F,None,32.495339,-92.179518
xfinitywifi,2A:B8:1F:ED:E4:3E,None,32.493082,-92.164124
xfinitywifi,2A:B8:1F:F0:FB:EE,None,32.488453,-92.163818
xfinitywifi,2A:F1:9E:E2:11:2D,None,32.491915,-92.171703
HP-Print-BA-ENVY 120 series,2C:44:FD:E3:8B:BA,WPA+AES-CCM WPA+PSK,32.488464,-92.165085
People,2C:58:4F:2B:12:FD,WPA+AES-CCM WPA+PSK,32.491646,-92.132874
Tonya,2C:58:4F:39:27:1A,WPA+AES-CCM WPA+PSK,32.492538,-92.127661
Cassandra,2C:58:4F:3C:0E:40,WPA+AES-CCM WPA+PSK,32.492840,-92.130557
Jujubee11,2C:58:4F:BB:7F:CA,WPA+AES-CCM WPA+PSK,32.488471,-92.165724
Maria Galvez,2C:58:4F:BB:80:BB,WPA+AES-CCM WPA+PSK,32.487118,-92.157506
Home-2.4,2C:58:4F:BB:81:A7,WPA+AES-CCM WPA+PSK,32.487942,-92.141792
Web_Ro,2C:58:4F:BC:79:32,WPA+AES-CCM WPA+PSK,32.492080,-92.124786
Holyghostfire,2C:58:4F:C2:B9:AC,WPA+AES-CCM WPA+PSK,32.494072,-92.177509
HP-Print-EA-Deskjet 3510 series,2C:59:E5:C5:6E:EA,None,32.499981,-92.130212
HP-Print-9F-Officejet Pro 8600,2C:59:E5:F3:EB:9F,None,,
Lowdownassgrandma,2C:7E:81:0E:F9:E2,WPA+AES-CCM WPA+PSK,32.486964,-92.152417
Manning4567,2C:7E:81:55:1C:A7,WPA+AES-CCM WPA+PSK WPA+TKIP,32.495209,-92.124825
The carnival,2C:7E:81:55:1D:88,WPA+AES-CCM WPA+PSK WPA+TKIP,32.492793,-92.167692
theforceiswithyou,2C:7E:81:55:1D:BF,WPA+AES-CCM WPA+PSK WPA+TKIP,32.500136,-92.130335
Mrpacma,2C:7E:81:55:1D:C4,WPA+AES-CCM WPA+PSK WPA+TKIP,32.495360,-92.179765
Aiketa88,2C:7E:81:AB:7B:C2,WPA+AES-CCM WPA+PSK,32.499780,-92.130054
elton1,2C:7E:81:AD:85:5C,WPA+AES-CCM WPA+PSK WPA+TKIP,32.492947,-92.167669
Daddy ,2C:7E:81:AD:89:99,WPA+AES-CCM WPA+PSK WPA+TKIP,32.489504,-92.143349
Home,2C:7E:81:AF:B5:4D,WPA+AES-CCM WPA+PSK WPA+TKIP,32.498427,-92.127513
Lemoine,2C:7E:81:C3:D9:9A,WPA+AES-CCM WPA+PSK WPA+TKIP,32.498883,-92.128824
Curry,2C:7E:81:C7:1F:3D,WPA+AES-CCM WPA+PSK WPA+TKIP,32.488020,-92.141873
Stryder,2C:7E:81:F4:1F:4F,WPA+AES-CCM WPA+PSK,32.485338,-92.161249
ATTkt6USpi,2C:95:69:54:F9:F0,WPA+AES-CCM WPA+PSK,32.489823,-92.135757
None,2E:25:64:A5:0B:98,WPA+AES-CCM WPA+PSK WPA+TKIP,32.491794,-92.132639
None,2E:25:64:DE:E8:40,WPA+AES-CCM WPA+PSK WPA+TKIP,32.488021,-92.161164
None,2E:25:64:E5:D7:28,WPA+AES-CCM WPA+PSK WPA+TKIP,32.491914,-92.171600
None,2E:58:4F:C0:66:4C,WPA+AES-CCM WPA+PSK WPA+TKIP,,
None,2E:D9:74:32:C0:E3,WPA+AES-CCM WPA+PSK,32.498928,-92.129372
None,2E:F1:9E:E2:11:2D,WPA+AES-CCM WPA+PSK,32.491914,-92.171466
Junior's wifi,30:23:03:80:F1:56,WPA+AES-CCM WPA+PSK,32.494916,-92.125699
wirelessnetgeargenie,30:46:9A:A3:8A:12,WPA+AES-CCM WPA+PSK WPA+TKIP,32.491903,-92.169140
moto g(6) 6581,30:4B:07:4D:3F:C5,WPA+AES-CCM WPA+PSK,32.499527,-92.129851
None,30:52:CB:DC:48:99,WPA+AES-CCM WPA+PSK,32.493131,-92.130556
ATT136,30:60:23:8D:9D:90,WPA+AES-CCM WPA+PSK WPA+TKIP,32.487312,-92.145734
ATT176,30:60:23:A2:A8:70,WPA+AES-CCM WPA+PSK WPA+TKIP,,
HP-Print-99-ENVY 4500 series,30:8D:99:B5:94:99,None,32.488470,-92.165772
TP-LINK2G,30:B5:C2:36:B8:B1,WPA+AES-CCM WPA+PSK,32.492641,-92.163938
DIRECT-6A-HP OfficeJet 3830,30:E1:71:09:EB:6B,WPA+AES-CCM WPA+PSK,32.486670,-92.147533
DIRECT-F9-HP OfficeJet 4650,30:E1:71:B4:CB:FA,WPA+AES-CCM WPA+PSK,32.486561,-92.147972
DIRECT-61-HP OfficeJet Pro 6970,30:E1:71:C5:93:62,WPA+AES-CCM WPA+PSK,32.487265,-92.145828
None,32:56:11:0E:E5:6E,WPA+AES-CCM WPA+PSK WPA+TKIP,32.494472,-92.177982
None,32:56:11:0E:F9:69,WPA+AES-CCM WPA+PSK WPA+TKIP,32.489040,-92.167555
None,32:56:11:0F:00:21,WPA+AES-CCM WPA+PSK WPA+TKIP,32.496496,-92.125954
None,32:56:11:69:7F:3D,WPA+AES-CCM WPA+PSK WPA+TKIP,32.487053,-92.153503
None,32:86:8C:28:57:46,WPA+AES-CCM WPA+PSK WPA+TKIP,32.492961,-92.123586
None,32:86:8C:31:59:86,WPA+AES-CCM WPA+PSK WPA+TKIP,,
None,32:86:8C:34:1A:E0,WPA+AES-CCM WPA+PSK WPA+TKIP,32.491796,-92.167656
None,32:86:8C:39:1A:5E,WPA+AES-CCM WPA+PSK WPA+TKIP,32.491898,-92.165277
None,32:86:8C:4C:D6:D4,WPA+AES-CCM WPA+PSK WPA+TKIP,32.488340,-92.161505
None,32:86:8C:75:C9:4A,WPA+AES-CCM WPA+PSK WPA+TKIP,32.488452,-92.163977
None,32:86:8C:77:48:38,WPA+AES-CCM WPA+PSK WPA+TKIP,32.500439,-92.130567
None,32:86:8C:7D:DB:80,WPA+AES-CCM WPA+PSK WPA+TKIP,32.487164,-92.141011
None,32:86:8C:7F:B1:3A,WPA+AES-CCM WPA+PSK WPA+TKIP,32.489520,-92.143364
None,32:86:8C:96:3F:2C,WPA+AES-CCM WPA+PSK WPA+TKIP,32.489176,-92.143236
None,32:86:8C:D4:2A:4E,WPA+AES-CCM WPA+PSK WPA+TKIP,32.490539,-92.167953
None,32:86:8C:D4:3B:2E,WPA+AES-CCM WPA+PSK WPA+TKIP,32.495392,-92.180412
None,32:86:8C:D4:3B:6A,WPA+AES-CCM WPA+PSK WPA+TKIP,32.500066,-92.130279
None,32:86:8C:E8:58:8E,WPA+AES-CCM WPA+PSK WPA+TKIP,,
DIRECT-DUB2375dfw Mono MFP,32:CD:A7:1D:8A:38,WPA+AES-CCM WPA+PSK,32.487034,-92.146461
xfinitywifi,32:F1:9E:3F:D0:62,None,,
xfinitywifi,32:F1:9E:68:E2:7A,None,32.491474,-92.125816
HP-Print-E1-ENVY 4500 series,34:64:A9:81:EE:E1,WPA+AES-CCM WPA+PSK,32.488475,-92.166148
ATT-WIFI-3882-GUEST,34:69:87:94:8C:3A,WPA+AES-CCM WPA+PSK,32.487108,-92.158348
iPhone (2),36:08:BC:31:C5:C6,WPA+AES-CCM WPA+PSK,32.486933,-92.158356
None,36:0E:83:D5:26:B0,WPA+AES-CCM WPA+TKIP,32.499462,-92.129799
None,36:0E:83:F1:C6:6A,WPA+AES-CCM WPA+TKIP,,
None,36:0E:83:F1:DB:29,WPA+AES-CCM WPA+TKIP,32.488448,-92.163498
None,36:0E:83:F2:77:D3,WPA+AES-CCM WPA+TKIP,32.488232,-92.160477
None,36:23:03:80:F1:56,WPA+AES-CCM WPA+PSK,32.494993,-92.125534
None,36:25:64:A5:0B:98,WPA+AES-CCM WPA+TKIP,32.491902,-92.132468
None,36:25:64:DE:E8:40,WPA+AES-CCM WPA+TKIP,32.488148,-92.161141
None,36:25:64:E5:D7:28,WPA+AES-CCM WPA+TKIP,32.491915,-92.171795
Santaland,36:69:87:94:8C:3B,WPA+AES-CCM WPA+PSK,32.487110,-92.158081
None,36:F1:9E:E2:11:2D,WPA+AES-CCM,32.491913,-92.171225
naenae,38:30:F9:43:64:D0,WPA+AES-CCM WPA+PSK,32.492748,-92.131126
HP-Print-1F-Officejet Pro 8610,38:63:BB:77:9D:1F,WPA+AES-CCM WPA+PSK,32.498997,-92.128639
DIRECT-0A-HP OfficeJet Pro 8710,38:63:BB:C5:14:0B,WPA+AES-CCM WPA+PSK,32.486611,-92.148596
None,3A:25:64:A5:0B:98,WPA+AES-CCM WPA+PSK WPA+TKIP,32.492065,-92.132212
None,3A:25:64:DE:E8:40,WPA+AES-CCM WPA+PSK WPA+TKIP,32.488043,-92.161356
None,3A:25:64:E5:D7:28,WPA+AES-CCM WPA+PSK WPA+TKIP,32.491917,-92.171755
None,3A:8B:37:F4:91:B8,WPA+AES-CCM WPA+TKIP,32.493254,-92.123272
None,3A:8B:37:F5:24:68,WPA+AES-CCM WPA+TKIP,32.491505,-92.125720
None,3A:9C:27:A3:B0:3D,WPA+AES-CCM WPA+PSK WPA+TKIP,32.488470,-92.165713
None,3A:9C:27:A3:C8:6C,WPA+AES-CCM WPA+PSK WPA+TKIP,32.498930,-92.128798
None,3A:9C:27:AE:5A:15,WPA+AES-CCM WPA+PSK WPA+TKIP,,
None,3A:9C:27:B0:1C:06,WPA+AES-CCM WPA+PSK WPA+TKIP,32.499209,-92.129599
None,3A:9C:27:D1:86:AD,WPA+AES-CCM WPA+PSK WPA+TKIP,32.491895,-92.164724
None,3A:9C:27:EA:42:73,WPA+AES-CCM WPA+PSK WPA+TKIP,32.492242,-92.163313
None,3A:9C:27:EB:6A:F3,WPA+AES-CCM WPA+PSK WPA+TKIP,32.485303,-92.161271
None,3A:A0:97:3F:9B:38,WPA+AES-CCM WPA+TKIP,32.485454,-92.159766
None,3A:A0:97:E8:F5:BC,WPA+AES-CCM WPA+TKIP,32.496251,-92.125774
None,3A:B8:1F:3D:19:9E,WPA+AES-CCM WPA+PSK WPA+TKIP,32.489790,-92.168031
None,3A:B8:1F:E7:97:3F,WPA+AES-CCM WPA+PSK WPA+TKIP,32.491984,-92.124947
None,3A:B8:1F:ED:E3:8F,WPA+AES-CCM WPA+PSK WPA+TKIP,32.495302,-92.179706
None,3A:B8:1F:ED:E4:3E,WPA+AES-CCM WPA+PSK WPA+TKIP,32.493081,-92.164102
None,3A:B8:1F:F0:FB:EE,WPA+AES-CCM WPA+PSK WPA+TKIP,32.488444,-92.163232
None,3A:F5:32:8C:E7:EE,WPA+AES-CCM WPA+TKIP,32.491805,-92.168151
None,3A:F5:32:94:0D:73,WPA+AES-CCM WPA+TKIP,32.487745,-92.141598
None,3A:F5:32:96:54:24,WPA+AES-CCM WPA+TKIP,32.487922,-92.160848
None,3A:F7:3D:29:C0:97,WPA+AES-CCM WPA+PSK,,
None,3A:F7:3D:6F:F3:A0,WPA+AES-CCM WPA+PSK,32.497154,-92.126517
ATTyiQK5qs,3C:04:61:92:EF:C0,WPA+AES-CCM WPA+PSK,32.489401,-92.143251
ATT320,3C:36:E4:2C:BF:30,WPA+AES-CCM WPA+PSK WPA+TKIP,32.498821,-92.129288
ATT7AmFSuI,3C:36:E4:53:60:A0,WPA+AES-CCM WPA+PSK,32.498801,-92.128213
NETGEAR_EXT,3C:37:86:1E:66:E5,None,32.498219,-92.127346
NETGEAR01,3C:37:86:F1:F5:63,WPA+AES-CCM WPA+PSK,32.488457,-92.164154
Kennethjames2.4,3C:7A:8A:06:11:2E,WPA+AES-CCM WPA+PSK WPA+TKIP,32.494361,-92.177871
homeplace,3C:7A:8A:0D:6E:9C,WPA+AES-CCM WPA+PSK,32.488466,-92.165180
Joyce,3C:7A:8A:0D:A6:82,WPA+AES-CCM WPA+PSK,32.498821,-92.129288
Betsy1,3C:7A:8A:0E:A5:0A,WPA+AES-CCM WPA+PSK,32.488467,-92.165607
mj28,3C:7A:8A:3E:EF:94,WPA+AES-CCM WPA+PSK,32.492331,-92.124392
willie1030,3C:7A:8A:45:16:3A,WPA+AES-CCM WPA+PSK WPA+TKIP,32.490173,-92.164185
arcj0809,3C:7A:8A:46:41:AE,WPA+AES-CCM WPA+PSK WPA+TKIP,32.491914,-92.171175
XFSETUP-740A,3C:7A:8A:46:74:08,WPA+AES-CCM WPA+PSK WPA+TKIP,32.491913,-92.171109
dashman2019,3C:7A:8A:48:1A:24,WPA+AES-CCM WPA+PSK,32.493089,-92.166356
Jules,3C:7A:8A:51:3F:AA,WPA+AES-CCM WPA+PSK WPA+TKIP,32.492879,-92.167142
Ginks-2.4,3C:7A:8A:52:71:F4,WPA+AES-CCM WPA+PSK WPA+TKIP,32.488460,-92.164537
Anderson2010,3C:7A:8A:89:1A:5C,WPA+AES-CCM WPA+PSK,32.492730,-92.167532
XFsetup3dfc,3C:7A:8A:8B:3D:FA,WPA+AES-CCM WPA+PSK,32.487004,-92.153026
Cloud Realty,3C:9A:77:1C:52:CC,WPA+AES-CCM WPA+PSK,,
xfinitywifi,3C:9A:77:1C:52:CE,None,,
Jojos Snack House,3C:9A:77:27:50:A0,WPA+AES-CCM WPA+PSK,32.492017,-92.172196
xfinitywifi,3C:9A:77:BF:08:3A,None,32.498848,-92.129311
ATT3r6t5C7,3C:DF:A9:80:58:00,WPA+AES-CCM WPA+PSK,32.495819,-92.125367
ATT4d7D3g5,3C:DF:A9:96:89:B0,WPA+AES-CCM WPA+PSK,32.489313,-92.143249
ATT7b425P7,3C:DF:A9:97:B9:50,WPA+AES-CCM WPA+PSK,,
None,3E:51:A4:02:77:35,WPA+AES-CCM WPA+TKIP,32.491906,-92.169838
None,3E:51:A4:0B:C0:A6,WPA+AES-CCM WPA+TKIP,32.485605,-92.160889
None,3E:51:A4:18:50:3F,WPA+AES-CCM WPA+TKIP,32.488511,-92.167361
None,3E:51:A4:1A:E6:F9,WPA+AES-CCM WPA+TKIP,32.498063,-92.127226
None,3E:51:A4:24:17:AB,WPA+AES-CCM WPA+TKIP,32.493347,-92.123184
None,3E:51:A4:28:D8:62,WPA+AES-CCM WPA+TKIP,32.492787,-92.163849
None,3E:51:A4:29:4C:33,WPA+AES-CCM WPA+TKIP,32.493001,-92.163660
None,3E:51:A4:AE:F6:D0,WPA+AES-CCM WPA+TKIP,32.490603,-92.167943
None,3E:51:A4:AF:D9:CE,WPA+AES-CCM WPA+TKIP,32.488417,-92.142262
None,3E:51:A4:AF:DD:34,WPA+AES-CCM WPA+TKIP,32.494030,-92.177457
None,3E:51:A4:D5:B1:26,WPA+AES-CCM WPA+TKIP,32.485902,-92.161222
xfinitywifi,3E:58:4F:2B:12:FD,None,32.491646,-92.132874
xfinitywifi,3E:58:4F:3C:0E:40,None,32.492924,-92.130878
xfinitywifi,3E:58:4F:BB:7F:CA,None,32.488466,-92.165358
xfinitywifi,3E:58:4F:BB:80:BB,None,32.487119,-92.157295
xfinitywifi,3E:58:4F:C2:B9:AC,None,32.494072,-92.177509
xfinitywifi,3E:7E:81:55:1D:BF,None,32.500156,-92.130349
xfinitywifi,3E:7E:81:55:1D:C4,None,32.495305,-92.179640
xfinitywifi,3E:7E:81:AB:7B:C2,None,32.499806,-92.130074
xfinitywifi,3E:7E:81:AD:89:99,None,32.489494,-92.143341
xfinitywifi,3E:7E:81:AF:B5:4D,None,32.498478,-92.127548
xfinitywifi,3E:7E:81:C3:D9:9A,None,32.498979,-92.128361
xfinitywifi,3E:7E:81:C7:1F:3D,None,32.487989,-92.141841
xfinitywifi,3E:7E:81:F4:1F:4F,None,32.485402,-92.161420
DIRECT-LFDESKTOP-AAC95NOmsLW,3E:F8:62:CD:AD:3E,WPA+AES-CCM WPA+PSK,32.492229,-92.175088
ATT5168,40:5D:82:16:83:FB,WPA+AES-CCM WPA+PSK,32.488442,-92.163260
ATT2240,40:5D:82:17:4C:0B,WEP,32.485761,-92.160990
ATT9538,40:5D:82:20:D8:FE,WPA+AES-CCM WPA+PSK,,
ATT9367,40:5D:82:23:A2:14,WPA+AES-CCM WPA+PSK,32.492425,-92.163548
ATT4600,40:5D:82:23:DF:67,WPA+AES-CCM WPA+PSK,32.488441,-92.163190
ATT1253,40:5D:82:24:76:1B,WPA+AES-CCM WPA+PSK,32.488283,-92.144424
HOME-3402,40:70:09:22:34:00,WPA+AES-CCM WPA+PSK WPA+TKIP,32.491953,-92.173991
DIRECT-82-HP OfficeJet Pro 8710,40:B0:34:7A:BF:83,WPA+AES-CCM WPA+PSK,32.488892,-92.143974
DIRECT-51-HP OfficeJet Pro 8710,40:B0:34:7B:65:52,WPA+AES-CCM WPA+PSK,32.487564,-92.139297
ATT360,40:B7:F3:4A:A1:A0,WPA+AES-CCM WPA+PSK WPA+TKIP,32.487348,-92.145654
DIRECT-Qy-BRAVIA,42:49:0F:0B:49:9E,WPA+AES-CCM WPA+PSK,32.488053,-92.141903
None,42:70:09:22:34:00,WPA+AES-CCM WPA+PSK,32.491957,-92.173908
None,42:B4:CD:06:40:A0,WPA+AES-CCM WPA+PSK,32.492168,-92.163390
None,42:B4:CD:2B:22:DF,WPA+AES-CCM WPA+PSK,32.490166,-92.135211
None,42:B4:CD:B3:65:6B,WPA+AES-CCM WPA+PSK,32.488296,-92.142146
None,42:B4:CD:CC:5E:9B,WPA+AES-CCM WPA+PSK,32.493454,-92.123286
None,42:F1:9E:3F:D0:62,WPA+AES-CCM WPA+PSK WPA+TKIP,,
None,42:F1:9E:68:E2:7A,WPA+AES-CCM WPA+PSK WPA+TKIP,32.491505,-92.125702
None,42:F1:9E:F5:23:6F,WPA+AES-CCM WPA+PSK WPA+TKIP,32.491486,-92.125740
Dewayne,44:1C:12:7E:D4:49,WPA+AES-CCM WPA+PSK,32.493290,-92.129898
xfinitywifi,44:1C:12:7E:D4:4B,None,32.493384,-92.130106
None,44:1C:12:7E:D4:4C,WPA+AES-CCM WPA+PSK,32.493381,-92.130058
None,44:1C:12:7E:D4:4E,WPA+AES-CCM,32.493318,-92.129994
Roomies,44:1C:12:8C:48:B8,WPA+AES-CCM WPA+PSK,32.500036,-92.130256
None,44:1C:12:8C:48:B9,WPA+AES-CCM WPA+PSK,32.499918,-92.130161
xfinitywifi,44:1C:12:8C:48:BA,None,32.499854,-92.130114
None,44:1C:12:8C:48:BB,WPA+AES-CCM WPA+PSK,32.500078,-92.130289
None,44:1C:12:8C:48:BD,WPA+AES-CCM,32.500006,-92.130231
GetYourOwn,44:1C:12:92:3E:80,WPA+AES-CCM WPA+PSK,32.486942,-92.157016
xfinitywifi,44:1C:12:92:3E:82,None,32.487121,-92.156961
None,44:1C:12:92:3E:83,WPA+AES-CCM WPA+PSK,32.486917,-92.156834
None,44:1C:12:92:3E:85,WPA+AES-CCM,32.486911,-92.156220
None,44:1C:12:92:A1:89,WPA+AES-CCM WPA+PSK,,
HP-Print-69-Officejet Pro 8600,44:1E:A1:E8:6C:69,WPA+AES-CCM WPA+PSK,32.488419,-92.144357
HOME-B3A8,44:32:C8:E4:B3:A8,WPA+AES-CCM WPA+PSK WPA+TKIP,32.488672,-92.142536
HOME-DF40,44:32:C8:F6:DF:40,WPA+AES-CCM WPA+PSK,32.485105,-92.160310
ATT3980,44:94:FC:06:7B:A3,WPA+AES-CCM WPA+PSK,32.488787,-92.168110
FIRSTWEST,44:D9:E7:86:EE:60,None,32.499854,-92.130114
FW_MEDIA,44:D9:E7:86:EE:61,WPA+AES-CCM WPA+PSK,32.499782,-92.130057
FWPRI,44:D9:E7:86:EE:62,WPA+AES-CCM WPA+PSK,32.500092,-92.130295
ATT512,44:E1:37:2F:4A:80,WPA+AES-CCM WPA+PSK WPA+TKIP,32.500507,-92.130627
ATT040,44:E1:37:54:97:70,WPA+AES-CCM WPA+PSK WPA+TKIP,,
None,46:00:49:10:EC:BB,WPA+AES-CCM WPA+PSK,32.493185,-92.123355
xfinitywifi,46:32:C8:E4:B3:AA,None,32.488535,-92.142403
xfinitywifi,46:32:C8:F6:DF:42,None,32.485121,-92.160402
None,46:4E:5A:1C:7A:C6,WPA+AES-CCM WPA+TKIP,32.492655,-92.167428
None,46:4E:5A:1E:97:36,WPA+AES-CCM WPA+TKIP,32.493353,-92.130120
None,46:4E:5A:96:3D:54,WPA+AES-CCM WPA+TKIP,32.488461,-92.164749
None,46:4E:5A:98:89:AB,WPA+AES-CCM WPA+TKIP,32.494147,-92.177598
xfinitywifi,46:70:09:22:34:00,None,32.491940,-92.173824
Verizon-SM-N950U-DC2C,46:91:60:EA:DC:2C,WPA+AES-CCM WPA+PSK,32.491901,-92.169077
DIRECT-44779E06,46:D2:44:77:1E:06,WPA+AES-CCM WPA+PSK,32.487209,-92.145988
HP-Print-56-Officejet 4630,48:0F:CF:C5:AA:56,None,32.486712,-92.147362
Verizon LM-X210VPP 096B,48:60:5F:1D:09:6B,WPA+AES-CCM WPA+PSK,32.484989,-92.160218
DIRECT-A3-HP OfficeJet 3830,48:BA:4E:7B:3B:A4,WPA+AES-CCM WPA+PSK,,
PEDRITO Y JERSSON,48:C7:96:F3:3A:CA,WPA+AES-CCM WPA+PSK,32.485007,-92.160907
NicePine,48:F8:B3:6A:7E:AC,WPA+AES-CCM WPA+PSK WPA+TKIP,32.488277,-92.160613
Linksys01319,48:F8:B3:DB:20:A5,WPA+AES-CCM WPA+PSK WPA+TKIP,32.487004,-92.146536
Linksys01319-guest,4A:F8:B3:DB:20:A6,None,32.486949,-92.146693
ATT8ubqhqs,4C:12:65:6F:3D:60,WPA+AES-CCM WPA+PSK,32.493219,-92.130321
ATTv4MJ5Ea,4C:12:65:82:2A:70,WPA+AES-CCM WPA+PSK,32.488635,-92.167277
ATTDe2pajA,4C:12:65:A4:F0:50,WPA+AES-CCM WPA+PSK,,
Weber,4C:60:DE:26:22:54,None,32.488422,-92.162178
Lemoine_EXT,4C:60:DE:42:A4:9E,WPA+AES-CCM WPA+PSK WPA+TKIP,32.499020,-92.128817
ATT4839,4C:60:DE:BF:05:65,WPA+AES-CCM WPA+PSK,32.488543,-92.168023
None,4E:51:A4:0B:C0:A6,WPA+AES-CCM WPA+PSK WPA+TKIP,32.485743,-92.161204
None,4E:51:A4:18:50:3F,WPA+AES-CCM WPA+PSK WPA+TKIP,32.488514,-92.167362
None,4E:51:A4:1A:E6:F9,WPA+AES-CCM WPA+PSK WPA+TKIP,32.498301,-92.127409
None,4E:51:A4:28:D8:62,WPA+AES-CCM WPA+PSK WPA+TKIP,32.492601,-92.163507
None,4E:51:A4:29:4C:33,WPA+AES-CCM WPA+PSK WPA+TKIP,32.492948,-92.163539
None,4E:58:4F:2B:12:FD,WPA+AES-CCM WPA+PSK WPA+TKIP,32.491498,-92.133105
None,4E:58:4F:39:27:1A,WPA+AES-CCM WPA+PSK WPA+TKIP,32.492355,-92.128319
None,4E:58:4F:3C:0E:40,WPA+AES-CCM WPA+PSK WPA+TKIP,32.492999,-92.130542
None,4E:58:4F:BB:7F:CA,WPA+AES-CCM WPA+PSK WPA+TKIP,32.488471,-92.165845
None,4E:58:4F:BB:80:BB,WPA+AES-CCM WPA+PSK WPA+TKIP,32.487122,-92.156680
None,4E:58:4F:BC:79:32,WPA+AES-CCM WPA+PSK WPA+TKIP,32.492074,-92.124796
None,4E:58:4F:C0:66:4C,WPA+AES-CCM WPA+PSK WPA+TKIP,,
None,4E:58:4F:C0:97:D6,WPA+AES-CCM WPA+PSK WPA+TKIP,,
None,4E:58:4F:C2:B9:AC,WPA+AES-CCM WPA+PSK WPA+TKIP,32.494072,-92.177509
xfinitywifi,4E:7A:8A:0D:6E:9C,None,32.488464,-92.164867
xfinitywifi,4E:7A:8A:0D:A6:82,None,32.498907,-92.129355
xfinitywifi,4E:7A:8A:0E:A5:0A,None,32.488467,-92.165487
xfinitywifi,4E:7A:8A:26:47:C8,None,32.487053,-92.153497
xfinitywifi,4E:7A:8A:3E:EF:94,None,32.492472,-92.124167
xfinitywifi,4E:7A:8A:45:16:3A,None,32.489601,-92.164233
xfinitywifi,4E:7A:8A:46:41:AE,None,32.491914,-92.171353
xfinitywifi,4E:7A:8A:46:74:08,None,32.491915,-92.171528
xfinitywifi,4E:7A:8A:48:1A:24,None,32.493107,-92.165882
xfinitywifi,4E:7A:8A:51:3F:AA,None,32.493090,-92.166775
xfinitywifi,4E:7A:8A:52:71:F4,None,32.488458,-92.164438
xfinitywifi,4E:7A:8A:89:1A:5C,None,32.492940,-92.167250
xfinitywifi,4E:7A:8A:8B:3D:FA,None,32.486997,-92.152843
None,4E:7E:81:0E:F9:E2,WPA+AES-CCM WPA+PSK WPA+TKIP,32.486984,-92.152657
None,4E:7E:81:55:1D:BF,WPA+AES-CCM WPA+PSK WPA+TKIP,32.500052,-92.130268
None,4E:7E:81:55:1D:C4,WPA+AES-CCM WPA+PSK WPA+TKIP,32.495327,-92.179713
None,4E:7E:81:AB:7B:C2,WPA+AES-CCM WPA+PSK WPA+TKIP,32.499762,-92.130038
None,4E:7E:81:AD:85:5C,WPA+AES-CCM WPA+PSK WPA+TKIP,32.493009,-92.167661
None,4E:7E:81:AF:B5:4D,WPA+AES-CCM WPA+PSK WPA+TKIP,32.498427,-92.127513
None,4E:7E:81:C3:D9:9A,WPA+AES-CCM WPA+PSK WPA+TKIP,32.498934,-92.128931
None,4E:7E:81:C7:1F:3D,WPA+AES-CCM WPA+PSK WPA+TKIP,32.488029,-92.141881
None,4E:7E:81:F4:1F:4F,WPA+AES-CCM WPA+PSK WPA+TKIP,32.485502,-92.161208
Cisco29954-guest,4E:F8:B3:6A:7E:AC,None,32.488206,-92.160562
GN06JXRLG2,50:1C:BF:40:15:95,WPA+AES-CCM WPA+PSK,32.498638,-92.127670
NIAT13S09216,50:1C:BF:40:15:97,WPA+AES-CCM,32.498638,-92.127670
AESF05N11209,50:1C:BF:40:1A:B1,WPA+AES-CCM,32.498419,-92.127502
PASF05A04212,50:1C:BF:40:1A:B2,WPA+AES-CCM,32.498257,-92.127373
GN06JXRLG2,50:1C:BF:40:1A:B5,WPA+AES-CCM WPA+PSK,32.498439,-92.127518
NIAT13S09216,50:1C:BF:40:1A:B7,WPA+AES-CCM,32.498473,-92.127546
None,50:33:8B:5D:2E:AF,WPA+AES-CCM WPA+PSK,32.491955,-92.174499
ATTVpntxi2,50:95:51:8F:2E:60,WPA+AES-CCM WPA+PSK,32.494539,-92.124363
Skynet,50:C7:BF:09:77:31,WPA+AES-CCM WPA+PSK WPA+TKIP,32.486803,-92.147741
TP-LINK_82BC,50:C7:BF:24:82:BB,WPA+AES-CCM WPA+PSK,32.485599,-92.158922
TP-LINK_D7FB,50:C7:BF:2E:D7:FB,WPA+AES-CCM WPA+PSK WPA+TKIP,32.499018,-92.128458
None,52:56:11:0E:E5:6E,WPA+AES-CCM WPA+TKIP,32.494423,-92.177924
None,52:56:11:0E:F9:69,WPA+AES-CCM WPA+TKIP,32.489513,-92.167682
None,52:56:11:0F:00:21,WPA+AES-CCM WPA+TKIP,32.496341,-92.125832
None,52:56:11:69:7F:3D,WPA+AES-CCM WPA+TKIP,32.487053,-92.153503
None,52:86:8C:28:57:46,WPA+AES-CCM WPA+TKIP,32.493295,-92.123440
None,52:86:8C:34:1A:E0,WPA+AES-CCM WPA+TKIP,32.491814,-92.167591
None,52:86:8C:37:96:66,WPA+AES-CCM WPA+TKIP,32.488419,-92.161896
None,52:86:8C:39:1A:5E,WPA+AES-CCM WPA+TKIP,32.491903,-92.164748
None,52:86:8C:4C:D6:D4,WPA+AES-CCM WPA+TKIP,32.488409,-92.161423
None,52:86:8C:5E:CD:4E,WPA+AES-CCM WPA+TKIP,32.488472,-92.166115
None,52:86:8C:75:C9:4A,WPA+AES-CCM WPA+TKIP,32.488457,-92.164360
None,52:86:8C:77:48:38,WPA+AES-CCM WPA+TKIP,32.500552,-92.130653
None,52:86:8C:77:73:12,WPA+AES-CCM WPA+TKIP,32.491946,-92.163982
None,52:86:8C:7D:DB:80,WPA+AES-CCM WPA+TKIP,32.487326,-92.141188
None,52:86:8C:7F:B1:3A,WPA+AES-CCM WPA+TKIP,32.489516,-92.143360
None,52:86:8C:90:C9:A2,WPA+AES-CCM WPA+TKIP,32.492058,-92.132217
None,52:86:8C:96:3F:2C,WPA+AES-CCM WPA+TKIP,32.489161,-92.143231
None,52:86:8C:D4:2A:4E,WPA+AES-CCM WPA+TKIP,32.490539,-92.167953
None,52:86:8C:D4:3B:2E,WPA+AES-CCM WPA+TKIP,32.495388,-92.180241
None,52:86:8C:D4:3B:6A,WPA+AES-CCM WPA+TKIP,32.499820,-92.130087
None,52:86:8C:E8:58:8E,WPA+AES-CCM WPA+TKIP,,
None,52:F5:DA:CD:43:91,WPA+AES-CCM WPA+PSK,32.491157,-92.167885
NVR542b570cdbf6,54:2B:57:0C:DB:F6,WPA+AES-CCM WPA+PSK,32.493109,-92.166011
CBCI-F1D4-2.4,54:B2:03:21:5F:E0,WPA+AES-CCM WPA+PSK WPA+TKIP,32.485717,-92.159115
Bruno,54:B2:03:51:20:C8,WPA+AES-CCM WPA+PSK,32.488443,-92.163074
Rivera,54:B2:03:53:8C:38,WPA+AES-CCM WPA+PSK,32.488603,-92.166665
MP9-2.4ghz,54:B2:03:5A:58:88,WPA+AES-CCM WPA+PSK WPA+TKIP,32.498478,-92.127548
CBCI-311A-2.4,54:B2:03:5C:8B:D8,WPA+AES-CCM WPA+PSK WPA+TKIP,32.486621,-92.148648
CBCI-6130-2.4,54:B2:03:5D:F7:B8,WPA+AES-CCM WPA+PSK WPA+TKIP,32.486850,-92.147036
CBCI-A680-2.4,54:B2:03:63:06:68,WPA+AES-CCM WPA+PSK WPA+TKIP,32.488769,-92.167754
CBCI-77AA-2.4,54:B2:03:63:F4:58,WPA+AES-CCM WPA+PSK WPA+TKIP,32.498638,-92.127670
J-Family,54:BE:F7:B8:E8:38,WPA+AES-CCM WPA+PSK WPA+TKIP,32.493391,-92.129161
HOME-4493-2.4,54:BE:F7:BB:31:98,WPA+AES-CCM WPA+PSK WPA+TKIP,32.485494,-92.159836
HOME-0434-2.4,54:BE:F7:C5:04:68,WPA+AES-CCM WPA+PSK WPA+TKIP,32.488943,-92.167970
jmv,54:BE:F7:F2:3B:60,WPA+AES-CCM WPA+PSK WPA+TKIP,32.498337,-92.127436
HOME-3F4C-2.4,54:BE:F7:F8:78:80,WPA+AES-CCM WPA+PSK WPA+TKIP,32.489489,-92.136280
None,56:4E:5A:1C:7A:C6,WPA+AES-CCM WPA+PSK WPA+TKIP,32.492768,-92.167187
None,56:4E:5A:1E:97:36,WPA+AES-CCM WPA+PSK WPA+TKIP,32.493311,-92.130186
None,56:4E:5A:96:3D:54,WPA+AES-CCM WPA+PSK WPA+TKIP,32.488461,-92.164749
None,56:4E:5A:98:89:AB,WPA+AES-CCM WPA+PSK WPA+TKIP,32.494136,-92.177584
xfinitywifi,56:57:1A:FA:BD:90,None,32.492995,-92.163405
xfinitywifi,56:57:1A:FC:FD:70,None,32.489314,-92.136541
HOME-9321-2.4.,58:19:F8:25:44:C5,WPA+AES-CCM WPA+PSK WPA+TKIP,32.493378,-92.129944
DeezNutz,58:19:F8:CE:07:64,WPA+AES-CCM WPA+PSK,32.491899,-92.166789
SandraJ26,58:19:F8:FA:04:75,WPA+AES-CCM WPA+PSK,32.488467,-92.165352
HP-Print-39-Officejet Pro 8620,58:20:B1:5C:C8:39,None,32.489518,-92.143361
daryll,58:23:8C:2A:FC:BD,WPA+AES-CCM WPA+PSK WPA+TKIP,32.489315,-92.143189
HOME-9AC2,58:23:8C:6C:9A:C2,WPA+AES-CCM WPA+PSK WPA+TKIP,32.491909,-92.170456
HOME-C362_Ext,58:EF:68:93:E6:C6,WPA+AES-CCM WPA+PSK,32.486986,-92.152693
ATT149_Ext,58:EF:68:CD:BF:E2,WPA+AES-CCM WPA+PSK,32.489521,-92.143364
None,5A:23:8C:2A:FC:BE,WPA+AES-CCM WPA+PSK,32.489300,-92.143210
None,5A:23:8C:2A:FC:BF,None,32.489257,-92.143199
None,5A:23:8C:6C:9A:C4,None,32.491913,-92.171005
None,5A:23:8C:E4:12:C4,WPA+AES-CCM WPA+PSK,32.500622,-92.130714
xfinitywifi,5A:23:8C:E4:12:C5,None,32.500622,-92.130714
None,5A:9C:27:A3:B0:3D,WPA+AES-CCM WPA+TKIP,32.488468,-92.165434
None,5A:9C:27:A3:C8:6C,WPA+AES-CCM WPA+TKIP,32.498952,-92.128751
None,5A:9C:27:AE:5A:15,WPA+AES-CCM WPA+TKIP,,
None,5A:9C:27:B0:1C:06,WPA+AES-CCM WPA+TKIP,32.499298,-92.129670
None,5A:9C:27:D1:86:AD,WPA+AES-CCM WPA+TKIP,32.491907,-92.165079
None,5A:9C:27:EA:42:73,WPA+AES-CCM WPA+TKIP,32.492471,-92.163284
None,5A:9C:27:EB:6A:F3,WPA+AES-CCM WPA+TKIP,32.485434,-92.161242
None,5A:AD:A6:1C:7A:5D,WPA+AES-CCM WPA+PSK,32.488510,-92.168014
None,5A:AD:A6:1C:7E:75,WPA+AES-CCM WPA+PSK,32.488546,-92.168091
None,5A:B8:1F:3D:19:9E,WPA+AES-CCM WPA+TKIP,32.489796,-92.168028
None,5A:B8:1F:E7:97:3F,WPA+AES-CCM WPA+TKIP,32.492083,-92.124791
None,5A:B8:1F:ED:E3:8F,WPA+AES-CCM WPA+TKIP,32.495339,-92.179786
None,5A:B8:1F:ED:E4:3E,WPA+AES-CCM WPA+TKIP,32.493089,-92.164168
None,5A:B8:1F:F0:FB:EE,WPA+AES-CCM WPA+TKIP,32.488447,-92.163315
None,5A:BE:F7:D1:4E:48,WPA+AES-CCM WPA+PSK WPA+TKIP,32.491909,-92.170540
None,5A:BE:F7:F2:3B:60,WPA+AES-CCM WPA+PSK WPA+TKIP,32.498240,-92.127358
HEADQUARTERS1,5A:EF:68:83:BA:38,WPA+AES-CCM WPA+PSK,32.492273,-92.174808
GRANT/MCKINNEY,5A:EF:68:83:BA:3C,None,32.492622,-92.175693
HOME-BD92,5C:57:1A:FA:BD:90,WPA+AES-CCM WPA+PSK WPA+TKIP,32.492910,-92.163580
HOME-FD72,5C:57:1A:FC:FD:70,WPA+PSK WPA+TKIP,32.488842,-92.137280
Warhawks,5C:8F:E0:18:CD:D0,WPA+AES-CCM WPA+PSK,32.492289,-92.163324
Jessisca 24,5C:8F:E0:61:B5:7E,WPA+AES-CCM WPA+PSK,,
bmillsaps,5C:8F:E0:6D:13:00,WPA+AES-CCM WPA+PSK WPA+TKIP,32.491556,-92.125636
Breland,5C:8F:E0:6F:1E:40,WPA+AES-CCM WPA+PSK,32.488441,-92.163071
Bruno,5C:8F:E0:A5:BE:CC,WPA+AES-CCM WPA+PSK,32.492533,-92.166702
JTBT,5C:8F:E0:B5:2B:B4,WPA+AES-CCM WPA+PSK WPA+TKIP,32.488507,-92.167625
Arrant_Wifi,5C:8F:E0:B6:DC:20,WPA+AES-CCM WPA+PSK WPA+TKIP,32.492574,-92.163459
Smith,5C:8F:E0:BB:D0:9A,WPA+AES-CCM WPA+PSK WPA+TKIP,32.487129,-92.155815
xXhomeXx,5C:8F:E0:BB:DB:EE,WPA+AES-CCM WPA+PSK WPA+TKIP,32.495263,-92.179315
Home-wifi,5C:B0:66:03:76:29,WPA+AES-CCM WPA+PSK,32.487137,-92.155853
kimberly43,5C:B0:66:34:00:5F,WPA+AES-CCM WPA+PSK,32.495331,-92.124939
Raycharles-2.4,5C:B0:66:34:9C:48,WPA+AES-CCM WPA+PSK WPA+TKIP,32.494270,-92.177741
NailShop,5C:B0:66:34:B9:67,WPA+AES-CCM WPA+PSK WPA+TKIP,32.491916,-92.171488
Estepwifi,5C:B0:66:34:C3:41,WPA+AES-CCM WPA+PSK WPA+TKIP,32.492494,-92.163301
Tommy and Jamie home,5C:B0:66:38:3F:67,WPA+AES-CCM WPA+PSK WPA+TKIP,32.487803,-92.160660
Zds07,5C:B0:66:48:27:2D,WPA+AES-CCM WPA+PSK,32.486965,-92.158450
Mdyefamily,5C:B0:66:E7:E9:D6,WPA+AES-CCM WPA+PSK,32.488488,-92.167063
Chambers,5C:E3:0E:4D:F6:7D,WPA+AES-CCM WPA+PSK WPA+TKIP,32.489506,-92.143369
CednLani,5C:E3:0E:B5:6E:7A,WPA+AES-CCM WPA+PSK,,
pj2music,5C:E3:0E:DA:F5:B8,WPA+AES-CCM WPA+PSK WPA+TKIP,32.488443,-92.163177
None,5E:7A:8A:06:11:2E,WPA+AES-CCM WPA+PSK WPA+TKIP,32.494280,-92.177779
None,5E:7A:8A:0D:6E:9C,WPA+AES-CCM WPA+PSK WPA+TKIP,32.488464,-92.165025
None,5E:7A:8A:0E:A5:0A,WPA+AES-CCM WPA+PSK WPA+TKIP,32.488468,-92.165525
None,5E:7A:8A:26:47:C8,WPA+AES-CCM WPA+PSK WPA+TKIP,32.487016,-92.153051
None,5E:7A:8A:3E:EF:94,WPA+AES-CCM WPA+PSK WPA+TKIP,32.492372,-92.124326
None,5E:7A:8A:46:41:AE,WPA+AES-CCM WPA+PSK WPA+TKIP,32.491913,-92.171068
None,5E:7A:8A:46:74:08,WPA+AES-CCM WPA+PSK WPA+TKIP,32.491915,-92.171455
None,5E:7A:8A:48:1A:24,WPA+AES-CCM WPA+PSK WPA+TKIP,32.493036,-92.165830
None,5E:7A:8A:51:3F:AA,WPA+AES-CCM WPA+PSK WPA+TKIP,32.492974,-92.167350
None,5E:7A:8A:52:71:F4,WPA+AES-CCM WPA+PSK WPA+TKIP,32.488454,-92.164083
None,5E:7A:8A:65:EF:72,WPA+AES-CCM WPA+PSK WPA+TKIP,32.484982,-92.160976
None,5E:7A:8A:89:1A:5C,WPA+AES-CCM WPA+PSK WPA+TKIP,32.492826,-92.167152
None,5E:7A:8A:8B:3D:FA,WPA+AES-CCM WPA+PSK WPA+TKIP,32.486996,-92.152877
None,5E:8F:E0:6D:13:00,WPA+AES-CCM WPA+PSK WPA+TKIP,32.491519,-92.125842
None,5E:8F:E0:A5:BE:CC,WPA+AES-CCM WPA+PSK WPA+TKIP,32.492513,-92.166959
None,5E:B0:66:48:27:2D,WPA+AES-CCM WPA+PSK WPA+TKIP,32.487001,-92.158242
xfinitywifi,5E:B2:03:51:20:C8,None,32.485840,-92.161707
xfinitywifi,5E:B2:03:53:8C:38,None,32.488601,-92.166832
xfinitywifi,5E:BE:F7:B8:E8:38,None,32.493465,-92.129300
xfinitywifi,5E:BE:F7:BB:31:98,None,32.485331,-92.160085
xfinitywifi,5E:BE:F7:C5:04:68,None,32.488893,-92.167986
xfinitywifi,5E:BE:F7:D1:4E:48,None,32.491908,-92.170283
xfinitywifi,5E:BE:F7:F2:3B:60,None,32.498447,-92.127521
xfinitywifi,5E:BE:F7:F8:78:80,None,32.489481,-92.136291
None,5E:E3:0E:DA:F5:B8,WPA+AES-CCM WPA+PSK WPA+TKIP,32.488439,-92.162828
DIRECT-a3-HP M203 LaserJet,5E:EA:1D:55:E7:A3,WPA+AES-CCM WPA+PSK,32.486877,-92.158347
CBCI-82CE-2.4,60:02:92:9F:1A:38,WPA+AES-CCM WPA+PSK WPA+TKIP,32.491910,-92.170719
HOME-4D08-2.4,60:02:92:AD:26:20,WPA+AES-CCM WPA+PSK WPA+TKIP,32.492259,-92.128664
Westside-Flowers,60:02:92:CA:E5:E8,WPA+AES-CCM WPA+PSK WPA+TKIP,,
HOME-96DC-2.4,60:02:92:EE:16:48,WPA+AES-CCM WPA+PSK WPA+TKIP,32.488011,-92.141953
CBCI-9258-2.4,60:02:92:F6:14:B8,WPA+AES-CCM WPA+PSK WPA+TKIP,32.487093,-92.158307
Linksys08729,60:38:E0:03:AC:D0,WPA+AES-CCM WPA+PSK,32.490618,-92.166511
OPFD Shop-Guest,60:38:E0:0B:C2:A8,WPA+AES-CCM WPA+PSK WPA+TKIP,32.494432,-92.177983
Linksys17125,60:38:E0:B7:F4:F1,WPA+AES-CCM WPA+PSK,32.492250,-92.163311
OrangeMaple,60:38:E0:C0:F9:A1,WPA+AES-CCM WPA+PSK,32.500386,-92.130529
xfinitywifi,60:3D:26:74:0D:7C,None,,
ATT896,60:C3:97:4B:8D:0A,WPA+AES-CCM WPA+PSK WPA+TKIP,32.492409,-92.163292
Anderson,60:C3:97:51:8E:52,WPA+AES-CCM WPA+PSK WPA+TKIP,32.489360,-92.143249
ATT135,60:C3:97:E2:A2:62,WPA+AES-CCM WPA+PSK WPA+TKIP,32.488470,-92.165684
ATT674,60:FE:20:C7:05:66,WPA+AES-CCM WPA+PSK WPA+TKIP,32.487717,-92.141567
ATT696,60:FE:20:E7:5D:76,WPA+AES-CCM WPA+PSK,32.493582,-92.123545
Linksys08729-guest,62:38:E0:00:AC:D0,None,32.489719,-92.164953
None,62:86:8C:D4:2A:4E,WPA+AES-CCM WPA+PSK WPA+TKIP,32.488736,-92.166657
None,62:86:8C:D4:3B:6A,WPA+AES-CCM WPA+PSK WPA+TKIP,32.500014,-92.130240
None,62:86:8C:E8:58:8E,WPA+AES-CCM WPA+PSK WPA+TKIP,,
None,62:B2:03:51:20:C8,WPA+AES-CCM WPA+PSK WPA+TKIP,32.486533,-92.161962
None,62:B2:03:53:8C:38,WPA+AES-CCM WPA+PSK WPA+TKIP,32.488604,-92.166868
None,62:BE:F7:B8:E8:38,WPA+AES-CCM WPA+PSK WPA+TKIP,32.493181,-92.129752
None,62:BE:F7:BB:31:98,WPA+AES-CCM WPA+PSK WPA+TKIP,32.485512,-92.159752
None,62:BE:F7:C5:04:68,WPA+AES-CCM WPA+PSK WPA+TKIP,32.488955,-92.168070
None,62:BE:F7:D1:4E:48,WPA+AES-CCM WPA+PSK WPA+TKIP,32.491909,-92.170540
None,62:BE:F7:F2:3B:60,WPA+AES-CCM WPA+PSK WPA+TKIP,32.498424,-92.127502
None,62:BE:F7:F8:78:80,WPA+AES-CCM WPA+PSK WPA+TKIP,32.489296,-92.136579
None,62:F1:9E:3F:D0:62,WPA+AES-CCM WPA+TKIP,32.500553,-92.130653
None,62:F1:9E:68:E2:7A,WPA+AES-CCM WPA+TKIP,32.491494,-92.125740
None,62:F1:9E:F5:23:6F,WPA+AES-CCM WPA+TKIP,32.491486,-92.125740
HP-Print-2E-Officejet 4630,64:51:06:73:E7:2E,None,32.491618,-92.125530
HP-Print-47-Photosmart 5520,64:51:06:E5:5D:47,WPA+AES-CCM WPA+PSK,32.488466,-92.165428
ATT440,64:55:B1:76:1C:20,WPA+AES-CCM WPA+PSK WPA+TKIP,,
Beautiful,64:55:B1:AA:EA:C0,WPA+AES-CCM WPA+PSK,,
None,66:02:92:AD:26:20,WPA+AES-CCM WPA+PSK WPA+TKIP,32.492204,-92.128842
None,66:02:92:EE:16:48,WPA+AES-CCM WPA+PSK WPA+TKIP,32.487845,-92.141695
ubnt,68:72:51:2A:17:35,None,32.492854,-92.175864
ubnt,68:72:51:3A:12:3D,WPA+AES-CCM WPA+PSK,32.486977,-92.152811
xfinitywifi,6A:02:92:AD:26:20,None,32.492228,-92.128752
xfinitywifi,6A:02:92:EE:16:48,None,32.487918,-92.141816
xfinitywifi,6A:19:F8:25:44:C5,None,32.493331,-92.130019
xfinitywifi,6A:19:F8:CE:07:64,None,32.491501,-92.166759
None,6A:37:E9:35:63:CC,WPA+AES-CCM WPA+PSK,32.490204,-92.135151
None,6A:37:E9:47:9D:5B,WPA+AES-CCM WPA+PSK,32.485404,-92.161432
None,6A:37:E9:B1:2D:A4,WPA+AES-CCM WPA+PSK,32.498833,-92.129295
None,6A:37:E9:D6:AF:86,WPA+AES-CCM WPA+PSK,32.484994,-92.159307
None,6A:9C:27:A3:B0:3D,WPA+AES-CCM WPA+PSK WPA+TKIP,32.488476,-92.166450
Kiamine,6A:AD:A6:1C:7E:75,WPA+AES-CCM WPA+PSK,32.488583,-92.168167
None,6A:B2:03:51:20:C8,WPA+AES-CCM WPA+TKIP,32.485947,-92.161573
None,6A:B2:03:53:8C:38,WPA+AES-CCM WPA+TKIP,32.488616,-92.166911
None,6A:BE:F7:B8:E8:38,WPA+AES-CCM WPA+TKIP,32.493154,-92.129210
None,6A:BE:F7:BB:31:98,WPA+AES-CCM WPA+TKIP,32.485221,-92.159764
None,6A:BE:F7:C5:04:68,WPA+AES-CCM WPA+TKIP,32.488777,-92.167922
None,6A:BE:F7:D1:4E:48,WPA+AES-CCM WPA+TKIP,32.491908,-92.170232
None,6A:BE:F7:F2:3B:60,WPA+AES-CCM WPA+TKIP,32.498232,-92.127352
None,6A:BE:F7:F8:78:80,WPA+AES-CCM WPA+TKIP,32.489258,-92.136636
HP-Print-EF-Deskjet 3520 series,6C:3B:E5:71:3A:EF,None,32.494517,-92.178036
ATT616,6C:CA:08:44:74:90,WPA+AES-CCM WPA+PSK WPA+TKIP,32.494392,-92.127181
None,6E:02:92:AD:26:20,WPA+AES-CCM WPA+PSK WPA+TKIP,32.492195,-92.128818
None,6E:02:92:EE:16:48,WPA+AES-CCM WPA+PSK WPA+TKIP,32.487884,-92.141735
None,6E:58:4F:2B:12:FD,WPA+AES-CCM WPA+TKIP,32.491498,-92.133105
None,6E:58:4F:39:27:1A,WPA+AES-CCM WPA+TKIP,32.492451,-92.127383
None,6E:58:4F:3C:0E:40,WPA+AES-CCM WPA+TKIP,32.493100,-92.130587
None,6E:58:4F:BB:7F:CA,WPA+AES-CCM WPA+TKIP,32.488470,-92.165607
None,6E:58:4F:BB:80:BB,WPA+AES-CCM WPA+TKIP,32.487126,-92.156765
None,6E:58:4F:BB:81:A7,WPA+AES-CCM WPA+TKIP,32.487942,-92.141792
None,6E:58:4F:BC:79:32,WPA+AES-CCM WPA+TKIP,32.492031,-92.124863
None,6E:58:4F:C0:66:4C,WPA+AES-CCM WPA+TKIP,,
None,6E:58:4F:C2:B9:AC,WPA+AES-CCM WPA+TKIP,32.494139,-92.177589
None,6E:7E:81:0E:F9:E2,WPA+AES-CCM WPA+TKIP,32.486984,-92.152657
None,6E:7E:81:55:1D:BF,WPA+AES-CCM WPA+TKIP,32.500089,-92.130298
None,6E:7E:81:55:1D:C4,WPA+AES-CCM WPA+TKIP,32.495376,-92.179911
None,6E:7E:81:AB:7B:C2,WPA+AES-CCM WPA+TKIP,32.499776,-92.130050
None,6E:7E:81:AD:89:99,WPA+AES-CCM WPA+TKIP,32.489507,-92.143351
None,6E:7E:81:AF:B5:4D,WPA+AES-CCM WPA+TKIP,32.498440,-92.127522
None,6E:7E:81:C3:D9:9A,WPA+AES-CCM WPA+TKIP,32.498965,-92.128400
None,6E:7E:81:C7:1F:3D,WPA+AES-CCM WPA+TKIP,32.488071,-92.141923
None,6E:7E:81:C7:82:05,WPA+AES-CCM WPA+TKIP,32.493111,-92.166161
None,6E:7E:81:F4:1F:4F,WPA+AES-CCM WPA+TKIP,32.485438,-92.161339
xfinitywifi,6E:8F:E0:18:CD:D0,None,32.492294,-92.163306
xfinitywifi,6E:8F:E0:61:B5:7E,None,,
xfinitywifi,6E:8F:E0:6F:1E:40,None,32.488444,-92.163376
xfinitywifi,6E:8F:E0:A5:BE:CC,None,32.492764,-92.166979
xfinitywifi,6E:8F:E0:B5:2B:B4,None,32.488554,-92.167967
xfinitywifi,6E:8F:E0:B6:DC:20,None,32.492084,-92.163656
xfinitywifi,6E:8F:E0:BB:D0:9A,None,32.487126,-92.155725
xfinitywifi,6E:8F:E0:BB:DB:EE,None,32.495235,-92.179297
xfinitywifi,6E:B0:66:34:00:5F,None,32.495283,-92.124897
xfinitywifi,6E:B0:66:34:9C:48,None,32.494608,-92.178144
xfinitywifi,6E:B0:66:34:B9:67,None,32.491916,-92.171526
xfinitywifi,6E:B0:66:34:C3:41,None,32.492401,-92.163313
xfinitywifi,6E:B0:66:38:3F:67,None,32.487755,-92.160678
xfinitywifi,6E:B0:66:E7:E9:D6,None,32.488485,-92.166764
None,6E:BE:F7:B8:E8:38,WPA+AES-CCM WPA+PSK WPA+TKIP,32.493323,-92.129839
None,6E:BE:F7:BB:31:98,WPA+AES-CCM WPA+PSK WPA+TKIP,32.485504,-92.159540
None,6E:BE:F7:C5:04:68,WPA+AES-CCM WPA+PSK WPA+TKIP,32.488876,-92.168021
None,6E:BE:F7:D1:4E:48,WPA+AES-CCM WPA+PSK WPA+TKIP,32.491907,-92.170154
None,6E:BE:F7:F2:3B:60,WPA+AES-CCM WPA+PSK WPA+TKIP,32.498320,-92.127423
None,6E:BE:F7:F8:78:80,WPA+AES-CCM WPA+PSK WPA+TKIP,32.489529,-92.136217
xfinitywifi,6E:E3:0E:4D:F6:7D,None,32.489464,-92.143323
xfinitywifi,6E:E3:0E:B5:6E:7A,None,,
xfinitywifi,6E:E3:0E:DA:F5:B8,None,32.488428,-92.162267
billy,70:03:7E:64:B8:89,WPA+AES-CCM WPA+PSK,32.491738,-92.125351
None,70:03:7E:64:B8:8A,WPA+AES-CCM WPA+PSK,32.491821,-92.125219
xfinitywifi,70:03:7E:64:B8:8B,None,32.491668,-92.125470
None,70:03:7E:64:B8:8C,WPA+AES-CCM WPA+PSK,32.491879,-92.125119
None,70:03:7E:64:B8:8E,WPA+AES-CCM,32.491821,-92.125219
Resurrection Church,70:4F:57:67:69:F8,WPA+AES-CCM WPA+PSK WPA+TKIP,,
YourDogPoopsInMyYard,70:4F:B8:68:46:AF,WPA+AES-CCM WPA+PSK,32.488448,-92.163623
XFSETUP-756D,70:4F:B8:6D:4E:09,WPA+AES-CCM WPA+PSK,32.493889,-92.123665
DAVIS HOME,70:4F:B8:6D:90:8A,WPA+AES-CCM WPA+PSK,32.493114,-92.166591
Jheremy,70:4F:B8:9A:25:0A,WPA+AES-CCM WPA+PSK,32.490480,-92.134717
Enterprise,70:8B:CD:30:13:28,WPA+AES-CCM WPA+PSK,32.488479,-92.166471
None,72:4F:B8:68:46:AF,WPA+AES-CCM WPA+PSK WPA+TKIP,32.488446,-92.163551
None,72:4F:B8:6D:4E:09,WPA+AES-CCM WPA+PSK WPA+TKIP,32.494289,-92.124023
None,72:4F:B8:9A:25:0A,WPA+AES-CCM WPA+PSK WPA+TKIP,32.490550,-92.134607
None,72:F1:9E:F4:F3:95,WPA+AES-CCM WPA+PSK WPA+TKIP,32.491646,-92.132874
NETGEAR91,74:44:01:73:E5:7C,WPA+AES-CCM WPA+PSK,32.492565,-92.167570
CBCI-F61A-2.4,74:85:2A:49:DF:D8,WPA+AES-CCM WPA+PSK WPA+TKIP,32.487106,-92.158546
CBCI-6970-2.4,74:85:2A:6B:C9:88,WPA+AES-CCM WPA+PSK WPA+TKIP,32.492466,-92.175606
HOME-23A2-2.4,74:85:2A:F3:85:F8,WPA+AES-CCM WPA+PSK WPA+TKIP,32.488437,-92.162891
None,76:02:92:AD:26:20,WPA+AES-CCM WPA+TKIP,32.492173,-92.128885
None,76:02:92:EE:16:48,WPA+AES-CCM WPA+TKIP,32.487950,-92.141801
HFAM,78:23:AE:87:19:24,WPA+AES-CCM WPA+PSK,32.492818,-92.175918
FIRSTWEST,78:8A:20:4C:72:F3,None,,
FIRSTWEST,78:8A:20:4C:76:65,None,,
FIRSTWEST,78:8A:20:4C:84:70,None,,
None,78:8A:20:81:B9:7F,WPA+AES-CCM WPA+PSK,32.493866,-92.177264
ELVIN Y EUNICE,78:96:84:7E:08:50,WPA+AES-CCM WPA+PSK,32.495337,-92.124928
ATT112,78:96:84:99:13:D0,WPA+AES-CCM WPA+PSK WPA+TKIP,32.488857,-92.142706
ATT248,78:96:84:B0:13:10,WPA+AES-CCM WPA+PSK WPA+TKIP,32.494798,-92.125664
ATT696,78:96:84:B0:24:70,WPA+AES-CCM WPA+PSK WPA+TKIP,32.498875,-92.129047
Silver Surfer,78:D2:94:02:6B:90,WPA+AES-CCM WPA+PSK,32.499170,-92.128993
moms internet,78:D2:94:C9:53:10,WPA+AES-CCM WPA+PSK,32.488455,-92.164116
Jenniekat,78:F2:9E:1A:51:88,WPA+AES-CCM WPA+PSK,32.492222,-92.124557
Comcast1866,78:F2:9E:3C:80:A8,WPA+AES-CCM WPA+PSK,32.488576,-92.143177
Home2-4,78:F2:9E:4B:D3:48,WPA+AES-CCM WPA+PSK,32.487210,-92.139923
Ramos,78:F2:9E:63:54:B8,WPA+AES-CCM WPA+PSK,32.495224,-92.179374
JessieWifi-2.4,78:F2:9E:9A:C3:08,WPA+AES-CCM WPA+PSK,32.493391,-92.123234
Irene,78:F2:9E:9B:62:28,WPA+AES-CCM WPA+PSK,32.492205,-92.124592
MckinneyWiFi24,78:F2:9E:9F:30:18,WPA+AES-CCM WPA+PSK WPA+TKIP,32.487087,-92.153900
HOME-E952-2.4,78:F2:9E:9F:D3:B8,WPA+AES-CCM WPA+PSK WPA+TKIP,32.490803,-92.134204
HOME-38E7-2.4,78:F2:9E:A6:61:F8,WPA+AES-CCM WPA+PSK WPA+TKIP,32.488706,-92.167539
Everett,78:F2:9E:B8:FD:58,WPA+AES-CCM WPA+PSK,32.498572,-92.127629
Eddieswifi.29,78:F2:9E:BB:07:E8,WPA+AES-CCM WPA+PSK,32.488446,-92.163471
Hopkins5-2.4,78:F2:9E:BC:57:68,WPA+AES-CCM WPA+PSK,32.494861,-92.178703
HOME-6C89-2.4,78:F2:9E:BF:15:48,WPA+AES-CCM WPA+PSK WPA+TKIP,32.495378,-92.180069
Ard wifi,78:F2:9E:C9:12:70,WPA+AES-CCM WPA+PSK,32.493939,-92.123889
Newman,78:F2:9E:DD:AF:C8,WPA+AES-CCM WPA+PSK,32.499867,-92.130120
LEWIS,78:F2:9E:ED:3B:68,WPA+AES-CCM WPA+PSK,32.492953,-92.175842
None,7A:02:92:AD:26:20,WPA+AES-CCM WPA+PSK WPA+TKIP,32.492054,-92.128858
None,7A:02:92:EE:16:48,WPA+AES-CCM WPA+PSK WPA+TKIP,32.488085,-92.141937
None,7A:19:F8:25:44:C5,WPA+AES-CCM WPA+PSK WPA+TKIP,32.493385,-92.130033
None,7A:19:F8:CE:07:64,WPA+AES-CCM WPA+PSK WPA+TKIP,32.490927,-92.167564
None,7A:19:F8:F2:48:66,WPA+AES-CCM WPA+PSK WPA+TKIP,32.491913,-92.170845
None,7A:19:F8:FA:04:75,WPA+AES-CCM WPA+PSK WPA+TKIP,32.488468,-92.165657
None,7A:19:F8:FA:1C:17,WPA+AES-CCM WPA+PSK WPA+TKIP,32.488445,-92.163338
None,7A:80:38:28:0E:9A,WPA+AES-CCM WPA+PSK,32.499781,-92.130057
FW_MEDIA,7A:8A:20:4C:72:F3,WPA+AES-CCM WPA+PSK,,
FW_MEDIA,7A:8A:20:4C:76:65,WPA+AES-CCM WPA+PSK,,
FW_MEDIA,7A:8A:20:4C:84:70,WPA+AES-CCM WPA+PSK,,
OPFD,7A:8A:20:81:B9:7F,WPA+AES-CCM WPA+PSK,32.493873,-92.177273
Silver Surfer 2.4 guest ,7A:D2:94:02:6B:91,WPA+AES-CCM WPA+PSK,32.499192,-92.129068
None,7A:E1:03:58:32:2A,WPA+AES-CCM WPA+PSK,32.490009,-92.135460
None,7A:E1:03:97:2A:C2,WPA+AES-CCM WPA+PSK,32.490158,-92.135226
NICEPINE,7C:05:07:D5:70:60,WPA+AES-CCM WPA+PSK WPA+TKIP,32.488084,-92.160733
None,7E:58:4F:2B:12:FD,WPA+AES-CCM WPA+PSK WPA+TKIP,32.491646,-92.132874
None,7E:7A:8A:06:11:2E,WPA+AES-CCM WPA+TKIP,32.494414,-92.177916
None,7E:7A:8A:0D:6E:9C,WPA+AES-CCM WPA+TKIP,32.488468,-92.165199
None,7E:7A:8A:0E:A5:0A,WPA+AES-CCM WPA+TKIP,32.488465,-92.165176
None,7E:7A:8A:26:47:C8,WPA+AES-CCM WPA+TKIP,32.487087,-92.153900
None,7E:7A:8A:3E:EF:94,WPA+AES-CCM WPA+TKIP,32.492132,-92.124709
None,7E:7A:8A:45:16:3A,WPA+AES-CCM WPA+TKIP,32.491890,-92.164040
None,7E:7A:8A:46:41:AE,WPA+AES-CCM WPA+TKIP,32.491915,-92.171562
None,7E:7A:8A:46:74:08,WPA+AES-CCM WPA+TKIP,32.491917,-92.172054
None,7E:7A:8A:48:1A:24,WPA+AES-CCM WPA+TKIP,32.493109,-92.165836
None,7E:7A:8A:51:3F:AA,WPA+AES-CCM WPA+TKIP,32.493032,-92.167426
None,7E:7A:8A:52:71:F4,WPA+AES-CCM WPA+TKIP,32.488461,-92.164665
None,7E:7A:8A:89:1A:5C,WPA+AES-CCM WPA+TKIP,32.492444,-92.167630
None,7E:7A:8A:8B:3D:FA,WPA+AES-CCM WPA+TKIP,32.486989,-92.152815
None,7E:7E:81:55:1D:BF,WPA+AES-CCM WPA+PSK WPA+TKIP,32.500287,-92.130453
None,7E:7E:81:AF:B5:4D,WPA+AES-CCM WPA+PSK WPA+TKIP,32.498478,-92.127548
xfinitywifi,7E:85:2A:F3:85:F8,None,32.488437,-92.162869
None,7E:8F:E0:18:CD:D0,WPA+AES-CCM WPA+PSK WPA+TKIP,32.492682,-92.163264
None,7E:8F:E0:61:B5:7E,WPA+AES-CCM WPA+PSK WPA+TKIP,,
None,7E:8F:E0:6D:13:00,WPA+AES-CCM WPA+PSK WPA+TKIP,32.491574,-92.125606
None,7E:8F:E0:A5:BE:CC,WPA+AES-CCM WPA+PSK WPA+TKIP,32.492571,-92.166931
None,7E:8F:E0:B5:2B:B4,WPA+AES-CCM WPA+PSK WPA+TKIP,32.488621,-92.168009
None,7E:8F:E0:B6:DC:20,WPA+AES-CCM WPA+PSK WPA+TKIP,32.492587,-92.163516
None,7E:8F:E0:BB:D0:9A,WPA+AES-CCM WPA+PSK WPA+TKIP,32.487126,-92.155302
None,7E:8F:E0:BB:DB:EE,WPA+AES-CCM WPA+PSK WPA+TKIP,32.495354,-92.179741
None,7E:B0:66:34:00:5F,WPA+AES-CCM WPA+PSK WPA+TKIP,32.495399,-92.124998
None,7E:B0:66:34:9C:48,WPA+AES-CCM WPA+PSK WPA+TKIP,32.494402,-92.177969
None,7E:B0:66:34:B9:67,WPA+AES-CCM WPA+PSK WPA+TKIP,32.491915,-92.171450
None,7E:B0:66:34:C3:41,WPA+AES-CCM WPA+PSK WPA+TKIP,32.492640,-92.163281
None,7E:B0:66:38:3F:67,WPA+AES-CCM WPA+PSK WPA+TKIP,32.487803,-92.160660
None,7E:B0:66:48:27:2D,WPA+AES-CCM WPA+PSK WPA+TKIP,32.486943,-92.158289
None,7E:B0:66:E7:E9:D6,WPA+AES-CCM WPA+PSK WPA+TKIP,32.488487,-92.166829
None,7E:E3:0E:4D:F6:7D,WPA+AES-CCM WPA+PSK WPA+TKIP,32.489414,-92.143265
None,7E:E3:0E:B5:6E:7A,WPA+AES-CCM WPA+PSK WPA+TKIP,,
None,7E:E3:0E:DA:F5:B8,WPA+AES-CCM WPA+PSK WPA+TKIP,32.488448,-92.163517
None,7E:F2:9E:1D:D8:D8,WPA+AES-CCM WPA+PSK WPA+TKIP,32.492249,-92.175316
None,7E:F2:9E:C9:12:70,WPA+AES-CCM WPA+PSK WPA+TKIP,32.493640,-92.123731
Headstart,80:2A:A8:03:22:09,WPA+AES-CCM WPA+PSK,32.488762,-92.137405
Headstart,80:2A:A8:03:4F:8A,WPA+AES-CCM WPA+PSK,32.488510,-92.137792
FIRSTWEST,80:2A:A8:81:88:F0,None,,
A&W,80:2A:A8:81:96:B0,WPA+AES-CCM WPA+PSK,32.487099,-92.158592
FIRSTWEST,80:2A:A8:87:93:95,None,,
RHTC-Guest,80:2A:A8:97:34:A9,WPA+AES-CCM WPA+PSK,32.485125,-92.159311
DIRECT-14-HP DeskJet 2600 series,80:CE:62:05:14:15,WPA+AES-CCM WPA+PSK,32.486803,-92.140495
DIRECT-EA-HP OfficeJet Pro 6970,80:CE:62:90:70:EB,WPA+AES-CCM WPA+PSK,,
DIRECT-0E-HP OfficeJet 4650,80:CE:62:DB:E1:0F,WPA+AES-CCM WPA+PSK,32.485058,-92.158989
GPI,80:E8:6F:5D:71:40,WPA+AES-CCM WPA+PSK,32.486782,-92.150041
GPI_Guest,80:E8:6F:5D:71:41,WPA+AES-CCM WPA+PSK,32.486829,-92.150607
GPI-Secure,80:E8:6F:5D:71:42,WPA+AES-CCM,32.486818,-92.150258
GPI-Equipment,80:E8:6F:5D:71:43,WPA+AES-CCM WPA+PSK,32.486766,-92.149690
FW_MEDIA,82:2A:A8:87:93:95,WPA+AES-CCM WPA+PSK,,
RHTC,82:2A:A8:97:34:A9,WPA+AES-CCM WPA+PSK,32.485320,-92.159101
xfinitywifi,82:4F:B8:68:46:AF,None,32.488612,-92.163741
xfinitywifi,82:4F:B8:6D:90:8A,None,32.493115,-92.166607
None,82:85:2A:F3:85:F8,WPA+AES-CCM WPA+PSK WPA+TKIP,32.488435,-92.162764
xfinitywifi,82:F2:9E:2A:CA:18,None,32.492722,-92.123764
xfinitywifi,82:F2:9E:3C:80:A8,None,32.488515,-92.143189
xfinitywifi,82:F2:9E:4B:D3:48,None,32.486939,-92.140310
xfinitywifi,82:F2:9E:63:54:B8,None,32.495277,-92.179567
xfinitywifi,82:F2:9E:9B:62:28,None,32.492181,-92.124629
xfinitywifi,82:F2:9E:9F:D3:B8,None,32.490861,-92.134113
xfinitywifi,82:F2:9E:A6:61:F8,None,32.488639,-92.167653
xfinitywifi,82:F2:9E:B8:FD:58,None,32.498477,-92.127551
xfinitywifi,82:F2:9E:BB:07:E8,None,32.488447,-92.163482
xfinitywifi,82:F2:9E:BC:57:68,None,32.494430,-92.177933
xfinitywifi,82:F2:9E:C9:12:70,None,32.493961,-92.123943
xfinitywifi,82:F2:9E:DD:AF:C8,None,32.499887,-92.130136
xfinitywifi,82:F2:9E:ED:3B:68,None,32.493091,-92.176134
kimswifi18,84:00:2D:15:A2:08,WPA+AES-CCM WPA+PSK,32.492016,-92.163536
CBCI-9EDB-2.4,84:00:2D:62:E6:D8,WPA+AES-CCM WPA+PSK WPA+TKIP,32.487117,-92.157461
HOME-E57A-2.4,84:00:2D:66:74:68,WPA+AES-CCM WPA+PSK WPA+TKIP,32.492462,-92.163286
YFi -2.4,84:00:2D:6C:89:08,WPA+AES-CCM WPA+PSK,32.491897,-92.165040
CBCI-C3C2-2.4,84:00:2D:C4:CE:48,WPA+AES-CCM WPA+PSK WPA+TKIP,32.494866,-92.178659
Monster Hunter,84:17:EF:EE:79:B7,WPA+AES-CCM WPA+PSK,32.492052,-92.174807
xfinitywifi,84:17:EF:EE:79:B9,None,32.492035,-92.174866
None,84:17:EF:EE:79:BA,WPA+AES-CCM WPA+PSK,32.492159,-92.174740
None,84:17:EF:EE:79:BC,WPA+AES-CCM,32.492134,-92.174901
EZLYNK_0470,84:25:3F:15:0A:92,None,32.488937,-92.143946
ATT4M9I4I2,84:61:A0:10:5F:40,WPA+AES-CCM WPA+PSK WPA+TKIP,32.491909,-92.170155
ATT9u6j482,84:61:A0:BB:B8:A0,WPA+AES-CCM WPA+PSK,32.500614,-92.130707
ATT048,84:61:A0:ED:62:E0,WPA+AES-CCM WPA+PSK WPA+TKIP,32.494947,-92.124599
xfinitywifi,86:05:07:D5:70:60,None,32.488135,-92.160670
None,86:F2:9E:1A:51:88,WPA+AES-CCM WPA+PSK WPA+TKIP,32.492222,-92.124557
None,86:F2:9E:1D:D8:D8,WPA+AES-CCM WPA+PSK WPA+TKIP,32.492249,-92.175316
None,86:F2:9E:2A:CA:18,WPA+AES-CCM WPA+PSK WPA+TKIP,32.492466,-92.124184
None,86:F2:9E:3C:80:A8,WPA+AES-CCM WPA+PSK WPA+TKIP,32.488654,-92.142872
None,86:F2:9E:4B:D3:48,WPA+AES-CCM WPA+PSK WPA+TKIP,32.487291,-92.139751
None,86:F2:9E:63:54:B8,WPA+AES-CCM WPA+PSK WPA+TKIP,32.495343,-92.179587
None,86:F2:9E:9B:62:28,WPA+AES-CCM WPA+PSK WPA+TKIP,32.492146,-92.124685
None,86:F2:9E:9F:30:18,WPA+AES-CCM WPA+PSK WPA+TKIP,32.486999,-92.152847
None,86:F2:9E:9F:D3:B8,WPA+AES-CCM WPA+PSK WPA+TKIP,32.490997,-92.133900
None,86:F2:9E:A6:61:F8,WPA+AES-CCM WPA+PSK WPA+TKIP,32.488613,-92.167367
None,86:F2:9E:B8:FD:58,WPA+AES-CCM WPA+PSK WPA+TKIP,32.498533,-92.127596
None,86:F2:9E:BB:07:E8,WPA+AES-CCM WPA+PSK WPA+TKIP,32.488446,-92.163457
None,86:F2:9E:BC:57:68,WPA+AES-CCM WPA+PSK WPA+TKIP,32.494924,-92.178655
None,86:F2:9E:BF:15:48,WPA+AES-CCM WPA+PSK WPA+TKIP,32.495367,-92.179925
None,86:F2:9E:C9:12:70,WPA+AES-CCM WPA+PSK WPA+TKIP,32.493845,-92.123876
None,86:F2:9E:DD:AF:C8,WPA+AES-CCM WPA+PSK WPA+TKIP,32.499985,-92.130213
None,86:F2:9E:ED:3B:68,WPA+AES-CCM WPA+PSK WPA+TKIP,32.492255,-92.174647
None,88:15:44:60:96:BC,WPA+AES-CCM WPA+PSK WPA+TKIP,32.499579,-92.129891
HP-Print-A4-Officejet Pro 8600 2,88:51:FB:21:BE:A4,None,32.495388,-92.180277
ATTtQZXyE2,88:71:B1:1F:70:70,WPA+AES-CCM WPA+PSK,32.488521,-92.168106
INTERMEC,88:75:56:83:EB:B0,WEP,32.486918,-92.147545
ATTwr46nQs,88:96:4E:0C:09:20,WPA+AES-CCM WPA+PSK,32.493225,-92.130072
ATThKtAG4I,88:96:4E:30:7C:C0,WPA+AES-CCM WPA+PSK,32.500060,-92.130271
ATTMRvqxEa,88:96:4E:30:BF:80,WPA+AES-CCM WPA+PSK,,
ATTFf99fi2,88:96:4E:52:34:30,WPA+AES-CCM WPA+PSK,,
ATTVmVmKwa,88:96:4E:57:93:B0,WPA+AES-CCM WPA+PSK,32.491911,-92.170879
ATT2VpvIBA,88:96:4E:60:DE:20,WPA+AES-CCM WPA+PSK,32.500553,-92.130653
ATTT99RAQs,88:96:4E:6C:A0:90,WPA+AES-CCM WPA+PSK,32.500568,-92.130674
ATTsm7N8Na,88:96:4E:9B:99:20,WPA+AES-CCM WPA+PSK,,
ATTvXYjGs2,88:96:4E:C7:B6:E0,WPA+AES-CCM WPA+PSK,32.499160,-92.129446
ATTmbdMwQs,88:96:4E:D4:BA:30,WPA+AES-CCM WPA+PSK,32.491573,-92.125713
ATTjFRiejA,88:96:4E:E7:65:50,WPA+AES-CCM WPA+PSK,32.488508,-92.167805
HOME-2C9B-2.4,88:AD:43:B1:1C:A0,WPA+AES-CCM WPA+PSK WPA+TKIP,32.498750,-92.128342
Home125,88:AD:43:B7:BB:00,WPA+AES-CCM WPA+PSK,32.488589,-92.167112
HOME-D5BF-2.4,88:AD:43:E4:7B:C8,WPA+AES-CCM WPA+PSK WPA+TKIP,32.487082,-92.158320
HOME-D3D5-2.4,88:AD:43:E4:85:F8,WPA+AES-CCM WPA+PSK WPA+TKIP,32.488607,-92.167895
PGMBC-Members,88:B1:E1:60:B9:00,WPA+AES-CCM WPA+PSK WPA+TKIP,32.492050,-92.128838
PGMBC-Members,88:B1:E1:60:DC:80,WPA+AES-CCM WPA+PSK WPA+TKIP,32.492350,-92.128370
Worley4-2.4,88:DC:96:0D:E4:D6,WPA+AES-CCM WPA+PSK WPA+TKIP,32.488452,-92.164116
Franklin,88:F7:C7:39:D9:4A,WPA+AES-CCM WPA+PSK WPA+TKIP,32.491905,-92.169218
HOME-1D5A,88:F7:C7:3A:1D:5A,WPA+AES-CCM WPA+PSK WPA+TKIP,32.491954,-92.173576
HOME NET,88:F7:C7:43:81:CA,WPA+AES-CCM WPA+PSK WPA+TKIP,32.491911,-92.125151
HOME-978F,88:F7:C7:64:97:8F,WPA+AES-CCM WPA+PSK WPA+TKIP,32.488461,-92.164535
None,8A:00:2D:15:A2:08,WPA+AES-CCM WPA+PSK WPA+TKIP,32.491983,-92.163582
None,8A:05:07:D5:70:60,WPA+AES-CCM WPA+PSK WPA+TKIP,32.488216,-92.160715
xfinitywifi,8A:23:AE:87:19:24,None,32.493258,-92.176541
None,8A:71:E5:71:80:54,WPA+AES-CCM WPA+PSK,32.490768,-92.134259
None,8A:85:2A:87:BB:48,WPA+AES-CCM WPA+TKIP,32.492428,-92.131630
None,8A:85:2A:F3:85:F8,WPA+AES-CCM WPA+TKIP,32.488441,-92.163071
FWPRI,8A:8A:20:4C:72:80,WPA+AES-CCM WPA+PSK,,
FWPRI,8A:8A:20:4C:72:F3,WPA+AES-CCM WPA+PSK,,
FWPRI,8A:8A:20:4C:76:65,WPA+AES-CCM WPA+PSK,,
FWPRI,8A:8A:20:4C:84:70,WPA+AES-CCM WPA+PSK,,
Z Ben Test,8A:8A:20:5D:1A:31,WPA+AES-CCM,32.499577,-92.129890
None,8A:8A:20:81:B9:7F,WPA+AES-CCM WPA+PSK,32.493948,-92.177361
xfinitywifi,8A:F7:C7:39:D9:4C,None,32.491904,-92.168859
xfinitywifi,8A:F7:C7:3A:1D:5C,None,32.491998,-92.173594
None,8A:F7:C7:43:81:CB,WPA+AES-CCM WPA+PSK,32.491957,-92.125093
xfinitywifi,8A:F7:C7:43:81:CC,None,32.492005,-92.125158
HOME-56CB,8C:04:FF:39:56:CB,WPA+AES-CCM WPA+PSK WPA+TKIP,32.492177,-92.163651
jitsu is life.,8C:04:FF:B5:DD:E9,WPA+AES-CCM WPA+PSK WPA+TKIP,32.499317,-92.129461
Princess,8C:0F:6F:0B:6B:F0,WPA+AES-CCM WPA+PSK,32.485221,-92.160795
Peacocks-24,8C:0F:6F:13:1B:20,WPA+AES-CCM WPA+PSK,32.485317,-92.161453
NeddieWifi-2.4,8C:0F:6F:1B:14:E0,WPA+AES-CCM WPA+PSK,32.495384,-92.179855
LazerSpot1,8C:0F:6F:2F:8F:80,WPA+AES-CCM WPA+PSK WPA+TKIP,32.487076,-92.153770
Home-2.4,8C:0F:6F:38:74:A8,WPA+AES-CCM WPA+PSK,32.490525,-92.134642
CBCI-DAF3-2.4,8C:0F:6F:5C:34:C8,WPA+AES-CCM WPA+PSK WPA+TKIP,32.488325,-92.160431
A-1Tires,8C:0F:6F:81:14:80,WPA+AES-CCM WPA+PSK WPA+TKIP,32.489387,-92.143361
CBCI-A8EB-2.4,8C:0F:6F:8A:9F:D8,WPA+AES-CCM WPA+PSK WPA+TKIP,32.498237,-92.127363
Freedmen_House,8C:0F:6F:8A:B3:B8,WPA+AES-CCM WPA+PSK WPA+TKIP,32.500468,-92.130597
Nicashan29,8C:0F:6F:AD:64:18,WPA+AES-CCM WPA+PSK,32.491915,-92.171441
Gonzalez,8C:0F:6F:B2:68:C8,WPA+AES-CCM WPA+PSK,32.487669,-92.160717
DME_Express,8C:0F:6F:BC:2D:C8,WPA+AES-CCM WPA+PSK WPA+TKIP,32.488301,-92.160442
PGMBC,8C:0F:6F:BF:C1:08,WPA+AES-CCM WPA+PSK WPA+TKIP,32.492413,-92.128223
SSID2-2.4,8C:0F:6F:BF:C1:09,None,32.492098,-92.128757
Redline,8C:0F:6F:C7:AD:D8,WPA+AES-CCM WPA+PSK WPA+TKIP,,
CBCI-CD7D-2.4,8C:0F:6F:C9:1F:48,WPA+AES-CCM WPA+PSK WPA+TKIP,32.486804,-92.147092
Bettell020490,8C:0F:6F:CD:C6:08,WPA+AES-CCM WPA+PSK,32.492627,-92.175793
Williams,8C:0F:6F:CF:D4:18,WPA+AES-CCM WPA+PSK,32.491919,-92.125197
HOME-DAFC-2.4,8C:0F:6F:D4:34:C8,WPA+AES-CCM WPA+PSK WPA+TKIP,32.493101,-92.165187
Ken,8C:0F:6F:D8:06:D8,WPA+AES-CCM WPA+PSK,,
ATT1880,8C:3B:AD:4B:8B:D2,WPA+AES-CCM WPA+PSK,32.488444,-92.163376
ATT5194,8C:3B:AD:4B:F5:7A,WPA+AES-CCM WPA+PSK,32.488457,-92.164507
robertson,8C:3B:AD:4C:6C:B4,WPA+AES-CCM WPA+PSK,32.491234,-92.167818
ATT7508,8C:3B:AD:4C:D2:AE,WPA+AES-CCM WPA+PSK,32.492070,-92.163723
ATT7612,8C:3B:AD:4E:CE:12,WPA+AES-CCM WPA+PSK,32.485256,-92.161461
ATT1470,8C:3B:AD:4F:D2:AC,WPA+AES-CCM WPA+PSK,32.492264,-92.175163
ATT1571,8C:3B:AD:52:2E:8D,WPA+AES-CCM WPA+PSK WPA+TKIP,32.488399,-92.161180
ATT9446,8C:3B:AD:52:F0:FC,WPA+AES-CCM WPA+PSK,32.493946,-92.177361
Mom Home,8C:3B:AD:5C:D0:F7,WPA+AES-CCM WPA+PSK,32.491901,-92.166048
Will's House 2.4G,8C:3B:AD:A6:AD:88,WPA+AES-CCM WPA+PSK,,
NETGEAR79,8C:3B:AD:F3:87:A4,WPA+AES-CCM WPA+PSK,32.492685,-92.166394
Audi_MMI_93fe82,8C:57:9B:93:FE:82,WPA+AES-CCM WPA+PSK,32.492149,-92.163324
Cheetah Home,8C:61:A3:6D:4B:1B,WPA+AES-CCM WPA+PSK,32.488455,-92.164511
rebelman-2.4,8C:61:A3:74:E6:D5,WPA+AES-CCM WPA+PSK,32.488430,-92.162173
FamilyFirstFordsHome,8C:61:A3:79:E0:0D,WPA+AES-CCM WPA+PSK,32.493038,-92.163574
Woodiemae88,8C:61:A3:8D:02:EA,WPA+AES-CCM WPA+PSK,32.488434,-92.162544
DatBitch!!,8C:61:A3:8F:84:58,WPA+AES-CCM WPA+PSK,32.491221,-92.133543
GetUrOwnWifi,8C:61:A3:8F:95:B5,WPA+AES-CCM WPA+PSK,32.495346,-92.179807
aikensramona815,8C:61:A3:92:D3:4E,WPA+AES-CCM WPA+PSK,32.493405,-92.176719
musicroom,8C:61:A3:93:EA:AD,WPA+AES-CCM WPA+PSK,32.491924,-92.174103
Ms.Alice,8C:61:A3:A1:0B:5D,WPA+AES-CCM WPA+PSK,32.493487,-92.123606
ATT8m8s938,8C:7F:3B:43:A9:80,WPA+AES-CCM WPA+PSK,32.499111,-92.128079
BANCROFT-BAG,8C:FE:74:12:92:D8,WPA+AES-CCM WPA+PSK,32.488224,-92.142076
BANCROFT-BAG,8C:FE:74:12:BC:78,WPA+AES-CCM WPA+PSK,32.488308,-92.142158
xfinitywifi,8E:00:2D:15:A2:08,None,32.492033,-92.163709
xfinitywifi,8E:00:2D:66:74:68,None,32.492596,-92.163269
xfinitywifi,8E:04:FF:39:56:CD,None,32.492328,-92.164207
None,8E:04:FF:B5:DD:EA,WPA+AES-CCM WPA+PSK,32.499272,-92.129450
xfinitywifi,8E:04:FF:B5:DD:EB,None,32.499278,-92.129471
None,8E:15:44:60:96:BC,WPA+AES-CCM WPA+PSK WPA+TKIP,32.499612,-92.129920
None,8E:61:A3:79:E0:0D,WPA+AES-CCM WPA+PSK WPA+TKIP,32.492998,-92.163315
None,8E:61:A3:92:D3:4E,WPA+AES-CCM WPA+PSK WPA+TKIP,32.493358,-92.176664
None,8E:61:A3:93:EA:AD,WPA+AES-CCM WPA+PSK WPA+TKIP,32.491924,-92.174103
None,8E:F2:9E:1D:D8:D8,WPA+AES-CCM WPA+TKIP,32.492249,-92.175316
None,8E:F2:9E:3C:80:A8,WPA+AES-CCM WPA+TKIP,32.488555,-92.143036
None,8E:F2:9E:4B:D3:48,WPA+AES-CCM WPA+TKIP,32.487361,-92.139636
None,8E:F2:9E:63:54:B8,WPA+AES-CCM WPA+TKIP,32.495216,-92.179293
None,8E:F2:9E:9A:88:D8,WPA+AES-CCM WPA+TKIP,32.492222,-92.163315
None,8E:F2:9E:9B:62:28,WPA+AES-CCM WPA+TKIP,32.492181,-92.124629
None,8E:F2:9E:9C:CA:28,WPA+AES-CCM WPA+TKIP,32.488457,-92.164017
None,8E:F2:9E:9F:30:18,WPA+AES-CCM WPA+TKIP,32.487087,-92.153900
None,8E:F2:9E:9F:D3:B8,WPA+AES-CCM WPA+TKIP,32.490520,-92.134652
None,8E:F2:9E:A6:61:F8,WPA+AES-CCM WPA+TKIP,32.488658,-92.167263
None,8E:F2:9E:B8:FD:58,WPA+AES-CCM WPA+TKIP,32.498656,-92.127695
None,8E:F2:9E:BB:07:E8,WPA+AES-CCM WPA+TKIP,32.488439,-92.163037
None,8E:F2:9E:BC:57:68,WPA+AES-CCM WPA+TKIP,32.494753,-92.178463
None,8E:F2:9E:BF:15:48,WPA+AES-CCM WPA+TKIP,32.495355,-92.179758
None,8E:F2:9E:C9:12:70,WPA+AES-CCM WPA+TKIP,32.493867,-92.123848
None,8E:F2:9E:DD:AF:C8,WPA+AES-CCM WPA+TKIP,32.499645,-92.129945
None,8E:F2:9E:ED:3B:68,WPA+AES-CCM WPA+TKIP,32.492535,-92.175010
HOME-BF92,90:0D:CB:2A:BF:90,WPA+AES-CCM WPA+PSK WPA+TKIP,32.493042,-92.167031
HOME-3AC2,90:0D:CB:A1:3A:C0,WPA+AES-CCM WPA+PSK WPA+TKIP,32.488334,-92.142185
HOME-18A2,90:0D:CB:AA:18:A0,WPA+AES-CCM WPA+PSK WPA+TKIP,32.493988,-92.123753
HOME-0EF2,90:1A:CA:94:0E:F0,WPA+AES-CCM WPA+PSK WPA+TKIP,32.488868,-92.168116
HOME-E742,90:1A:CA:A8:E7:40,WPA+AES-CCM WPA+PSK WPA+TKIP,32.485150,-92.161338
HOME-A832,90:1A:CA:B9:A8:30,WPA+AES-CCM WPA+PSK WPA+TKIP,32.487981,-92.141834
ATT600,90:3E:AB:99:9E:70,WPA+AES-CCM WPA+PSK WPA+TKIP,32.493190,-92.129830
ATT34NAmvS,90:9D:7D:4F:11:D0,WPA+AES-CCM WPA+PSK,32.498924,-92.129369
Deon,90:C7:92:4E:2B:F0,WPA+AES-CCM WPA+PSK WPA+TKIP,32.490676,-92.134406
None,92:00:2D:15:A2:08,WPA+AES-CCM WPA+PSK WPA+TKIP,32.492021,-92.163578
None,92:00:2D:66:74:68,WPA+AES-CCM WPA+PSK WPA+TKIP,32.492262,-92.163311
None,92:00:2D:6C:89:08,WPA+AES-CCM WPA+PSK WPA+TKIP,32.491898,-92.164107
None,92:05:07:D5:70:60,WPA+AES-CCM WPA+TKIP,32.488190,-92.160728
None,92:0D:CB:A1:3A:C0,WPA+AES-CCM WPA+PSK,32.488244,-92.142095
None,92:0D:CB:AA:18:A0,WPA+AES-CCM WPA+PSK,32.493813,-92.123597
None,92:0F:6F:CD:C6:08,WPA+AES-CCM WPA+PSK WPA+TKIP,32.492103,-92.174291
None,92:15:44:60:96:BC,WPA+AES-CCM WPA+PSK WPA+TKIP,32.499623,-92.129928
None,92:1A:CA:46:B4:80,WPA+AES-CCM WPA+PSK,32.500579,-92.130679
None,92:1A:CA:94:0E:F0,WPA+AES-CCM WPA+PSK,32.489015,-92.168116
None,92:1A:CA:A8:E7:40,WPA+AES-CCM WPA+PSK,32.484962,-92.161293
FWPRI,92:2A:A8:87:93:95,WPA+AES-CCM WPA+PSK,,
None,92:2A:A8:97:34:A9,WPA+AES-CCM WPA+PSK,32.485214,-92.159330
DIRECT-6f-HP M254 LaserJet,92:32:4B:50:3B:6F,WPA+AES-CCM WPA+PSK,32.493190,-92.130463
None,92:4F:B8:68:46:AF,WPA+AES-CCM WPA+PSK WPA+TKIP,32.488456,-92.164238
None,92:4F:B8:6D:4E:09,WPA+AES-CCM WPA+PSK WPA+TKIP,32.493420,-92.123245
None,92:4F:B8:6D:90:8A,WPA+AES-CCM WPA+PSK WPA+TKIP,32.493005,-92.166462
None,92:4F:B8:9A:25:0A,WPA+AES-CCM WPA+PSK WPA+TKIP,32.490513,-92.134664
None,92:6B:3D:1E:EE:20,WPA+AES-CCM WPA+PSK,32.490253,-92.135076
xfinitywifi,92:AD:43:B1:1C:A0,None,32.498742,-92.128026
xfinitywifi,92:AD:43:B7:BB:00,None,32.489265,-92.168083
xfinitywifi,92:AD:43:E4:7B:C8,None,32.487106,-92.158508
xfinitywifi,92:AD:43:E4:85:F8,None,32.488532,-92.167966
None,92:C7:92:4E:2B:F0,WPA+AES-CCM WPA+PSK,32.490696,-92.134375
None,92:F2:9E:DD:AF:C8,WPA+AES-CCM WPA+PSK WPA+TKIP,32.499845,-92.130102
Linksys00707,94:10:3E:98:FA:29,WPA+AES-CCM WPA+PSK,32.492413,-92.174233
HOME-D510-2.4,94:10:3E:A6:85:86,WPA+AES-CCM WPA+PSK WPA+TKIP,32.492388,-92.131700
belkin.14a,94:10:3E:F7:21:4A,WPA+AES-CCM WPA+PSK,32.486643,-92.148731
HP-Print-E2-LaserJet Pro MFP,94:53:30:11:B9:E2,None,,
FBI Surveillance Van #203,94:87:7C:57:04:A0,WPA+AES-CCM WPA+PSK WPA+TKIP,,
ARRIS-EAA1,94:8F:CF:87:D1:08,WPA+AES-CCM WPA+PSK,32.493656,-92.176975
ATT859,94:C1:50:79:CE:0A,WPA+AES-CCM WPA+PSK WPA+TKIP,32.488459,-92.164469
ATT506,94:C1:50:87:F5:BA,WPA+AES-CCM WPA+PSK WPA+TKIP,32.492066,-92.164198
None,96:05:07:D5:70:60,WPA+AES-CCM WPA+PSK WPA+TKIP,32.488106,-92.160809
xfinitywifi,96:0D:CB:2A:BF:90,None,32.493036,-92.167043
xfinitywifi,96:0D:CB:AA:18:A0,None,32.493657,-92.123459
xfinitywifi,96:0F:6F:0B:6B:F0,None,32.485200,-92.161149
xfinitywifi,96:0F:6F:38:74:A8,None,32.490527,-92.134638
xfinitywifi,96:0F:6F:AD:64:18,None,32.491915,-92.171674
xfinitywifi,96:0F:6F:CD:C6:08,None,32.492180,-92.174713
xfinitywifi,96:0F:6F:CF:D4:18,None,32.491849,-92.125156
xfinitywifi,96:0F:6F:D4:34:C8,None,32.493109,-92.165428
belkin.14a.guests,96:10:3E:F7:21:4B,None,32.486622,-92.148641
xfinitywifi,96:1A:CA:94:0E:F0,None,32.489131,-92.168104
xfinitywifi,96:1A:CA:B9:A8:30,None,32.487879,-92.141734
DIRECT-PH-BRAVIA,96:53:30:BB:E4:4C,WPA+AES-CCM WPA+PSK,32.488455,-92.164236
DIRECT-9F-HP PageWide Pro PWA,96:57:A5:7F:F0:9F,WPA+AES-CCM WPA+PSK,32.487133,-92.156273
xfinitywifi,96:6B:3D:1E:EE:20,None,32.490200,-92.135159
None,96:AD:43:B1:1C:A0,WPA+AES-CCM WPA+PSK WPA+TKIP,32.498630,-92.128173
None,96:AD:43:B7:BB:00,WPA+AES-CCM WPA+PSK WPA+TKIP,32.488481,-92.166481
None,96:AD:43:E4:7B:C8,WPA+AES-CCM WPA+PSK WPA+TKIP,32.487110,-92.157926
None,96:AD:43:E4:85:F8,WPA+AES-CCM WPA+PSK WPA+TKIP,32.488581,-92.168034
xfinitywifi,96:C7:92:4E:2B:F0,None,32.490775,-92.134246
PNet6525512,98:5D:46:00:99:09,WPA+AES-CCM WPA+PSK,32.497326,-92.126648
PNet6515564,98:5D:46:FB:BD:89,WPA+AES-CCM WPA+PSK,32.492756,-92.126968
HOME-EE22,98:6B:3D:1E:EE:20,WPA+AES-CCM WPA+PSK WPA+TKIP,32.490161,-92.135221
DIRECT-CF-HP OfficeJet Pro 6960,98:E7:F4:01:25:D1,WPA+AES-CCM WPA+PSK,32.491936,-92.163595
DIRECT-4B-HP OfficeJet Pro 8710,98:E7:F4:44:32:4D,WPA+AES-CCM WPA+PSK,32.487564,-92.139297
CiscoO9547,98:FC:11:5B:AA:C2,WPA+AES-CCM WPA+PSK WPA+TKIP,32.495092,-92.178980
None,9A:00:2D:15:A2:08,WPA+AES-CCM WPA+TKIP,32.492086,-92.163596
None,9A:00:2D:66:74:68,WPA+AES-CCM WPA+TKIP,32.492596,-92.163269
None,9A:00:2D:6C:89:08,WPA+AES-CCM WPA+TKIP,32.491896,-92.164699
None,9A:0F:6F:0B:6B:F0,WPA+AES-CCM WPA+PSK WPA+TKIP,32.485245,-92.160834
None,9A:0F:6F:13:1B:20,WPA+AES-CCM WPA+PSK WPA+TKIP,32.485317,-92.161453
None,9A:0F:6F:1B:14:E0,WPA+AES-CCM WPA+PSK WPA+TKIP,32.495384,-92.179855
None,9A:0F:6F:38:74:A8,WPA+AES-CCM WPA+PSK WPA+TKIP,32.490588,-92.134543
None,9A:0F:6F:AD:64:18,WPA+AES-CCM WPA+PSK WPA+TKIP,32.491915,-92.171330
None,9A:0F:6F:B2:68:C8,WPA+AES-CCM WPA+PSK WPA+TKIP,32.486931,-92.159802
None,9A:0F:6F:CD:C6:08,WPA+AES-CCM WPA+PSK WPA+TKIP,32.492308,-92.175090
None,9A:0F:6F:CF:D4:18,WPA+AES-CCM WPA+PSK WPA+TKIP,32.491902,-92.125159
None,9A:0F:6F:D4:34:C8,WPA+AES-CCM WPA+PSK WPA+TKIP,32.493095,-92.165026
None,9A:0F:6F:D8:06:D8,WPA+AES-CCM WPA+PSK WPA+TKIP,,
None,9A:19:F8:25:44:C5,WPA+AES-CCM WPA+TKIP,32.493362,-92.130071
None,9A:19:F8:CE:07:64,WPA+AES-CCM WPA+TKIP,32.491901,-92.166145
None,9A:19:F8:FA:04:75,WPA+AES-CCM WPA+TKIP,32.488469,-92.165619
None,9A:19:F8:FA:1C:17,WPA+AES-CCM WPA+TKIP,32.488459,-92.164557
None,9A:23:AE:87:19:24,WPA+AES-CCM WPA+PSK WPA+TKIP,32.492715,-92.175679
Sky-Dev,9A:8A:20:5D:1A:31,WPA+AES-CCM WPA+PSK,32.499577,-92.129890
bryant,9C:34:26:19:4E:04,WPA+AES-CCM WPA+PSK WPA+TKIP,32.489342,-92.143677
Frank,9C:34:26:1A:E8:E0,WPA+AES-CCM WPA+PSK WPA+TKIP,32.487767,-92.141623
RayvnsDen,9C:34:26:1C:0A:86,WPA+AES-CCM WPA+PSK,32.492115,-92.164319
Gloria,9C:34:26:27:E5:2C,WPA+AES-CCM WPA+PSK,32.488564,-92.167849
22Bailey22,9C:34:26:2C:CD:62,WPA+AES-CCM WPA+PSK,32.488443,-92.163221
HewittWifi,9C:34:26:2E:84:FE,WPA+AES-CCM WPA+PSK,32.493344,-92.130132
Astro,9C:34:26:2E:AB:F0,WPA+AES-CCM WPA+PSK WPA+TKIP,32.493105,-92.164986
Sammie-2.4G,9C:34:26:30:1A:BC,WPA+AES-CCM WPA+PSK WPA+TKIP,32.492233,-92.163323
Cooterbay,9C:34:26:37:5E:A8,WPA+AES-CCM WPA+PSK,32.492108,-92.163395
Jimmy,9C:34:26:6A:3B:0C,WPA+AES-CCM WPA+PSK,32.488181,-92.161019
sunnygirl546-2.4,9C:34:26:72:3B:36,WPA+AES-CCM WPA+PSK,32.492108,-92.163564
Kwhjr,9C:34:26:7E:08:76,WPA+AES-CCM WPA+PSK,32.487217,-92.156558
Peanut,9C:34:26:87:E9:AE,WPA+AES-CCM WPA+PSK,32.488428,-92.162247
NETGEAR51,9C:3D:CF:00:AE:B9,WPA+AES-CCM WPA+PSK,32.488843,-92.144012
Monster Hunter_2GEXT,9C:3D:CF:44:2D:0F,WPA+AES-CCM WPA+PSK WPA+TKIP,32.491950,-92.174271
NETGEAR98,9C:3D:CF:73:EB:C4,WPA+AES-CCM WPA+PSK,32.493996,-92.177417
ASUS,9C:5C:8E:B6:6F:F8,WPA+AES-CCM WPA+PSK,32.485599,-92.159014
NVR9ca3a932380e,9C:A3:A9:32:38:0E,WPA+AES-CCM WPA+PSK,32.497396,-92.126700
SETUP,9E:2B:77:8E:45:C7,None,32.487026,-92.153235
None,9E:34:26:27:E5:2C,WPA+AES-CCM WPA+PSK WPA+TKIP,32.488605,-92.167787
None,9E:34:26:3A:4E:D8,WPA+AES-CCM WPA+PSK WPA+TKIP,32.485256,-92.161461
None,9E:34:26:7E:08:76,WPA+AES-CCM WPA+PSK WPA+TKIP,32.487185,-92.156572
None,9E:34:26:87:E9:AE,WPA+AES-CCM WPA+PSK WPA+TKIP,32.488428,-92.162285
xfinitywifi,9E:61:A3:6D:4B:1B,None,32.488468,-92.165846
xfinitywifi,9E:61:A3:74:E6:D5,None,32.488403,-92.161859
xfinitywifi,9E:61:A3:79:E0:0D,None,32.492999,-92.163320
xfinitywifi,9E:61:A3:8D:02:EA,None,32.488426,-92.162210
xfinitywifi,9E:61:A3:8F:84:58,None,32.491459,-92.133171
xfinitywifi,9E:61:A3:8F:95:B5,None,32.495365,-92.179989
xfinitywifi,9E:61:A3:92:D3:4E,None,32.493802,-92.177189
xfinitywifi,9E:61:A3:93:EA:AD,None,32.491924,-92.174103
None,9E:8F:E0:18:CD:D0,WPA+AES-CCM WPA+TKIP,32.492446,-92.163311
None,9E:8F:E0:61:B5:7E,WPA+AES-CCM WPA+TKIP,,
None,9E:8F:E0:6D:13:00,WPA+AES-CCM WPA+TKIP,32.491557,-92.125632
None,9E:8F:E0:6F:1E:40,WPA+AES-CCM WPA+TKIP,32.488445,-92.163528
None,9E:8F:E0:A5:BE:CC,WPA+AES-CCM WPA+TKIP,32.492457,-92.167086
None,9E:8F:E0:B5:2B:B4,WPA+AES-CCM WPA+TKIP,32.488590,-92.167866
None,9E:8F:E0:B6:DC:20,WPA+AES-CCM WPA+TKIP,32.492670,-92.163567
None,9E:8F:E0:BB:D0:9A,WPA+AES-CCM WPA+TKIP,32.487130,-92.155785
None,9E:8F:E0:BB:DB:EE,WPA+AES-CCM WPA+TKIP,32.495263,-92.179315
None,9E:AD:43:B1:1C:A0,WPA+AES-CCM WPA+TKIP,32.498773,-92.128293
None,9E:AD:43:B7:BB:00,WPA+AES-CCM WPA+TKIP,32.488790,-92.167238
None,9E:AD:43:E4:7B:C8,WPA+AES-CCM WPA+TKIP,32.487142,-92.158266
None,9E:AD:43:E4:85:F8,WPA+AES-CCM WPA+TKIP,32.488510,-92.167759
DIRECT-D3F5B78C,9E:AE:D3:F5:37:8C,WPA+AES-CCM WPA+PSK,32.485006,-92.159225
None,9E:B0:66:34:00:5F,WPA+AES-CCM WPA+TKIP,32.495222,-92.124843
None,9E:B0:66:34:9C:48,WPA+AES-CCM WPA+TKIP,32.494129,-92.177574
None,9E:B0:66:34:B9:67,WPA+AES-CCM WPA+TKIP,32.491915,-92.171399
None,9E:B0:66:34:C3:41,WPA+AES-CCM WPA+TKIP,32.492644,-92.163263
None,9E:B0:66:38:3F:67,WPA+AES-CCM WPA+TKIP,32.488046,-92.160553
None,9E:B0:66:48:27:2D,WPA+AES-CCM WPA+TKIP,32.486869,-92.158607
None,9E:B0:66:E7:E9:D6,WPA+AES-CCM WPA+TKIP,32.488485,-92.166862
None,9E:E3:0E:4D:F6:7D,WPA+AES-CCM WPA+TKIP,32.489489,-92.143353
None,9E:E3:0E:B5:6E:7A,WPA+AES-CCM WPA+TKIP,,
None,9E:E3:0E:B9:4C:D9,WPA+AES-CCM WPA+TKIP,32.488457,-92.164223
None,9E:E3:0E:DA:F5:B8,WPA+AES-CCM WPA+TKIP,32.488442,-92.163036
NETGEAR88_2GEXT,A0:04:60:09:B9:8C,WPA+AES-CCM WPA+PSK,,
NETGEAR27,A0:04:60:3E:CD:42,WPA+AES-CCM WPA+PSK,32.497105,-92.126480
NTGR_VMB_1535651515,A0:04:60:E2:EA:82,WPA+AES-CCM WPA+PSK,,
GPI_Guest,A0:3D:6F:4D:B8:C1,WPA+AES-CCM WPA+PSK,32.486557,-92.148147
GPI-Secure,A0:3D:6F:4D:B8:C2,WPA+AES-CCM,32.486557,-92.148147
GPI,A0:3D:6F:64:8C:A0,WPA+AES-CCM WPA+PSK,32.486759,-92.149231
GPI_Guest,A0:3D:6F:64:8C:A1,WPA+AES-CCM WPA+PSK,32.486759,-92.149231
GPI-Equipment,A0:3D:6F:64:8C:A3,WPA+AES-CCM WPA+PSK,32.486759,-92.149231
LILO,A0:40:A0:39:7A:0B,WPA+AES-CCM WPA+PSK,32.492855,-92.163261
NETGEAR27,A0:40:A0:3E:56:3B,WPA+AES-CCM WPA+PSK,32.486908,-92.140321
NETGEAR96,A0:40:A0:93:69:5E,WPA+AES-CCM WPA+PSK,32.495228,-92.179427
NETGEAR39,A0:40:A0:AA:2E:C8,WPA+AES-CCM WPA+PSK,32.487937,-92.159833
The Fun House,A0:63:91:14:1F:14,WPA+AES-CCM WPA+PSK,32.488301,-92.160838
NETGEAR02,A0:63:91:88:7E:A4,WPA+AES-CCM WPA+PSK,,
NETGEAR04,A0:63:91:AA:79:ED,WPA+AES-CCM WPA+PSK,32.488446,-92.163501
Cloyds,A0:63:91:C7:F6:D8,WPA+AES-CCM WPA+PSK,32.498848,-92.128570
None,A2:0F:6F:0B:6B:F0,WPA+AES-CCM WPA+TKIP,32.485184,-92.160984
None,A2:0F:6F:1B:14:E0,WPA+AES-CCM WPA+TKIP,32.495392,-92.180557
None,A2:0F:6F:38:74:A8,WPA+AES-CCM WPA+TKIP,32.490613,-92.134503
None,A2:0F:6F:AD:64:18,WPA+AES-CCM WPA+TKIP,32.491916,-92.171630
None,A2:0F:6F:B2:68:C8,WPA+AES-CCM WPA+TKIP,32.487434,-92.160811
None,A2:0F:6F:CD:C6:08,WPA+AES-CCM WPA+TKIP,32.492111,-92.174167
None,A2:0F:6F:CF:D4:18,WPA+AES-CCM WPA+TKIP,32.492030,-92.124936
None,A2:0F:6F:D4:34:C8,WPA+AES-CCM WPA+TKIP,32.493112,-92.165797
Playboy_EXT,A4:2B:8C:17:CC:18,WPA+AES-CCM WPA+PSK WPA+TKIP,32.496658,-92.126127
None,A6:93:5B:C1:C3:A1,WPA+AES-CCM WPA+PSK,32.492351,-92.126617
Harris Household,A8:9F:EC:0B:90:EB,WPA+AES-CCM WPA+PSK,32.499441,-92.129764
NSA Surveillance,A8:9F:EC:1E:1C:0F,WPA+AES-CCM WPA+PSK,32.485698,-92.159750
Valerie-n-Herman,A8:9F:EC:2E:1E:A4,WPA+AES-CCM WPA+PSK,32.484993,-92.159241
Jessie,A8:9F:EC:5F:50:AB,WPA+AES-CCM WPA+PSK,32.487523,-92.141383
gabby24,A8:9F:EC:5F:83:AB,WPA+AES-CCM WPA+PSK,32.488453,-92.163944
OPSB-AD,A8:BD:27:B7:08:A2,WPA+AES-CCM,32.491735,-92.126034
OPSB-ARUBA,A8:BD:27:B7:08:A3,WPA+AES-CCM WPA+PSK WPA+TKIP,32.491716,-92.126021
OPSB-ARUBA-GUEST,A8:BD:27:B7:08:A4,None,32.491669,-92.125974
OPSB-CO,A8:BD:27:B7:08:A5,WPA+AES-CCM,32.491893,-92.126186
OPSB-SSS,A8:BD:27:B7:08:A6,WPA+AES-CCM WPA+PSK WPA+TKIP,32.491736,-92.126038
OPSB-AD,A8:BD:27:B7:41:E2,WPA+AES-CCM,32.499167,-92.128118
OPSB-ARUBA,A8:BD:27:B7:41:E3,WPA+AES-CCM WPA+PSK WPA+TKIP,32.499172,-92.128124
OPSB-ARUBA-GUEST,A8:BD:27:B7:41:E4,None,32.499129,-92.128265
OPSB-CO,A8:BD:27:B7:41:E5,WPA+AES-CCM,32.499129,-92.128265
OPSB-SSS,A8:BD:27:B7:41:E6,WPA+AES-CCM WPA+PSK WPA+TKIP,32.499172,-92.128124
OPSB-AD,A8:BD:27:B7:66:82,WPA+AES-CCM,32.498841,-92.129069
OPSB-ARUBA,A8:BD:27:B7:66:83,WPA+AES-CCM WPA+PSK WPA+TKIP,32.498787,-92.129234
OPSB-ARUBA-GUEST,A8:BD:27:B7:66:84,None,32.499163,-92.129336
OPSB-CO,A8:BD:27:B7:66:85,WPA+AES-CCM,32.498865,-92.129051
OPSB-SSS,A8:BD:27:B7:66:86,WPA+AES-CCM WPA+PSK WPA+TKIP,32.498869,-92.128986
OPSB-AD,A8:BD:27:B9:8D:A2,WPA+AES-CCM,32.491562,-92.125916
OPSB-ARUBA,A8:BD:27:B9:8D:A3,WPA+AES-CCM WPA+PSK WPA+TKIP,32.491562,-92.125916
OPSB-CO,A8:BD:27:B9:8D:A5,WPA+AES-CCM,32.491562,-92.125916
OPSB-SSS,A8:BD:27:B9:8D:A6,WPA+AES-CCM WPA+PSK WPA+TKIP,32.491562,-92.125916
OPSB-CO,A8:BD:27:B9:8F:A5,WPA+AES-CCM,32.492222,-92.124557
OPSB-SSS,A8:BD:27:B9:8F:A6,WPA+AES-CCM WPA+PSK WPA+TKIP,32.492222,-92.124557
OPSB-AD,A8:BD:27:B9:90:42,WPA+AES-CCM,32.492493,-92.126739
OPSB-AD,A8:BD:27:B9:90:82,WPA+AES-CCM,32.491769,-92.125502
OPSB-ARUBA,A8:BD:27:B9:90:83,WPA+AES-CCM WPA+PSK WPA+TKIP,32.491824,-92.125478
OPSB-ARUBA-GUEST,A8:BD:27:B9:90:84,None,32.491857,-92.125410
OPSB-CO,A8:BD:27:B9:90:85,WPA+AES-CCM,32.491823,-92.125438
OPSB-SSS,A8:BD:27:B9:90:86,WPA+AES-CCM WPA+PSK WPA+TKIP,32.491858,-92.125380
OPSB-AD,A8:BD:27:B9:90:A2,WPA+AES-CCM,32.492351,-92.126617
OPSB-ARUBA,A8:BD:27:B9:90:A3,WPA+AES-CCM WPA+PSK WPA+TKIP,32.492351,-92.126617
OPSB-ARUBA-GUEST,A8:BD:27:B9:90:A4,None,32.492121,-92.126411
OPSB-CO,A8:BD:27:B9:90:A5,WPA+AES-CCM,32.492222,-92.126500
OPSB-SSS,A8:BD:27:B9:90:A6,WPA+AES-CCM WPA+PSK WPA+TKIP,32.492388,-92.126648
OPSB-AD,A8:BD:27:B9:95:02,WPA+AES-CCM,32.491630,-92.125656
OPSB-ARUBA,A8:BD:27:B9:95:03,WPA+AES-CCM WPA+PSK WPA+TKIP,32.491562,-92.125916
OPSB-ARUBA-GUEST,A8:BD:27:B9:95:04,None,32.491562,-92.125916
OPSB-CO,A8:BD:27:B9:95:05,WPA+AES-CCM,32.491630,-92.125656
OPSB-SSS,A8:BD:27:B9:95:06,WPA+AES-CCM WPA+PSK WPA+TKIP,32.491562,-92.125916
OPSB-ARUBA-GUEST,A8:BD:27:B9:9E:84,None,32.491947,-92.124992
OPSB-AD,A8:BD:27:B9:9E:A2,WPA+AES-CCM,32.492088,-92.124779
OPSB-ARUBA,A8:BD:27:B9:9E:A3,WPA+AES-CCM WPA+PSK WPA+TKIP,32.492088,-92.124779
OPSB-ARUBA-GUEST,A8:BD:27:B9:9E:A4,None,32.492088,-92.124779
OPSB-CO,A8:BD:27:B9:9E:A5,WPA+AES-CCM,32.492088,-92.124779
OPSB-SSS,A8:BD:27:B9:9E:A6,WPA+AES-CCM WPA+PSK WPA+TKIP,32.492088,-92.124779
OPSB-AD,A8:BD:27:B9:9E:C2,WPA+AES-CCM,32.492205,-92.124592
OPSB-ARUBA,A8:BD:27:B9:9E:C3,WPA+AES-CCM WPA+PSK WPA+TKIP,32.492205,-92.124592
OPSB-ARUBA-GUEST,A8:BD:27:B9:9E:C4,None,32.492205,-92.124592
OPSB-CO,A8:BD:27:B9:9E:C5,WPA+AES-CCM,32.492088,-92.124779
OPSB-SSS,A8:BD:27:B9:9E:C6,WPA+AES-CCM WPA+PSK WPA+TKIP,32.492205,-92.124592
OPSB-AD,A8:BD:27:B9:9F:C2,WPA+AES-CCM,32.492582,-92.123993
OPSB-ARUBA-GUEST,A8:BD:27:B9:9F:C4,None,32.492596,-92.123970
OPSB-CO,A8:BD:27:B9:9F:C5,WPA+AES-CCM,32.492596,-92.123970
OPSB-SSS,A8:BD:27:B9:9F:C6,WPA+AES-CCM WPA+PSK WPA+TKIP,32.492596,-92.123970
OPSB-AD,A8:BD:27:B9:A0:E2,WPA+AES-CCM,32.492466,-92.124175
OPSB-ARUBA,A8:BD:27:B9:A0:E3,WPA+AES-CCM WPA+PSK WPA+TKIP,32.492596,-92.124129
OPSB-ARUBA-GUEST,A8:BD:27:B9:A0:E4,None,32.492724,-92.124109
OPSB-CO,A8:BD:27:B9:A0:E5,WPA+AES-CCM,32.492682,-92.124151
OPSB-SSS,A8:BD:27:B9:A0:E6,WPA+AES-CCM WPA+PSK WPA+TKIP,32.492737,-92.124087
OPSB-AD,A8:BD:27:BA:9B:A2,WPA+AES-CCM,32.492756,-92.126968
OPSB-ARUBA,A8:BD:27:BA:9B:A3,WPA+AES-CCM WPA+PSK WPA+TKIP,32.492621,-92.126851
OPSB-ARUBA-GUEST,A8:BD:27:BA:9B:A4,None,32.492645,-92.126872
OPSB-CO,A8:BD:27:BA:9B:A5,WPA+AES-CCM,32.492572,-92.126808
OPSB-SSS,A8:BD:27:BA:9B:A6,WPA+AES-CCM WPA+PSK WPA+TKIP,32.492756,-92.126968
OPSB-AD,A8:BD:27:BA:9E:42,WPA+AES-CCM,32.491831,-92.126152
OPSB-ARUBA,A8:BD:27:BA:9E:43,WPA+AES-CCM WPA+PSK WPA+TKIP,32.491831,-92.126152
OPSB-ARUBA-GUEST,A8:BD:27:BA:9E:44,None,32.492046,-92.126343
OPSB-CO,A8:BD:27:BA:9E:45,WPA+AES-CCM,32.491788,-92.126114
OPSB-SSS,A8:BD:27:BA:9E:46,WPA+AES-CCM WPA+PSK WPA+TKIP,32.491903,-92.126216
DIRECT-4f-HP M426 LaserJet,AA:6B:AD:2F:E0:4F,WPA+AES-CCM WPA+PSK,32.486744,-92.147312
DIRECT-1b-HP M426 LaserJet,AA:6B:AD:91:AC:1B,WPA+AES-CCM WPA+PSK,32.486636,-92.147617
ChildrenView,AA:8A:20:5D:1A:31,WPA+AES-CCM WPA+PSK,32.499577,-92.129890
xfinitywifi,AA:93:5B:17:05:6B,None,32.491689,-92.125432
xfinitywifi,AA:93:5B:19:08:8C,None,32.485323,-92.158972
ATT983,AC:5D:10:B3:B2:7A,WPA+AES-CCM WPA+PSK WPA+TKIP,32.488481,-92.166477
MOTOROLA-4031E,AC:81:12:CE:97:70,WPA+AES-CCM WPA+PSK,32.488457,-92.164329
PS4-45046D3216BB,AC:89:95:51:70:A7,WPA+AES-CCM WPA+PSK,32.488432,-92.162559
PS4-C2F3F4443F59,AC:89:95:54:64:D5,WPA+AES-CCM WPA+PSK,32.485317,-92.161453
PS4-DE508A2B7C34,AC:89:95:74:A9:F5,WPA+AES-CCM WPA+PSK,32.488450,-92.163723
DIRECT-38-HP ENVY 4510 series,AC:E2:D3:A2:2B:3A,WPA+AES-CCM WPA+PSK,32.493302,-92.130058
xfinitywifi,AE:34:26:19:4E:04,None,32.489342,-92.143677
xfinitywifi,AE:34:26:1A:E8:E0,None,32.487979,-92.141830
xfinitywifi,AE:34:26:1C:0A:86,None,32.491895,-92.164750
xfinitywifi,AE:34:26:27:E5:2C,None,32.488579,-92.167869
xfinitywifi,AE:34:26:2C:CD:62,None,32.488455,-92.164099
xfinitywifi,AE:34:26:2E:84:FE,None,32.493400,-92.130055
xfinitywifi,AE:34:26:2E:AB:F0,None,32.493107,-92.165443
xfinitywifi,AE:34:26:30:1A:BC,None,32.492371,-92.163335
xfinitywifi,AE:34:26:37:5E:A8,None,32.492128,-92.163345
xfinitywifi,AE:34:26:6A:3B:0C,None,32.488295,-92.160661
xfinitywifi,AE:34:26:72:3B:36,None,32.491985,-92.163345
xfinitywifi,AE:34:26:87:E9:AE,None,32.488427,-92.162197
xfinitywifi,AE:34:26:8F:B2:CE,None,,
None,AE:61:A3:6D:4B:1B,WPA+AES-CCM WPA+PSK WPA+TKIP,32.488460,-92.164839
None,AE:61:A3:74:E6:D5,WPA+AES-CCM WPA+PSK WPA+TKIP,32.488432,-92.162484
None,AE:61:A3:8D:02:EA,WPA+AES-CCM WPA+PSK WPA+TKIP,32.488428,-92.162322
None,AE:61:A3:8F:84:58,WPA+AES-CCM WPA+PSK WPA+TKIP,32.491380,-92.133295
None,AE:61:A3:8F:95:B5,WPA+AES-CCM WPA+PSK WPA+TKIP,32.495275,-92.179445
None,AE:61:A3:92:D3:4E,WPA+AES-CCM WPA+PSK WPA+TKIP,32.493302,-92.176597
None,AE:61:A3:93:EA:AD,WPA+AES-CCM WPA+PSK WPA+TKIP,32.491924,-92.174103
None,AE:61:A3:A1:0B:5D,WPA+AES-CCM WPA+PSK WPA+TKIP,32.493788,-92.123672
None,AE:63:BE:5F:64:10,WPA+AES-CCM WPA+PSK,32.493237,-92.123335
None,AE:63:BE:D6:49:BF,WPA+AES-CCM WPA+PSK,32.486481,-92.158768
None,AE:8F:E0:B6:DC:20,WPA+AES-CCM WPA+PSK WPA+TKIP,32.492573,-92.163508
None,AE:93:5B:17:05:6B,WPA+AES-CCM WPA+PSK,32.491505,-92.125702
None,AE:93:5B:19:08:8C,WPA+AES-CCM WPA+PSK,32.485485,-92.158913
DIRECT-99-HP ENVY Photo 7800,AE:E2:D3:84:2E:99,WPA+AES-CCM WPA+PSK,32.488433,-92.162630
None,AE:E3:0E:C4:D0:90,WPA+AES-CCM WPA+PSK WPA+TKIP,32.488468,-92.165657
DIRECT-8E-HP OfficeJet Pro 6970,B0:0C:D1:02:58:8F,WPA+AES-CCM WPA+PSK,32.492620,-92.127536
NETGEAR06,B0:39:56:65:68:9B,WPA+AES-CCM WPA+PSK,32.492694,-92.164519
Don'tthinkaboutit_2GEXT,B0:39:56:AB:00:1A,WPA+AES-CCM WPA+PSK,32.494434,-92.124153
CBCI-6260-2.4_2GEXT,B0:39:56:AD:1A:2E,WPA+AES-CCM WPA+PSK,32.487118,-92.157247
FW_Mission_House_Guest,B0:39:56:E0:69:53,WPA+AES-CCM WPA+PSK,32.499728,-92.129938
OO Netgear,B0:39:56:EE:E3:83,WPA+AES-CCM WPA+PSK,32.486694,-92.148991
HP-Print-AF-Officejet Pro 8610,B0:5A:DA:89:E0:AF,WPA+AES-CCM WPA+PSK,32.492991,-92.164309
HP-Print-03-Officejet Pro 8610,B0:5A:DA:8B:EF:03,None,32.493346,-92.124226
NETGEAR27,B0:7F:B9:01:1B:13,WPA+AES-CCM WPA+PSK,32.492998,-92.163952
Deron,B0:93:5B:17:05:6B,WPA+AES-CCM WPA+PSK,32.491489,-92.125759
Oxner701127,B0:93:5B:19:08:8C,WPA+AES-CCM WPA+PSK,32.485491,-92.158919
Kelly,B0:93:5B:BC:97:81,WPA+AES-CCM WPA+PSK,32.499559,-92.129823
Home,B0:93:5B:C1:C3:A1,WPA+AES-CCM WPA+PSK,32.492351,-92.126617
Kaleigh,B0:93:5B:C6:82:31,WPA+AES-CCM WPA+PSK,32.488434,-92.162727
DIRECT-roku-845,B0:A7:37:02:CE:9F,WPA+AES-CCM WPA+PSK,32.492722,-92.123764
NETGEAR41,B0:B9:8A:00:5F:AB,WPA+AES-CCM WPA+PSK,32.492782,-92.175980
ATT2276,B0:B9:8A:1B:34:32,WPA+AES-CCM WPA+PSK,32.487131,-92.155707
Blossom,B0:B9:8A:1B:82:4A,WPA+AES-CCM WPA+PSK WPA+TKIP,32.491924,-92.173965
ATT1112,B0:B9:8A:1F:7B:8A,WPA+AES-CCM WPA+PSK,32.488459,-92.164406
ATT7045,B0:B9:8A:1F:C1:11,WEP,32.488422,-92.162149
ATT5293,B0:B9:8A:20:29:39,WPA+AES-CCM WPA+PSK,32.493904,-92.177311
Jackie,B0:B9:8A:20:30:44,WPA+AES-CCM WPA+PSK,32.488437,-92.162922
NETGEAR22,B0:B9:8A:40:0B:A3,WPA+AES-CCM WPA+PSK,32.492478,-92.163342
royale1979,B0:BE:76:CC:44:39,WPA+AES-CCM WPA+PSK WPA+TKIP,32.485066,-92.160520
None,B0:EE:7B:CB:A1:97,WPA+AES-CCM WPA+PSK,32.494534,-92.178056
None,B2:4F:B8:68:46:AF,WPA+AES-CCM WPA+TKIP,32.488445,-92.163593
None,B2:4F:B8:6D:4E:09,WPA+AES-CCM WPA+TKIP,32.493816,-92.123596
None,B2:4F:B8:6D:90:8A,WPA+AES-CCM WPA+TKIP,32.493115,-92.166434
None,B2:4F:B8:9A:25:0A,WPA+AES-CCM WPA+TKIP,32.491101,-92.133731
None,B2:CA:B5:C9:0C:F0,WPA+AES-CCM WPA+PSK,32.484978,-92.161095
None,B2:FC:0D:B3:99:6C,WPA+AES-CCM WPA+PSK,32.495213,-92.179001
None,B2:FC:0D:DD:8A:FA,WPA+AES-CCM WPA+PSK,32.493167,-92.128386
None,B2:FC:0D:E7:37:2F,WPA+AES-CCM WPA+PSK,32.488453,-92.142303
5c7e4a49787eb17eb642f37e34d44cd2,B4:A5:EF:E1:F6:97,WPA+AES-CCM WPA+PSK,32.495297,-92.124906
05edd9d948e7b3ebd732c4eefb7ca02f,B4:A5:EF:E2:82:4D,WPA+AES-CCM WPA+PSK,32.488491,-92.167042
DIRECT-C3-HP OfficeJet Pro 6960,B4:B6:86:41:B3:C4,WPA+AES-CCM WPA+PSK,32.492397,-92.163516
baby girl,B4:F7:A1:73:47:9A,WPA+AES-CCM WPA+PSK WPA+TKIP,,
None,B6:7C:9C:04:36:33,WPA+AES-CCM WPA+PSK,32.493098,-92.164457
None,B6:7C:9C:43:B1:08,WPA+AES-CCM WPA+PSK,32.488516,-92.168037
None,B6:7C:9C:8D:FF:CE,WPA+AES-CCM WPA+PSK,32.493436,-92.129981
None,B6:7C:9C:D3:28:CB,WPA+AES-CCM WPA+PSK,32.491903,-92.169225
None,B6:7C:9C:EF:27:93,WPA+AES-CCM WPA+PSK,32.492321,-92.124405
None,B6:93:5B:17:05:6B,WPA+AES-CCM,32.491505,-92.125702
None,B6:93:5B:19:08:8C,WPA+AES-CCM,32.485630,-92.158907
DIRECT-D8-HP OfficeJet 5200,B6:B6:86:97:1C:D8,WPA+AES-CCM WPA+PSK,32.488230,-92.138227
DIRECT-15-HP OfficeJet 5200,B6:B6:86:9A:55:15,WPA+AES-CCM WPA+PSK,32.498996,-92.129317
ATT200,B8:16:19:51:23:80,WPA+AES-CCM WPA+PSK WPA+TKIP,32.494782,-92.124457
ATT712,B8:16:19:7D:BB:90,WPA+AES-CCM WPA+PSK WPA+TKIP,,
ATT192,B8:16:19:88:44:C0,WPA+AES-CCM WPA+PSK WPA+TKIP,32.495406,-92.125005
DIRECT-roku-D34266,B8:3E:59:BE:35:35,WPA+AES-CCM WPA+PSK,32.492622,-92.175797
DIRECT-roku-6FC133,B8:3E:59:E2:CC:C5,WPA+AES-CCM WPA+PSK,32.488470,-92.165768
None,B8:86:87:B3:8B:5D,WPA+AES-CCM WPA+PSK,32.484998,-92.159710
Moose Haus,B8:8D:12:64:D0:0F,WPA+AES-CCM WPA+PSK,32.487566,-92.139279
HOME-0738,B8:9B:C9:70:07:38,WPA+AES-CCM WPA+PSK WPA+TKIP,32.486973,-92.152519
None,B8:A1:75:4A:16:7F,WPA+AES-CCM WPA+PSK,32.494818,-92.178402
None,BA:23:AE:87:19:24,WPA+AES-CCM WPA+TKIP,32.492742,-92.175748
xfinitywifi,BA:9F:EC:0B:90:EB,None,32.499310,-92.129677
xfinitywifi,BA:9F:EC:1E:1C:0F,None,32.485534,-92.159488
xfinitywifi,BA:9F:EC:2E:1E:A4,None,32.485192,-92.160086
xfinitywifi,BA:9F:EC:5F:83:AB,None,32.488462,-92.165023
Getyourownwifi,BC:2E:48:99:08:A3,WPA+AES-CCM WPA+PSK,32.499028,-92.129171
ATT94wfrqs,BC:2E:48:BA:C6:70,WPA+AES-CCM WPA+PSK,32.499326,-92.129675
ATT4458,BC:2E:48:BA:DB:30,WPA+AES-CCM WPA+PSK WPA+TKIP,32.492264,-92.131888
HOME-18BC-2.4,BC:2E:48:E8:CC:90,WPA+AES-CCM WPA+PSK WPA+TKIP,32.492346,-92.126717
Mclaurin,BC:64:4B:14:A4:CD,WPA+AES-CCM WPA+PSK WPA+TKIP,32.493084,-92.166766
Armstrong,BC:64:4B:14:C4:49,WPA+AES-CCM WPA+PSK WPA+TKIP,32.488483,-92.166885
Cooper's,BC:64:4B:33:13:25,WPA+AES-CCM WPA+PSK,32.491820,-92.125331
Xfin-35AF,BC:64:4B:36:E7:9B,WPA+AES-CCM WPA+PSK WPA+TKIP,32.491708,-92.167321
cooper2013,BC:82:5D:AD:9C:78,WPA+AES-CCM WPA+PSK WPA+TKIP,,
Dago,BC:9B:68:12:2B:AD,WPA+AES-CCM WPA+PSK,32.487469,-92.160805
None,BC:9B:68:12:2B:B0,WPA+AES-CCM WPA+PSK,32.488121,-92.160522
None,BC:9B:68:12:2B:B2,WPA+AES-CCM,32.487692,-92.160709
royale1979,BC:9B:68:35:7D:47,WPA+AES-CCM WPA+PSK,32.485060,-92.160511
xfinitywifi,BC:9B:68:35:7D:49,None,32.484962,-92.161293
None,BC:9B:68:35:7D:4A,WPA+AES-CCM WPA+PSK,32.485126,-92.161065
None,BC:9B:68:35:7D:4C,WPA+AES-CCM,32.485041,-92.160739
HOME-0CF2,BC:CA:B5:C9:0C:F0,WPA+AES-CCM WPA+PSK WPA+TKIP,32.484983,-92.160648
Mckenzie,BC:EE:7B:7C:54:18,None,32.487125,-92.156214
Verizon Z839 CCBA,BC:FF:EB:18:29:B0,WPA+AES-CCM WPA+PSK,,
None,BE:2E:48:99:08:A3,WPA+AES-CCM WPA+PSK WPA+TKIP,32.499006,-92.129009
None,BE:34:26:1A:E8:E0,WPA+AES-CCM WPA+PSK WPA+TKIP,32.487979,-92.141830
None,BE:34:26:1C:0A:86,WPA+AES-CCM WPA+PSK WPA+TKIP,32.492119,-92.164652
None,BE:34:26:27:E5:2C,WPA+AES-CCM WPA+PSK WPA+TKIP,32.488589,-92.168048
None,BE:34:26:2C:CD:62,WPA+AES-CCM WPA+PSK WPA+TKIP,32.488442,-92.163307
None,BE:34:26:2E:84:FE,WPA+AES-CCM WPA+PSK WPA+TKIP,32.493406,-92.130065
None,BE:34:26:2E:AB:F0,WPA+AES-CCM WPA+PSK WPA+TKIP,32.493107,-92.165584
None,BE:34:26:30:1A:BC,WPA+AES-CCM WPA+PSK WPA+TKIP,32.492337,-92.163326
None,BE:34:26:30:2D:F4,WPA+AES-CCM WPA+PSK WPA+TKIP,32.488934,-92.168121
None,BE:34:26:37:5E:A8,WPA+AES-CCM WPA+PSK WPA+TKIP,32.492196,-92.163316
None,BE:34:26:6A:3B:0C,WPA+AES-CCM WPA+PSK WPA+TKIP,32.488118,-92.161358
None,BE:34:26:72:3B:36,WPA+AES-CCM WPA+PSK WPA+TKIP,32.492127,-92.163487
None,BE:34:26:7E:08:76,WPA+AES-CCM WPA+PSK WPA+TKIP,32.487122,-92.156248
None,BE:34:26:87:E9:AE,WPA+AES-CCM WPA+PSK WPA+TKIP,32.488426,-92.162153
None,BE:34:26:8F:B2:CE,WPA+AES-CCM WPA+PSK WPA+TKIP,,
Linksys15057,C0:56:27:70:82:C6,WPA+AES-CCM WPA+PSK,32.498787,-92.129234
FMS,C0:56:27:71:F0:4C,WPA+AES-CCM WPA+PSK WPA+TKIP,,
Lewis,C0:7C:D1:26:93:08,WPA+AES-CCM WPA+PSK,32.500517,-92.130634
franceshearn,C0:7C:D1:29:C6:58,WPA+AES-CCM WPA+PSK,32.488441,-92.162912
Ivory1,C0:7C:D1:54:0C:A8,WPA+AES-CCM WPA+PSK WPA+TKIP,32.491959,-92.172870
CBCI-2071-2.4,C0:7C:D1:54:40:B8,WPA+AES-CCM WPA+PSK WPA+TKIP,32.485485,-92.158913
HOME-533D-2.4,C0:7C:D1:9D:AE:38,WPA+AES-CCM WPA+PSK WPA+TKIP,32.492210,-92.131973
Queenie,C0:A0:0D:12:F8:94,WPA+AES-CCM WPA+PSK,32.488118,-92.160567
Dorianandmandy,C0:A0:0D:13:0E:72,WPA+AES-CCM WPA+PSK,,
Dont Ask Bitch,C0:A0:0D:17:8D:DA,WPA+AES-CCM WPA+PSK,32.493386,-92.123335
Burns Wifi,C0:A0:0D:1B:70:69,WPA+AES-CCM WPA+PSK,32.492714,-92.127891
cloudrealtydlink,C0:A0:BB:EC:52:11,WPA+AES-CCM WPA+PSK WPA+TKIP,,
October Sky,C0:C1:C0:D5:E0:4F,WPA+AES-CCM WPA+PSK WPA+TKIP,32.493580,-92.123390
ATT2177,C0:FF:D4:FC:79:8D,WPA+AES-CCM WPA+PSK,32.491367,-92.167819
xfinitywifi,C2:93:5B:C6:82:31,None,32.488430,-92.162397
None,C2:A4:62:A5:51:40,WPA+AES-CCM WPA+PSK,32.498368,-92.127461
None,C2:A4:62:F6:31:00,WPA+AES-CCM WPA+PSK,32.493039,-92.130680
None,C2:D2:F3:61:4E:EC,WPA+AES-CCM WPA+PSK,32.499408,-92.129681
DIRECT-roku-981-2E0166,C2:D2:F3:76:8B:84,WPA+AES-CCM WPA+PSK,32.498594,-92.127646
None,C2:D2:F3:76:8B:85,WPA+AES-CCM WPA+PSK,32.489948,-92.135559
mmms,C4:12:F5:76:CA:D6,WPA+AES-CCM WPA+PSK WPA+TKIP,32.492472,-92.163459
HOME-68C6,C4:27:95:50:68:C6,WPA+AES-CCM WPA+PSK WPA+TKIP,32.498870,-92.128650
99E4-O11T,C4:27:95:5D:4D:B6,WPA+AES-CCM WPA+PSK,32.488994,-92.168046
HOME-3B66,C4:27:95:60:3B:66,WPA+AES-CCM WPA+PSK WPA+TKIP,32.488493,-92.166781
HOME-4A68,C4:39:3A:B2:4A:68,WPA+AES-CCM WPA+PSK WPA+TKIP,32.491844,-92.166720
None,C4:39:3A:B2:4A:69,WPA+AES-CCM WPA+PSK,32.491774,-92.167148
None,C4:39:3A:B2:4A:6A,WPA+AES-CCM WPA+PSK WPA+TKIP,32.491701,-92.167332
None,C4:39:3A:B2:4A:6B,WPA+AES-CCM WPA+PSK WPA+TKIP,32.491909,-92.166870
taylortahoe,C4:49:BB:28:F8:AC,WPA+AES-CCM WPA+PSK WPA+TKIP,,
WiFi Hotspot 4854,C4:49:BB:46:00:42,WPA+AES-CCM WPA+PSK WPA+TKIP,32.491124,-92.148569
WiFi Hotspot 3532,C4:49:BB:62:43:88,WPA+AES-CCM WPA+PSK WPA+TKIP,32.497250,-92.126591
b burton,C4:49:BB:94:89:6F,WPA+AES-CCM WPA+PSK WPA+TKIP,32.492452,-92.126705
Joshs Truck,C4:49:BB:F0:AE:96,WPA+AES-CCM WPA+PSK WPA+TKIP,32.492561,-92.126801
None,C6:27:95:50:68:C7,WPA+AES-CCM WPA+PSK,32.498954,-92.128835
xfinitywifi,C6:27:95:50:68:C8,None,32.498941,-92.128747
None,C6:27:95:5D:4D:B7,WPA+AES-CCM WPA+PSK,32.489132,-92.168056
xfinitywifi,C6:27:95:5D:4D:B8,None,32.489869,-92.168015
xfinitywifi,C6:27:95:60:3B:68,None,32.488509,-92.167193
None,C6:7C:D1:26:93:08,WPA+AES-CCM WPA+PSK WPA+TKIP,32.500517,-92.130634
None,C6:7C:D1:29:C6:58,WPA+AES-CCM WPA+PSK WPA+TKIP,32.488438,-92.162749
xfinitywifi,C6:A4:62:85:E8:B0,None,32.491915,-92.165111
xfinitywifi,C6:A4:62:A5:51:40,None,32.498443,-92.127522
None,C6:AB:82:C6:04:30,WPA+AES-CCM WPA+PSK,32.497271,-92.126594
GPI-Secure,C8:00:84:84:F7:62,WPA+AES-CCM,32.486832,-92.150589
McDonalds Free WiFi,C8:B5:AD:B6:0F:20,None,,
eBOS,C8:B5:AD:B6:0F:23,None,,
MEWM,C8:BE:19:75:EB:AA,WPA+AES-CCM WPA+PSK WPA+TKIP,,
HP-Print-66-Deskjet 3520 series,C8:CB:B8:46:E3:66,None,,
DIRECT-DE-HP OfficeJet Pro 8720,C8:D3:FF:81:32:DF,WPA+AES-CCM WPA+PSK,,
DIRECT-8C-HP DeskJet 2600 series,C8:D9:D2:60:7E:8F,WPA+AES-CCM WPA+PSK,32.488581,-92.144201
DIRECT-8C-HP DeskJet 2600 series,C8:D9:D2:77:50:8D,WPA+AES-CCM WPA+PSK,32.485268,-92.161434
DIRECT-D4-HP ENVY 4520 series,C8:D9:D2:F3:CA:D5,WPA+AES-CCM WPA+PSK,32.488442,-92.163029
None,CA:3A:6B:59:37:45,WPA+AES-CCM WPA+PSK,32.486834,-92.140575
None,CA:3A:6B:5B:60:E2,WPA+AES-CCM WPA+PSK,32.493255,-92.123383
None,CA:3A:6B:5F:2F:2D,WPA+AES-CCM WPA+PSK,32.489948,-92.135559
None,CA:3A:6B:AA:6F:24,WPA+AES-CCM WPA+PSK,32.494723,-92.124406
None,CA:3A:6B:B0:79:E4,WPA+AES-CCM WPA+PSK,32.493097,-92.164210
None,CA:3A:6B:EF:55:49,WPA+AES-CCM WPA+PSK,32.498427,-92.127513
xfinitywifi,CA:7C:D1:26:93:08,None,,
xfinitywifi,CA:7C:D1:29:C6:58,None,32.488445,-92.163223
xfinitywifi,CA:7C:D1:9D:AE:38,None,32.492210,-92.131973
None,CA:9F:EC:04:FE:C2,WPA+AES-CCM WPA+PSK WPA+TKIP,32.493443,-92.129990
None,CA:9F:EC:0B:90:EB,WPA+AES-CCM WPA+PSK WPA+TKIP,32.499481,-92.129792
None,CA:9F:EC:1E:1C:0F,WPA+AES-CCM WPA+PSK WPA+TKIP,32.485346,-92.159664
None,CA:9F:EC:2E:1E:A4,WPA+AES-CCM WPA+PSK WPA+TKIP,32.484992,-92.159454
None,CA:9F:EC:5F:50:AB,WPA+AES-CCM WPA+PSK WPA+TKIP,32.487412,-92.141273
None,CA:9F:EC:5F:83:AB,WPA+AES-CCM WPA+PSK WPA+TKIP,32.488442,-92.163241
xfinitywifi,CA:AB:82:66:B0:DC,None,32.490352,-92.134919
xfinitywifi,CA:AB:82:AC:02:E6,None,32.486773,-92.161020
xfinitywifi,CA:AB:82:AC:21:F4,None,32.487236,-92.139843
xfinitywifi,CA:AB:82:AC:44:84,None,32.492097,-92.163362
xfinitywifi,CA:AB:82:C6:04:30,None,32.497231,-92.126567
xfinitywifi,CA:AB:82:C6:88:F7,None,,
xfinitywifi,CA:AB:82:CA:A3:8F,None,32.488544,-92.167564
HOME-C998,CC:03:FA:3C:C9:98,WPA+AES-CCM WPA+PSK WPA+TKIP,32.489490,-92.143401
HOME-66D0,CC:03:FA:43:66:D0,WPA+AES-CCM WPA+PSK WPA+TKIP,32.491898,-92.164787
HOME-8974,CC:03:FA:6A:89:74,WPA+AES-CCM WPA+PSK WPA+TKIP,32.494487,-92.124197
KNOX WIFI,CC:03:FA:6B:B1:7C,WPA+AES-CCM WPA+PSK WPA+TKIP,32.488494,-92.167313
HOME-26DC,CC:03:FA:84:26:DC,WPA+AES-CCM WPA+PSK WPA+TKIP,32.490282,-92.167978
HOME-87EA,CC:03:FA:C4:87:EA,WPA+AES-CCM WPA+PSK WPA+TKIP,32.487030,-92.153229
HOME-A3E9,CC:35:40:53:A3:E9,WPA+AES-CCM WPA+PSK WPA+TKIP,32.492989,-92.129761
HOME-B1F7,CC:35:40:A5:B1:F7,WPA+AES-CCM WPA+PSK WPA+TKIP,32.493098,-92.176358
HOME-861F,CC:35:40:A8:86:1F,WPA+AES-CCM WPA+PSK WPA+TKIP,32.492396,-92.126660
HOME-388F,CC:35:40:AC:38:8F,WPA+AES-CCM WPA+PSK WPA+TKIP,32.488443,-92.163223
HOME-B6C7,CC:35:40:B7:B6:C7,WPA+AES-CCM WPA+PSK WPA+TKIP,32.499811,-92.130078
BEARCAVE,CC:40:D0:76:95:04,WPA+AES-CCM WPA+PSK,32.487915,-92.141771
virginia1922,CC:40:D0:C1:27:63,WPA+AES-CCM WPA+PSK,32.488491,-92.166817
ATT336,CC:65:AD:29:5C:F0,WPA+AES-CCM WPA+PSK WPA+TKIP,32.499215,-92.129437
ATT624,CC:65:AD:29:8C:F0,WPA+AES-CCM WPA+PSK WPA+TKIP,32.496847,-92.126266
ATT616,CC:65:AD:45:2F:20,WEP,32.490104,-92.135311
HOME-E8B2,CC:A4:62:85:E8:B0,WPA+AES-CCM WPA+PSK WPA+TKIP,32.491979,-92.164066
HOME-5142,CC:A4:62:A5:51:40,WPA+AES-CCM WPA+PSK WPA+TKIP,32.497860,-92.127060
HOME-3102,CC:A4:62:F6:31:00,WPA+AES-CCM WPA+PSK WPA+TKIP,32.492991,-92.130757
BUFFALO-G-10D1,CC:E1:D5:00:10:D0,WPA+AES-CCM WPA+PSK,32.486988,-92.146591
None,CE:03:FA:3C:C9:99,WPA+AES-CCM WPA+PSK,32.489521,-92.143364
xfinitywifi,CE:03:FA:3C:C9:9A,None,32.489506,-92.143351
xfinitywifi,CE:03:FA:43:66:D2,None,32.492502,-92.164791
xfinitywifi,CE:03:FA:6A:89:76,None,32.494297,-92.124096
xfinitywifi,CE:03:FA:6B:B1:7E,None,32.488497,-92.167427
None,CE:03:FA:84:26:DE,None,32.490471,-92.167959
xfinitywifi,CE:2E:48:E8:CC:90,None,32.492253,-92.126525
xfinitywifi,CE:35:40:53:A3:EB,None,32.493021,-92.129808
xfinitywifi,CE:35:40:A5:B1:F9,None,32.493080,-92.176336
None,CE:35:40:A8:86:10,WPA+AES-CCM WPA+PSK,32.492315,-92.126582
None,CE:35:40:A8:86:11,None,32.492316,-92.126639
None,CE:35:40:AC:38:81,None,32.488430,-92.162514
xfinitywifi,CE:35:40:B7:B6:C9,None,32.499583,-92.129899
None,CE:61:A3:6D:4B:1B,WPA+AES-CCM WPA+TKIP,32.488457,-92.164691
None,CE:61:A3:74:E6:D5,WPA+AES-CCM WPA+TKIP,32.488429,-92.162323
None,CE:61:A3:79:E0:0D,WPA+AES-CCM WPA+TKIP,32.492998,-92.163315
None,CE:61:A3:8D:02:EA,WPA+AES-CCM WPA+TKIP,32.488415,-92.161499
None,CE:61:A3:8F:84:58,WPA+AES-CCM WPA+TKIP,32.491269,-92.133469
None,CE:61:A3:8F:95:B5,WPA+AES-CCM WPA+TKIP,32.495259,-92.179352
None,CE:61:A3:92:D3:4E,WPA+AES-CCM WPA+TKIP,32.493271,-92.176560
None,CE:61:A3:93:EA:AD,WPA+AES-CCM WPA+TKIP,32.491924,-92.174103
None,CE:61:A3:A1:0B:5D,WPA+AES-CCM WPA+TKIP,32.493733,-92.123626
xfinitywifi,CE:64:4B:14:A4:CD,None,32.493026,-92.166730
xfinitywifi,CE:64:4B:33:13:25,None,32.491669,-92.125503
xfinitywifi,CE:64:4B:36:E7:9B,None,32.491675,-92.167292
None,CE:7C:D1:26:93:08,WPA+AES-CCM WPA+PSK WPA+TKIP,32.500557,-92.130661
None,CE:7C:D1:29:C6:58,WPA+AES-CCM WPA+PSK WPA+TKIP,32.488442,-92.162992
None,CE:7C:D1:9D:AE:38,WPA+AES-CCM WPA+PSK WPA+TKIP,32.492210,-92.131973
None,CE:9E:A2:60:6F:D6,WPA+AES-CCM WPA+PSK,32.493780,-92.123941
None,CE:AB:82:66:B0:DC,WPA+AES-CCM WPA+PSK,32.490443,-92.134778
None,CE:AB:82:AC:02:E6,WPA+AES-CCM WPA+PSK,32.486488,-92.160456
None,CE:AB:82:AC:21:F4,WPA+AES-CCM WPA+PSK,32.487270,-92.139881
None,CE:AB:82:AC:44:84,WPA+AES-CCM WPA+PSK,32.492222,-92.163315
None,CE:AB:82:C6:04:30,WPA+AES-CCM WPA+PSK,32.497275,-92.126604
None,CE:AB:82:C6:88:F7,WPA+AES-CCM WPA+PSK,,
None,CE:AB:82:CA:A3:8F,WPA+AES-CCM WPA+PSK,32.488505,-92.167483
ATT720,D0:39:B3:30:75:60,WPA+AES-CCM WPA+PSK WPA+TKIP,,
ATTPtFqkjA,D0:39:B3:33:17:C0,WPA+AES-CCM WPA+PSK,32.491876,-92.132505
None,D0:4D:2C:3F:96:67,WPA+AES-CCM WPA+PSK,32.491353,-92.133336
None,D2:93:5B:BC:97:81,WPA+AES-CCM WPA+PSK WPA+TKIP,32.499237,-92.129593
None,D2:93:5B:C6:82:31,WPA+AES-CCM WPA+PSK WPA+TKIP,32.488422,-92.162178
xfinitywifi,D2:A0:0D:12:F8:94,None,32.488129,-92.160521
xfinitywifi,D2:A0:0D:13:0E:72,None,,
xfinitywifi,D2:A0:0D:1B:70:69,None,32.492660,-92.128018
xfinitywifi,D2:A0:0D:B3:9D:EA,None,32.488521,-92.168106
None,D2:DA:F9:22:1E:61,WPA+AES-CCM WPA+PSK WPA+TKIP,32.495190,-92.124809
ATT080,D4:04:CD:76:26:80,WPA+AES-CCM WPA+PSK WPA+TKIP,,
ATTUSYgSBA,D4:0A:A9:C6:87:F0,WPA+AES-CCM WPA+PSK,32.499695,-92.129985
Wifi,D4:5D:DF:2D:62:38,WPA+AES-CCM WPA+PSK,32.492803,-92.167645
Roly_Poly_Guest,D4:5D:DF:4E:2C:78,WPA+AES-CCM WPA+PSK WPA+TKIP,,
CBCI-4A04-2.4,D4:5D:DF:50:92:E8,WPA+AES-CCM WPA+PSK WPA+TKIP,,
Peewee61,D4:5D:DF:64:1B:08,WPA+AES-CCM WPA+PSK,32.495318,-92.179657
KimsYouNiqueBoutique,D4:5D:DF:79:DB:C8,WPA+AES-CCM WPA+PSK,,
JULIO84-24,D4:5D:DF:82:E0:58,WPA+AES-CCM WPA+PSK,32.489729,-92.168018
Angelsteve,D4:5D:DF:86:62:38,WPA+AES-CCM WPA+PSK,32.492033,-92.124864
BushFamily,D4:5D:DF:90:5D:18,WPA+AES-CCM WPA+PSK,32.488609,-92.144180
HomeM,D4:5D:DF:91:B8:68,WPA+AES-CCM WPA+PSK,32.488139,-92.161198
Alondra,D4:5D:DF:9B:58:C8,WPA+AES-CCM WPA+PSK,32.488465,-92.165215
Sharon 511,D4:5D:DF:9B:71:E8,WPA+AES-CCM WPA+PSK,32.493702,-92.177071
CBCI-5485-2.4,D4:5D:DF:AD:06:28,WPA+AES-CCM WPA+PSK WPA+TKIP,32.487123,-92.155644
CBCI-168C-2.4,D4:5D:DF:AD:25:A8,WPA+AES-CCM WPA+PSK WPA+TKIP,32.493097,-92.123438
CBCI-7099-2.4,D4:5D:DF:B7:95:50,WPA+AES-CCM WPA+PSK WPA+TKIP,32.492974,-92.176036
CBCI-B941-2.4,D4:5D:DF:B8:CB:20,WPA+AES-CCM WPA+PSK WPA+TKIP,32.488819,-92.144047
CBCI-4B23-2.4,D4:5D:DF:D4:BF:48,WPA+AES-CCM WPA+PSK WPA+TKIP,32.487075,-92.154595
Cheto8,D4:5D:DF:DE:7E:20,WPA+AES-CCM WPA+PSK,32.485002,-92.159670
TP-LINK_0358,D4:6E:0E:37:03:58,WPA+AES-CCM WPA+PSK,32.491560,-92.167358
S&H Family,D4:AB:82:65:A6:D2,WPA+AES-CCM WPA+PSK,32.491575,-92.132989
Shelton,D4:AB:82:66:B0:DC,WPA+AES-CCM WPA+PSK,32.490211,-92.135142
Lighthouse,D4:AB:82:AC:02:E6,WPA+AES-CCM WPA+PSK,32.486239,-92.160150
JasonMandy,D4:AB:82:AC:21:F4,WPA+AES-CCM WPA+PSK,32.486876,-92.140385
BOOK,D4:AB:82:AC:44:84,WPA+AES-CCM WPA+PSK,32.492236,-92.163321
GetYourOwn-2.4,D4:AB:82:AC:52:66,WPA+AES-CCM WPA+PSK,32.493889,-92.123665
Dthomas,D4:AB:82:AF:03:98,WPA+AES-CCM WPA+PSK,32.492148,-92.132075
The Deals,D4:AB:82:B5:F5:6D,WPA+AES-CCM WPA+PSK,32.485563,-92.158905
FBIVan #2,D4:AB:82:C2:CE:B9,WPA+AES-CCM WPA+PSK,32.488468,-92.165428
Jackies,D4:AB:82:C6:04:30,WPA+AES-CCM WPA+PSK,32.497042,-92.126420
Catnmichael,D4:AB:82:C6:88:F7,WPA+AES-CCM WPA+PSK,,
Kiamine,D4:AB:82:CA:A3:8F,WPA+AES-CCM WPA+PSK,32.488533,-92.168137
ATT8zIj5Gr,D4:B2:7A:50:74:39,WPA+AES-CCM WPA+PSK,32.492512,-92.128807
ATT8mgr23R,D4:B2:7A:5C:1F:B5,WPA+AES-CCM WPA+PSK,32.491676,-92.125861
ATT4I9ugD3,D4:B2:7A:E3:53:F9,WPA+AES-CCM WPA+PSK,,
None,D6:7C:D1:26:93:08,WPA+AES-CCM WPA+TKIP,32.500517,-92.130634
None,D6:7C:D1:29:C6:58,WPA+AES-CCM WPA+TKIP,32.488442,-92.162992
None,D6:7C:D1:9D:AE:38,WPA+AES-CCM WPA+TKIP,32.492210,-92.131973
None,D6:AB:82:65:A6:D2,WPA+AES-CCM WPA+PSK WPA+TKIP,32.491410,-92.133247
None,D6:AB:82:66:B0:DC,WPA+AES-CCM,32.490370,-92.134892
None,D6:AB:82:AC:02:E6,WPA+AES-CCM,32.486116,-92.160407
None,D6:AB:82:AC:21:F4,WPA+AES-CCM,32.487302,-92.139808
None,D6:AB:82:AC:44:84,WPA+AES-CCM,32.492320,-92.163311
None,D6:AB:82:C6:04:30,WPA+AES-CCM,32.497048,-92.126419
None,D6:AB:82:CA:A3:8F,WPA+AES-CCM,32.488538,-92.167408
HOME-B446-2.4,D8:97:BA:59:B5:90,WPA+AES-CCM WPA+PSK WPA+TKIP,32.488436,-92.162821
CBCI-3449-2.4,D8:97:BA:7E:48:50,WPA+AES-CCM WPA+PSK WPA+TKIP,32.498223,-92.127347
TwinCity,D8:97:BA:7E:48:D8,WPA+AES-CCM WPA+PSK WPA+TKIP,32.491927,-92.166929
FEEDSTORE,D8:97:BA:7E:70:90,WPA+AES-CCM WPA+PSK WPA+TKIP,32.487104,-92.154282
HOME-9D14,D8:97:BA:7E:73:58,WPA+AES-CCM WPA+PSK WPA+TKIP,32.495392,-92.180412
CBCI-FDB7-2.4,D8:97:BA:7E:A2:20,WPA+AES-CCM WPA+PSK WPA+TKIP,32.493100,-92.130151
HP-Print-CA-Photosmart 5520,D8:9D:67:C3:75:CA,WPA+AES-CCM WPA+PSK,32.495272,-92.179173
JVICwireless,D8:B1:90:2E:C5:31,WEP,32.492596,-92.163269
Employee_Mobile,D8:B1:90:2E:C5:33,WPA+AES-CCM WPA+TKIP,32.492596,-92.163269
ZGpartner,D8:B1:90:2E:C5:34,WPA+AES-CCM WPA+TKIP,32.492596,-92.163269
None,DA:31:34:45:4C:56,WPA+AES-CCM WPA+PSK,32.492062,-92.163464
None,DA:31:34:45:53:1A,WPA+AES-CCM WPA+PSK,32.492156,-92.163368
None,DA:31:34:4C:25:49,WPA+AES-CCM WPA+PSK,32.488462,-92.164888
None,DA:31:34:4C:9E:E4,WPA+AES-CCM WPA+PSK,32.490946,-92.133978
None,DA:31:34:57:6E:19,WPA+AES-CCM WPA+PSK,32.492912,-92.163239
None,DA:31:34:67:40:69,WPA+AES-CCM WPA+PSK,32.496689,-92.126152
None,DA:31:34:7F:E6:3D,WPA+AES-CCM WPA+PSK,32.487118,-92.157356
None,DA:31:34:81:9D:9D,WPA+AES-CCM WPA+PSK,,
DIRECT-roku-927-7ED6C5,DA:31:34:83:9C:7E,WPA+AES-CCM WPA+PSK,32.486638,-92.148436
DIRECT-roku-046-8B4EFC,DA:31:34:A2:E4:73,WPA+AES-CCM WPA+PSK,32.493071,-92.123284
None,DA:31:34:C7:42:7C,WPA+AES-CCM WPA+PSK,32.488463,-92.164730
None,DA:31:34:CD:B9:37,WPA+AES-CCM WPA+PSK,32.485148,-92.161391
None,DA:31:34:CE:8E:98,WPA+AES-CCM WPA+PSK,32.493420,-92.130127
None,DA:31:34:E3:F5:C4,WPA+AES-CCM WPA+PSK,32.491447,-92.168682
None,DA:5D:DF:64:1B:08,WPA+AES-CCM WPA+PSK WPA+TKIP,32.495114,-92.179013
None,DA:5D:DF:9B:71:E8,WPA+AES-CCM WPA+PSK WPA+TKIP,32.493448,-92.176773
DIRECT-c7-HP M130f LaserJet,DA:9C:67:9B:AB:C7,WPA+AES-CCM WPA+PSK,32.485138,-92.159201
None,DA:AB:82:CA:A3:8F,WPA+AES-CCM WPA+PSK,32.488568,-92.167615
DIRECT-6A-HP ENVY 4520 series,DC:4A:3E:33:D6:6B,WPA+AES-CCM WPA+PSK,,
ATT9Twh5B2,DC:7F:A4:4B:09:61,WPA+AES-CCM WPA+PSK,32.491113,-92.133716
Domnique38,DC:7F:A4:9B:00:16,WPA+AES-CCM WPA+PSK,32.492480,-92.127098
KingsCastle,DC:EB:69:38:8A:87,WPA+AES-CCM WPA+PSK,32.488932,-92.167962
None,DC:EB:69:38:8A:88,WPA+AES-CCM WPA+PSK,32.489032,-92.167918
xfinitywifi,DC:EB:69:38:8A:89,None,32.488886,-92.167869
None,DC:EB:69:38:8A:8A,WPA+AES-CCM WPA+PSK,32.488712,-92.167761
None,DC:EB:69:38:8A:8C,WPA+AES-CCM,32.489069,-92.167889
BeccaAndJake,DC:EB:69:8D:35:75,WPA+AES-CCM WPA+PSK,32.484978,-92.161095
None,DC:EB:69:8D:35:76,WPA+AES-CCM WPA+PSK,32.485074,-92.160932
xfinitywifi,DC:EB:69:8D:35:77,None,32.484989,-92.160240
None,DC:EB:69:8D:35:7A,WPA+AES-CCM,32.485074,-92.160932
HOME-CC70-2.4,DC:EB:69:8E:32:63,WPA+AES-CCM WPA+PSK,,
None,DC:EB:69:8E:32:66,WPA+AES-CCM WPA+PSK,,
Eason316,DC:EB:69:DB:08:06,WPA+AES-CCM WPA+PSK,32.491851,-92.166611
xfinitywifi,DC:EB:69:DB:08:08,None,32.491795,-92.167203
None,DC:EB:69:DB:08:0B,WPA+AES-CCM,32.491828,-92.167513
Home-117,DC:EB:69:DC:BC:28,WPA+AES-CCM WPA+PSK,32.492303,-92.166830
None,DC:EB:69:DC:BC:29,WPA+AES-CCM WPA+PSK,32.492758,-92.166604
None,DC:EB:69:DC:BC:2B,WPA+AES-CCM WPA+PSK,32.492585,-92.166864
None,DC:EB:69:DC:BC:2D,WPA+AES-CCM,32.492726,-92.166681
Harrison 2.4GHz ,DC:EF:09:97:14:C4,WPA+AES-CCM WPA+PSK,,
Home-2.4,DC:FE:07:6F:8C:C0,WPA+AES-CCM WPA+PSK,32.488475,-92.166173
None,DE:2E:48:99:08:A3,WPA+AES-CCM WPA+PSK WPA+TKIP,32.499031,-92.129175
None,DE:2E:48:E8:CC:90,WPA+AES-CCM WPA+PSK WPA+TKIP,32.492524,-92.127009
None,DE:34:26:19:4E:04,WPA+AES-CCM WPA+TKIP,32.489342,-92.143677
None,DE:34:26:1A:E8:E0,WPA+AES-CCM WPA+TKIP,32.488195,-92.142044
None,DE:34:26:1C:0A:86,WPA+AES-CCM WPA+TKIP,32.492269,-92.164873
None,DE:34:26:27:E5:2C,WPA+AES-CCM WPA+TKIP,32.488608,-92.167892
None,DE:34:26:2C:CD:62,WPA+AES-CCM WPA+TKIP,32.488445,-92.163463
None,DE:34:26:2E:84:FE,WPA+AES-CCM WPA+TKIP,32.493423,-92.129997
None,DE:34:26:2E:AB:F0,WPA+AES-CCM WPA+TKIP,32.493105,-92.164602
None,DE:34:26:30:1A:BC,WPA+AES-CCM WPA+TKIP,32.492527,-92.163357
None,DE:34:26:37:5E:A8,WPA+AES-CCM WPA+TKIP,32.492172,-92.163503
None,DE:34:26:6A:3B:0C,WPA+AES-CCM WPA+TKIP,32.488218,-92.161205
None,DE:34:26:72:3B:36,WPA+AES-CCM WPA+TKIP,32.492270,-92.163381
None,DE:34:26:7E:08:76,WPA+AES-CCM WPA+TKIP,32.487342,-92.157220
None,DE:34:26:87:E9:AE,WPA+AES-CCM WPA+TKIP,32.488415,-92.161499
xfinitywifi,DE:5D:DF:2D:62:38,None,32.492799,-92.167647
xfinitywifi,DE:5D:DF:82:E0:58,None,32.489313,-92.168067
xfinitywifi,DE:5D:DF:91:B8:68,None,32.488289,-92.160992
xfinitywifi,DE:5D:DF:9B:58:C8,None,32.488462,-92.164879
xfinitywifi,DE:5D:DF:9B:71:E8,None,32.493702,-92.177071
None,DE:61:A3:8D:02:EA,WPA+AES-CCM WPA+PSK WPA+TKIP,32.488430,-92.162447
None,DE:64:4B:14:A4:CD,WPA+AES-CCM WPA+PSK WPA+TKIP,32.492973,-92.167671
None,DE:64:4B:14:C4:49,WPA+AES-CCM WPA+PSK WPA+TKIP,32.488483,-92.166885
None,DE:64:4B:33:13:25,WPA+AES-CCM WPA+PSK WPA+TKIP,32.491853,-92.125272
None,DE:64:4B:36:E7:9B,WPA+AES-CCM WPA+PSK WPA+TKIP,32.491773,-92.167256
NETGEAR07-arlo_246892,DE:EF:09:97:14:C6,WPA+AES-CCM WPA+PSK,,
graphpack,E0:0E:DA:07:DC:50,WEP,32.486820,-92.150520
graphpack,E0:0E:DA:07:DE:50,WEP,32.487209,-92.145988
ATT2RnW8Re,E0:22:02:3D:E6:0D,WPA+AES-CCM WPA+PSK,,
ATT7xMp9WE,E0:22:03:65:D4:89,WPA+AES-CCM WPA+PSK,,
ATT5Wnr4uV,E0:22:03:92:97:C9,WPA+AES-CCM WPA+PSK,,
ATT7VMK9nf,E0:22:03:F1:E1:71,WPA+AES-CCM WPA+PSK,32.493105,-92.129767
ATT8lA6ugS,E0:22:04:1F:4C:75,WPA+AES-CCM WPA+PSK,32.488559,-92.167995
ATT7srt2lZ,E0:22:04:48:A2:F5,WPA+AES-CCM WPA+PSK,32.498937,-92.128786
ATT5nGw55D,E0:22:04:49:00:B5,WPA+AES-CCM WPA+PSK,32.489536,-92.136207
T8Y5D7I6,E0:46:9A:3F:CF:BD,WPA+AES-CCM WPA+PSK,32.488438,-92.162928
Jazzie109,E0:88:5D:2E:1F:3F,WPA+AES-CCM WPA+PSK WPA+TKIP,32.497221,-92.126570
HOME-20F7,E0:88:5D:2E:20:F7,WPA+AES-CCM WPA+PSK WPA+TKIP,32.492938,-92.165888
HOME-6927,E0:88:5D:2E:69:27,WPA+AES-CCM WPA+PSK WPA+TKIP,32.492187,-92.126465
HOME-930E,E0:88:5D:84:93:0E,WPA+AES-CCM WPA+PSK WPA+TKIP,32.487133,-92.156273
Kayden12,E0:88:5D:CB:DF:2C,WPA+AES-CCM WPA+PSK WPA+TKIP,32.492876,-92.130323
scrider,E0:91:F5:C2:74:69,WPA+AES-CCM WPA+PSK WPA+TKIP,,
ATT9K2D6Q6,E0:B7:0A:C0:1A:10,WPA+AES-CCM WPA+PSK,32.492829,-92.127404
None,E2:55:7D:1A:92:45,WPA+AES-CCM WPA+PSK,32.496399,-92.125908
None,E2:55:7D:1A:92:4F,WEP,32.496399,-92.125908
None,E2:5D:DF:2D:62:38,WPA+AES-CCM WPA+PSK WPA+TKIP,32.492787,-92.167579
None,E2:5D:DF:64:1B:08,WPA+AES-CCM WPA+PSK WPA+TKIP,32.495206,-92.179238
None,E2:5D:DF:82:E0:58,WPA+AES-CCM WPA+PSK WPA+TKIP,32.489460,-92.168059
None,E2:5D:DF:86:62:38,WPA+AES-CCM WPA+PSK WPA+TKIP,32.492031,-92.124863
None,E2:5D:DF:90:5D:18,WPA+AES-CCM WPA+PSK WPA+TKIP,32.488514,-92.144249
None,E2:5D:DF:91:B8:68,WPA+AES-CCM WPA+PSK WPA+TKIP,32.487992,-92.161156
None,E2:5D:DF:9B:58:C8,WPA+AES-CCM WPA+PSK WPA+TKIP,32.488513,-92.165238
None,E2:5D:DF:9B:71:E8,WPA+AES-CCM WPA+PSK WPA+TKIP,32.493384,-92.176699
None,E2:5D:DF:DE:7E:20,WPA+AES-CCM WPA+PSK WPA+TKIP,32.485066,-92.160467
xfinitywifi,E2:88:5D:2E:1F:31,None,32.497563,-92.126832
xfinitywifi,E2:88:5D:2E:20:F9,None,32.492866,-92.165926
None,E2:88:5D:2E:69:29,None,32.492187,-92.126465
xfinitywifi,E2:88:5D:84:93:00,None,32.487132,-92.155855
None,E2:88:5D:84:C4:68,None,32.497723,-92.126953
None,E2:88:5D:CB:DF:2D,WPA+AES-CCM WPA+PSK,32.492870,-92.130416
xfinitywifi,E2:88:5D:CB:DF:2E,None,32.492951,-92.130459
None,E2:89:2C:33:3B:20,WPA+AES-CCM WPA+PSK,32.491988,-92.163503
None,E2:89:2C:33:AC:B0,WPA+AES-CCM WPA+PSK,32.487109,-92.158305
None,E2:89:2C:76:32:D0,WPA+AES-CCM WPA+PSK,32.491331,-92.133370
xfinitywifi,E2:97:BA:59:B5:90,None,32.488441,-92.163168
None,E2:A0:0D:12:F8:94,WPA+AES-CCM WPA+PSK WPA+TKIP,32.488124,-92.160616
None,E2:A0:0D:17:8D:DA,WPA+AES-CCM WPA+PSK WPA+TKIP,32.493362,-92.123268
None,E2:A0:0D:1B:70:69,WPA+AES-CCM WPA+PSK WPA+TKIP,32.492417,-92.127164
None,E2:A0:0D:B3:9D:EA,WPA+AES-CCM WPA+PSK WPA+TKIP,32.488519,-92.168096
dlink-0A94,E4:6F:13:5D:0A:94,WPA+AES-CCM WPA+PSK WPA+TKIP,32.491278,-92.133454
NETGEAR70,E4:F4:C6:10:C3:21,WPA+AES-CCM WPA+PSK,32.492894,-92.164473
xfinitywifi,E6:3E:FC:6E:85:50,None,32.491920,-92.172943
xfinitywifi,E6:3E:FC:C5:51:A0,None,32.491913,-92.164224
None,E6:97:BA:59:B5:90,WPA+AES-CCM WPA+PSK WPA+TKIP,32.488435,-92.162715
xfinitywifi,E6:AB:82:64:1F:EF,None,32.499017,-92.128621
xfinitywifi,E6:AB:82:65:A6:D2,None,32.491661,-92.132848
xfinitywifi,E6:AB:82:AF:03:98,None,32.491831,-92.132577
xfinitywifi,E6:AB:82:B5:F5:6D,None,32.485408,-92.158929
xfinitywifi,E6:AB:82:C2:CE:B9,None,32.488470,-92.165666
xfinitywifi,E6:AB:82:C2:D2:66,None,32.487013,-92.153000
TCL LX_8013,E6:E1:30:98:7E:C5,WPA+AES-CCM WPA+PSK,32.487118,-92.157318
xfinitywifi,E6:FE:07:6F:8C:C0,None,32.488475,-92.166106
ATT800,E8:33:81:45:6C:B0,WPA+AES-CCM WPA+PSK WPA+TKIP,32.500557,-92.130661
ATT136,E8:33:81:76:AF:60,WPA+AES-CCM WPA+PSK WPA+TKIP,32.498382,-92.127514
ATT600,E8:33:81:85:6E:A0,WPA+AES-CCM WPA+PSK WPA+TKIP,32.492404,-92.128441
HOME-6FF2,E8:3E:FC:A0:6F:F0,WPA+AES-CCM WPA+PSK WPA+TKIP,32.488521,-92.168045
HOME-51A2,E8:3E:FC:C5:51:A0,WPA+AES-CCM WPA+PSK WPA+TKIP,32.491911,-92.164145
PS4-A4B6AC0D7D0D,E8:61:7E:A0:D6:B5,WPA+AES-CCM WPA+PSK,,
HOME-3B22,E8:89:2C:33:3B:20,WPA+AES-CCM WPA+PSK WPA+TKIP,32.492087,-92.163496
HOME-ACB2,E8:89:2C:33:AC:B0,WPA+AES-CCM WPA+PSK WPA+TKIP,32.487190,-92.158958
HOME-E3F2,E8:89:2C:71:E3:F0,WPA+AES-CCM WPA+PSK WPA+TKIP,32.488445,-92.163246
HOME-32D2,E8:89:2C:76:32:D0,WPA+AES-CCM WPA+PSK WPA+TKIP,32.491244,-92.133506
Collins Home,E8:89:2C:CD:F7:90,WPA+AES-CCM WPA+PSK WPA+TKIP,32.492466,-92.175606
MOTO8366,E8:91:20:F6:79:56,WPA+AES-CCM WPA+PSK,,
WMUTE.TessAshNet-v2014,E8:94:F6:90:DD:B0,WPA+AES-CCM WPA+PSK WPA+TKIP,32.499184,-92.129564
NETGEAR14,E8:FC:AF:A0:AE:DE,WPA+AES-CCM WPA+PSK,32.493008,-92.163368
N3tw0rkTw0,E8:FC:AF:F5:41:22,WPA+AES-CCM WPA+PSK,32.493145,-92.123100
None,EA:5D:DF:2D:62:38,WPA+AES-CCM WPA+TKIP,32.492882,-92.167594
None,EA:5D:DF:64:1B:08,WPA+AES-CCM WPA+TKIP,32.495194,-92.179226
None,EA:5D:DF:82:E0:58,WPA+AES-CCM WPA+TKIP,32.489289,-92.168052
None,EA:5D:DF:86:62:38,WPA+AES-CCM WPA+TKIP,32.492174,-92.124640
None,EA:5D:DF:90:5D:18,WPA+AES-CCM WPA+TKIP,32.488609,-92.144180
None,EA:5D:DF:91:B8:68,WPA+AES-CCM WPA+TKIP,32.488530,-92.161410
None,EA:5D:DF:9B:58:C8,WPA+AES-CCM WPA+TKIP,32.488463,-92.165043
None,EA:5D:DF:9B:71:E8,WPA+AES-CCM WPA+TKIP,32.493448,-92.176773
None,EA:5D:DF:DE:7E:20,WPA+AES-CCM WPA+TKIP,32.485088,-92.160432
None,EA:9F:EC:04:FE:C2,WPA+AES-CCM WPA+TKIP,32.493415,-92.130048
None,EA:9F:EC:0B:90:EB,WPA+AES-CCM WPA+TKIP,32.499594,-92.129906
None,EA:9F:EC:1E:1C:0F,WPA+AES-CCM WPA+TKIP,32.485764,-92.159855
None,EA:9F:EC:2E:1E:A4,WPA+AES-CCM WPA+TKIP,32.484993,-92.159241
None,EA:9F:EC:5F:50:AB,WPA+AES-CCM WPA+TKIP,32.487460,-92.141319
None,EA:9F:EC:5F:83:AB,WPA+AES-CCM WPA+TKIP,32.488445,-92.163572
None,EA:FE:07:6F:8C:C0,WPA+AES-CCM WPA+PSK WPA+TKIP,32.488481,-92.166685
belkin.566,EC:1A:59:BC:75:66,WPA+AES-CCM WPA+PSK,32.489193,-92.168091
DIRECT-F8-HP OfficeJet 4650,EC:8E:B5:62:2F:F9,WPA+AES-CCM WPA+PSK,32.498310,-92.127419
McDonald,EC:AA:A0:00:0E:A8,WPA+AES-CCM WPA+PSK,32.491898,-92.165052
MacArthur,EC:AA:A0:65:ED:08,WPA+AES-CCM WPA+PSK,32.494414,-92.126525
HICKS2018,EC:AA:A0:7D:5B:B8,WPA+AES-CCM WPA+PSK,32.498366,-92.127460
Lollieboy,EC:AA:A0:89:8D:28,WPA+AES-CCM WPA+PSK,32.490158,-92.135231
robertshouse,EC:AA:A0:8B:AC:48,WPA+AES-CCM WPA+PSK WPA+TKIP,32.491928,-92.163353
HOME-4FBA-2.4,EC:AA:A0:98:1E:68,WPA+AES-CCM WPA+PSK WPA+TKIP,,
nydea_2.4GHz,EC:AA:A0:99:1B:38,WPA+AES-CCM WPA+PSK,32.487052,-92.154845
jean,EC:AA:A0:9F:96:28,WPA+AES-CCM WPA+PSK WPA+TKIP,32.493458,-92.123388
Ladybugg,EC:AA:A0:CA:FA:80,WPA+AES-CCM WPA+PSK,32.488412,-92.161361
WPA/WPA2,EE:1A:59:BC:75:67,WPA+AES-CCM WPA+PSK,32.489563,-92.168060
Christina\342\200\231s iPhone,EE:2D:B7:A8:9D:2E,WPA+AES-CCM WPA+PSK,32.485860,-92.158875
None,EE:34:26:2E:AB:F0,WPA+AES-CCM WPA+PSK WPA+TKIP,32.493103,-92.165008
None,EE:97:BA:59:B5:90,WPA+AES-CCM WPA+TKIP,32.488437,-92.162852
RHTC-Guest,F0:9F:C2:D7:72:BD,WPA+AES-CCM WPA+PSK,32.485004,-92.159596
RHTC-Guest,F0:9F:C2:D7:73:C7,WPA+AES-CCM WPA+PSK,32.485570,-92.159017
None,F0:9F:C2:F4:62:66,WPA+AES-CCM WPA+PSK,32.496487,-92.125992
Lyles1,F0:AB:54:1D:D0:AC,WPA+AES-CCM WPA+PSK WPA+TKIP,32.496033,-92.125580
mydormax1,F0:AB:54:B6:F0:86,WPA+AES-CCM WPA+PSK WPA+TKIP,32.486972,-92.152647
None,F2:93:5B:BC:97:81,WPA+AES-CCM WPA+TKIP,32.499725,-92.130007
None,F2:93:5B:C6:82:31,WPA+AES-CCM WPA+TKIP,32.488429,-92.162398
RHTC,F2:9F:C2:D7:72:BD,WPA+AES-CCM WPA+PSK,32.485017,-92.159352
RHTC,F2:9F:C2:D7:73:C7,WPA+AES-CCM WPA+PSK,32.485356,-92.159057
None,F2:9F:C2:F4:62:66,WPA+AES-CCM WPA+PSK,32.494098,-92.129222
None,F2:AA:A0:89:8D:28,WPA+AES-CCM WPA+PSK WPA+TKIP,32.490158,-92.135231
None,F2:DA:F9:22:1E:61,WPA+AES-CCM WPA+TKIP,32.495209,-92.124825
None,F2:FE:07:6F:8C:C0,WPA+AES-CCM WPA+TKIP,32.488475,-92.166098
Mindy,F4:0E:83:D5:26:B0,WPA+AES-CCM WPA+PSK,32.499625,-92.129926
Hughes,F4:0E:83:F1:C6:6A,WPA+AES-CCM WPA+PSK,,
Simpson,F4:0E:83:F1:DB:29,WPA+AES-CCM WPA+PSK,32.488446,-92.163347
Kirby,F4:0E:83:F2:77:D3,WPA+AES-CCM WPA+PSK,32.488232,-92.160477
DIRECT-DD-HP OfficeJet 4650,F4:30:B9:4E:C6:DE,WPA+AES-CCM WPA+PSK,32.491928,-92.164043
DIRECT-67-HP OfficeJet 3830,F4:30:B9:ED:1C:68,WPA+AES-CCM WPA+PSK,32.488233,-92.142084
DIRECT-05-HP OfficeJet 3830,F4:39:09:A8:8C:06,WPA+AES-CCM WPA+PSK,32.486706,-92.149002
DIRECT-16-HP DeskJet 2600 series,F4:39:09:AE:66:17,WPA+AES-CCM WPA+PSK,32.492222,-92.163315
Mobile Hotspot 831B,F4:63:49:3A:83:1B,WPA+AES-CCM WPA+PSK,32.488490,-92.142337
GPI,F4:DB:E6:8F:6D:80,WPA+AES-CCM WPA+PSK,32.486820,-92.149900
GPI_Guest,F4:DB:E6:8F:6D:81,WPA+AES-CCM WPA+PSK,32.486820,-92.149900
GPI-Secure,F4:DB:E6:8F:6D:82,WPA+AES-CCM,32.486820,-92.149900
GPI-Equipment,F4:DB:E6:8F:6D:83,WPA+AES-CCM WPA+PSK,32.486820,-92.149900
Calvary_AV,F4:F2:6D:B3:46:C8,WPA+AES-CCM WPA+PSK,32.492592,-92.128033
None,F6:0E:83:D5:26:B0,WPA+AES-CCM WPA+PSK WPA+TKIP,32.499640,-92.129938
None,F6:0E:83:F2:77:D3,WPA+AES-CCM WPA+PSK WPA+TKIP,32.488232,-92.160477
xfinitywifi,F6:AA:A0:65:ED:08,None,32.493212,-92.126517
xfinitywifi,F6:AA:A0:7D:5B:B8,None,32.498447,-92.127678
xfinitywifi,F6:AA:A0:89:8D:28,None,32.490158,-92.135231
xfinitywifi,F6:AA:A0:8B:AC:48,None,32.491928,-92.163353
xfinitywifi,F6:AA:A0:98:1E:68,None,,
xfinitywifi,F6:AA:A0:99:1B:38,None,32.487133,-92.156273
xfinitywifi,F6:AA:A0:9F:96:28,None,32.493333,-92.123291
xfinitywifi,F6:AA:A0:CA:FA:80,None,32.488419,-92.161987
None,F6:AB:82:64:1F:EF,WPA+AES-CCM WPA+PSK WPA+TKIP,32.498905,-92.128838
None,F6:AB:82:65:A6:D2,WPA+AES-CCM WPA+PSK WPA+TKIP,32.491938,-92.132416
None,F6:AB:82:AF:03:98,WPA+AES-CCM WPA+PSK WPA+TKIP,32.491752,-92.132703
None,F6:AB:82:B5:F5:6D,WPA+AES-CCM WPA+PSK WPA+TKIP,32.485466,-92.158920
None,F6:AB:82:C2:CE:B9,WPA+AES-CCM WPA+PSK WPA+TKIP,32.488473,-92.165964
None,F6:AB:82:C2:D2:66,WPA+AES-CCM WPA+PSK WPA+TKIP,32.487003,-92.152946
xfinitywifi,F6:ED:A5:6F:B9:A0,None,32.492321,-92.124405
None,F6:FE:07:6F:8C:C0,WPA+AES-CCM WPA+PSK WPA+TKIP,32.488474,-92.166023
GPI,F8:0F:6F:28:61:00,WPA+AES-CCM WPA+PSK,32.486763,-92.147350
GPI_Guest,F8:0F:6F:28:61:01,WPA+AES-CCM WPA+PSK,32.486757,-92.147324
GPI-Secure,F8:0F:6F:28:61:02,WPA+AES-CCM,32.486573,-92.147957
GPI-Equipment,F8:0F:6F:28:61:03,WPA+AES-CCM WPA+PSK,32.486724,-92.147428
ATT4xG6eiS,F8:18:97:01:CF:A5,WPA+AES-CCM WPA+PSK,32.493012,-92.123668
ATT9upN8Y8,F8:18:97:3E:76:A2,WPA+AES-CCM WPA+PSK WPA+TKIP,32.491913,-92.125317
ATT7iEI6fZ,F8:18:97:5F:A5:16,WPA+AES-CCM WPA+PSK WPA+TKIP,32.491684,-92.125495
ATT9pmT4cs,F8:18:97:BD:A7:51,WPA+AES-CCM WPA+PSK,32.495582,-92.125172
ATT3Att9tl,F8:18:97:BF:1D:55,WPA+AES-CCM WPA+PSK,32.487234,-92.139810
DETHLAB,F8:18:97:C5:9E:B5,WPA+AES-CCM WPA+PSK,32.498908,-92.129053
NotFreeEither,F8:18:97:D9:3D:5D,WPA+AES-CCM WPA+PSK,32.492571,-92.124008
ATT3jNe3HS,F8:2C:18:43:31:1D,WPA+AES-CCM WPA+PSK,32.489313,-92.143195
ATT7zDV5JS,F8:2C:18:79:7E:4D,WPA+AES-CCM WPA+PSK,,
ATT75FEj3A,F8:2C:18:7E:7B:51,WPA+AES-CCM WPA+PSK,32.491231,-92.133528
ATT4HvJGDS,F8:2D:C0:6F:DA:D0,WPA+AES-CCM WPA+PSK,32.493712,-92.124340
ATTa3TKSBA,F8:2D:C0:AC:DE:20,WPA+AES-CCM WPA+PSK,,
ATT4Ys2s22,F8:2D:C0:AC:F1:D0,WPA+AES-CCM WPA+PSK,,
ATTKVFHFi2,F8:2D:C0:AD:38:B0,WPA+AES-CCM WPA+PSK,,
ATTppbt2pi,F8:2D:C0:B6:54:F0,WPA+AES-CCM WPA+PSK,,
dmglenno,F8:35:DD:64:B1:51,WPA+AES-CCM WPA+PSK,32.488196,-92.160489
Our House,F8:8B:37:F4:91:B8,WPA+AES-CCM WPA+PSK,32.493091,-92.123184
Henryclan2007,F8:8B:37:F5:24:68,WPA+AES-CCM WPA+PSK WPA+TKIP,32.491545,-92.125648
Boatwright306,F8:A0:97:3F:9B:38,WPA+AES-CCM WPA+PSK,32.485736,-92.159474
Keisha,F8:A0:97:E8:F5:BC,WPA+AES-CCM WPA+PSK,32.496033,-92.125580
SCOTT,F8:ED:A5:6F:B9:A0,WPA+AES-CCM WPA+PSK,32.492697,-92.124429
ATTXQPgWjA,F8:F5:32:73:9C:E0,WPA+AES-CCM WPA+PSK,32.499465,-92.129801
ATT4JaTVvS,F8:F5:32:7D:45:90,WPA+AES-CCM WPA+PSK,,
GreenResidence,F8:F5:32:8C:E7:EE,WPA+AES-CCM WPA+PSK,32.491733,-92.167994
King,F8:F5:32:94:0D:73,WPA+AES-CCM WPA+PSK,32.487912,-92.141765
Orr1,F8:F5:32:96:54:24,WPA+AES-CCM WPA+PSK,32.487999,-92.161073
None,FA:8F:CA:31:66:D6,None,32.499009,-92.128420
Master Bedroom TV.b,FA:8F:CA:54:A4:65,None,32.493117,-92.166721
None,FA:8F:CA:55:5F:5A,None,32.487133,-92.156273
None,FA:8F:CA:6A:F6:81,None,,
Chromecast Speaker.a,FA:8F:CA:70:64:DF,None,32.498985,-92.128439
None,FA:8F:CA:7A:A2:BC,None,32.495472,-92.125071
None,FA:8F:CA:7F:27:83,None,32.492722,-92.167610
None,FA:9F:EC:04:FE:C2,WPA+AES-CCM WPA+PSK WPA+TKIP,32.493446,-92.129987
None,FA:A0:97:B3:7E:B1,WPA+AES-CCM WPA+PSK WPA+TKIP,32.494591,-92.178116
None,FA:AA:A0:00:0E:A8,WPA+AES-CCM WPA+PSK WPA+TKIP,32.491898,-92.164822
None,FA:AA:A0:65:ED:08,WPA+AES-CCM WPA+PSK WPA+TKIP,32.493865,-92.126749
None,FA:AA:A0:7D:5B:B8,WPA+AES-CCM WPA+PSK WPA+TKIP,32.498519,-92.127808
None,FA:AA:A0:89:8D:28,WPA+AES-CCM WPA+PSK WPA+TKIP,32.490158,-92.135231
None,FA:AA:A0:97:94:A8,WPA+AES-CCM WPA+PSK WPA+TKIP,32.488459,-92.164627
None,FA:AA:A0:98:1E:68,WPA+AES-CCM WPA+PSK WPA+TKIP,,
None,FA:AA:A0:99:1B:38,WPA+AES-CCM WPA+PSK WPA+TKIP,32.487068,-92.155124
None,FA:AA:A0:9F:96:28,WPA+AES-CCM WPA+PSK WPA+TKIP,32.493521,-92.123344
None,FA:AA:A0:CA:FA:80,WPA+AES-CCM WPA+PSK WPA+TKIP,32.488410,-92.161169
None,FA:F5:32:94:0D:73,WPA+AES-CCM WPA+PSK WPA+TKIP,32.487758,-92.141614
None,FA:F5:32:96:54:24,WPA+AES-CCM WPA+PSK WPA+TKIP,32.488065,-92.160822
HP-Print-45-Officejet Pro 8600,FC:15:B4:A6:9A:45,None,32.494671,-92.178215
DIRECT-A6-HP ENVY 4510 series,FC:3F:DB:7E:DB:A7,WPA+AES-CCM WPA+PSK,32.492981,-92.127281
DIRECT-B7-HP OfficeJet 4650,FC:3F:DB:E5:86:B8,WPA+AES-CCM WPA+PSK,32.489521,-92.143364
ValerieQjay,FC:51:A4:02:77:35,WPA+AES-CCM WPA+PSK,32.491907,-92.169944
Steveo5150,FC:51:A4:0B:C0:A6,WPA+AES-CCM WPA+PSK,32.485620,-92.160861
Carranza,FC:51:A4:18:50:3F,WPA+AES-CCM WPA+PSK,32.488529,-92.167842
Dollie Marie,FC:51:A4:1A:E6:F9,WPA+AES-CCM WPA+PSK,32.498299,-92.127410
SABRINA,FC:51:A4:24:17:AB,WPA+AES-CCM WPA+PSK,32.493347,-92.123184
Jag,FC:51:A4:28:3E:94,WPA+AES-CCM WPA+PSK,32.491917,-92.171455
Home106,FC:51:A4:28:D8:62,WPA+AES-CCM WPA+PSK,32.492785,-92.163566
Laura Shawn,FC:51:A4:29:4A:76,WPA+AES-CCM WPA+PSK,32.485873,-92.158988
Jenny's Wifi,FC:51:A4:29:4C:33,WPA+AES-CCM WPA+PSK,32.492947,-92.163548
Rathbun2,FC:51:A4:AE:F6:D0,WPA+AES-CCM WPA+PSK,32.490501,-92.167953
O-H-I-O,FC:51:A4:AF:D9:CE,WPA+AES-CCM WPA+PSK,32.488621,-92.142469
Evans,FC:51:A4:AF:DD:34,WPA+AES-CCM WPA+PSK WPA+TKIP,32.494269,-92.177738
GetYoOwnShit,FC:51:A4:D5:B1:26,WPA+AES-CCM WPA+PSK,32.485793,-92.161289
ATT8CGAfEa,FC:AE:34:12:8E:F0,WPA+AES-CCM WPA+PSK,32.499035,-92.129150
ATTm5RikI2,FC:AE:34:39:05:80,WPA+AES-CCM WPA+PSK,32.492286,-92.129034
Barnhart,FC:EC:DA:38:C0:CE,WPA+AES-CCM WPA+PSK,32.486801,-92.156573
DEI,FC:EC:DA:3E:D5:CC,WPA+AES-CCM WPA+PSK,32.487083,-92.154705
DEI,FC:EC:DA:3E:DB:BE,WPA+AES-CCM WPA+PSK,32.487078,-92.154763
DEI,FC:EC:DA:3E:DC:0A,WPA+AES-CCM WPA+PSK,32.487025,-92.153668
DEI,FC:EC:DA:3E:DF:D7,WPA+AES-CCM WPA+PSK,32.486958,-92.152503
FIRSTWEST,FC:EC:DA:F4:22:44,None,,
None,FE:2E:48:99:08:A3,WPA+AES-CCM WPA+TKIP,32.498972,-92.129105
None,FE:2E:48:E8:CC:90,WPA+AES-CCM WPA+TKIP,32.492271,-92.126645
None,FE:51:A4:24:17:AB,WPA+AES-CCM WPA+PSK WPA+TKIP,32.493347,-92.123184
None,FE:64:4B:14:A4:CD,WPA+AES-CCM WPA+TKIP,32.493083,-92.166650
None,FE:64:4B:33:13:25,WPA+AES-CCM WPA+TKIP,32.491786,-92.125447
None,FE:64:4B:36:E7:9B,WPA+AES-CCM WPA+TKIP,32.491682,-92.167317
None,FE:65:DE:AA:82:E3,WPA+AES-CCM WPA+PSK,32.491855,-92.166337
None,FE:A1:83:B1:7E:A0,WPA+AES-CCM WPA+PSK,32.488533,-92.168137
None,FE:A6:67:75:A9:DC,WPA+AES-CCM WPA+PSK,,
None,FE:A6:67:7B:6D:5E,WPA+AES-CCM WPA+PSK,32.493404,-92.130044
None,FE:A6:67:C7:87:44,WPA+AES-CCM WPA+PSK,32.493064,-92.130654
None,FE:A6:67:D9:82:C8,WPA+AES-CCM WPA+PSK,32.490042,-92.135409
None,FE:A6:67:D9:E6:65,WPA+AES-CCM WPA+PSK,32.490557,-92.134593
None,FE:A6:67:F8:D0:19,WPA+AES-CCM WPA+PSK,,
None,FE:EC:DA:3E:D5:CC,WPA+AES-CCM WPA+PSK,32.487062,-92.154143
None,FE:EC:DA:3E:DB:BE,WPA+AES-CCM WPA+PSK,32.487074,-92.154616
None,FE:EC:DA:3E:DC:0A,WPA+AES-CCM WPA+PSK,32.487030,-92.153486
None,FE:EC:DA:3E:DF:D7,WPA+AES-CCM WPA+PSK,32.487010,-92.153205
MCW,FE:EC:DA:95:A7:06,WPA+AES-CCM WPA+PSK,,
FW_MEDIA,FE:EC:DA:F4:22:44,WPA+AES-CCM WPA+PSK,,